"School Name","School Code","Headmaster","Address","City","State","Zip Code","Zip Code + 4","Phone","Fax","Email"
"ABBEVILLE CHRISTIAN ACADEMY","0010","BARBARA LINDSEY","PO BOX 9","ABBEVILLE","AL","36310","0009","334-585-5100","334-585-5100","pkelley@abbevillechristianacademy.com"
"ACTS ACADEMY","0011","MR EARL BRYANT","316 FOB JAMES DR","VALLEY","AL","36854","5288","334-576-4975","999-999-9999","ebryant50@live.com"
"VIVIAN B ADAMS SCHOOL","0015","MR DAVID SPRAYBERRY","2047 STUART TARTER RD","OZARK","AL","36360","7557","334-774-5132",,"david.sprayberry@vivianbadams.org"
"ADVENT EPISCOPAL DAY SCHOOL","0020","UNA S BATTLES","2019 6TH AVE N","BIRMINGHAM","AL","35203","2790","205-252-2535","205-252-3023","ubattles@advent.pvt.k12.al.us"
"ALABAMA CAREER EDUCATION & LIFE SKILLS CENTER","0025","J. VINCENT BROWN","609 INVERNESS LNDG","BIRMINGHAM","AL","35242","3842","832-445-6404","999-999-9999","alcareereduccenter@gmail.com"
"ALABAMA CHRISTIAN ACADEMY","0030","MILTON C SLAUSON","4700 WARES FERRY RD","MONTGOMERY","AL","36109","3317","334-277-1985",,"rsewell@alabamachristian.com"
"THE ALTAMONT SCHOOL","0045","SARAH WHITESIDE","4801 ALTAMONT RD S","BIRMINGHAM","AL","35222","4499","205-445-1210","999-999-9999","administrator@altamontschool.com"
"ALL SAINT'S EPISCOPAL SCH","0070","MS KATHERINE K WALSH","112 W HAWTHORNE RD","BIRMINGHAM","AL","35209","3922","205-879-1092","205-897-0574","nonesupplied@noreply.com"
"AMERICAN CHRISTIAN ACADEMY","0095","DAN CARDEN","2300 VETERANS MEMORIAL PKWY","TUSCALOOSA","AL","35404","4158","205-553-5963","205-553-5942","dcarden@acacademy.com"
"AMERICAN ACADEMY","0096","DR DORIS J BROWN","1909 GOVERNMENT ST","MOBILE","AL","36606","1625","251-644-1585","999-999-9999","nonesupplied@noreply.com"
"ANGELA DAVIS CHRISTIAN ACADEMY","0111","MR FREDDIE LEE DAVIS SR","166 MEAHER AVE","PRICHARD","AL","36610","4871","251-456-7353","251-456-7357","tmelect@hotmail.com"
"AOH CHRISTIAN SCHOOL","0112","MS JUANITA ARRINGTON","PO BOX 6238","MOBILE","AL","36660","0238","205-324-2253","999-999-9999","nonesupplied@noreply.com"
"ARC OF SHELBY COUNTY","0114","MS KAREN STOKES","1960 CHANDALAR DR","PELHAM","AL","35124","4323","205-664-9313","999-999-9999","karenstokes@bellsouth.net"
"THE ARC OF MADISON COUNTY","0115","MS SUSAN KLINGEL","1100 WASHINGTON ST NW","HUNTSVILLE","AL","35801","4678","256-539-2266","999-999-9999","sklingel@hsvarc.org"
"THE DONOHO SCHOOL","0120","JANICE D HURD","2501 HENRY RD","ANNISTON","AL","36207","6399","256-237-5477","256-237-6474","jhurd@donohoschool.com"
"ASCENSION EPISCOPAL KINDERGARTEN","0140","JERRIE ELLIOTT","1912 CANYON RD","VESTAVIA","AL","35216","1753","205-979-8711","999-999-9999","jerrie.elliott@ascensionepiscopal.org"
"ASHFORD ACADEMY","0160","MS REBECCA D BAGGETT","1100 N BROADWAY ST","ASHFORD","AL","36312","3523","334-899-3286",,"bbaggett36117@yahoo.com"
"ATMORE CHRISTIAN SCHOOL","0171","MRS GOLDIE HUBER","245 TENNANT DR","ATMORE","AL","36502","1010","251-368-5499","999-999-9999","nonesupplied@noreply.com"
"WEST MOBILE BAPT CHRISTIAN SCHOOL AND CDC","0178","MS JENNIFER FELTMAN","7501 AIRPORT BLVD","MOBILE","AL","36608","5001","334-639-6868","334-633-9825","nonesupplied@noreply.com"
"ATHENS BIBLE SCHOOL","0180","MR RANDALL LUNSFORD ADAMS","507 HOFFMAN ST","ATHENS","AL","35611","2799","256-232-3525","999-999-9999","randall.adams@athensbibleschool.org"
"AUTAUGA ACADEMY","0190","GERALD CARTER","497 GOLSON RD","PRATTVILLE","AL","36067","9702","334-365-4343","334-365-7713","gcarter@autaugaacademy.com"
"BAYSIDE ACADEMY","0200","MR THOMAS F JOHNSON","303 DRYER AVE","DAPHNE","AL","36526","4484","334-626-2840","334-626-2899","tjohnson@baysideacademy.org"
"BAYSHORE CHRISTIAN SCHOOL","0201","MR MARK .X. COX","23050 US HIGHWAY 98","FAIRHOPE","AL","36532","3370","251-929-0011",,"admin@bayshorechristian.org"
"BESSEMER ACADEMY","0240","MRS JULIE FULLER KELLY","1705 4TH AVE SW","BESSEMER","AL","35022","0000","205-428-6288","205-426-8888","jkelly@bessemeracademy.com"
"BETHLEHEM CHRISTIAN ACADEMY","0247","MRS SUZANNE ELAINE CROCKER","1936 ELKWOOD SECTION RD","HAZEL GREEN","AL","35750","8110","256-828-4835","999-999-9999","suzanne.crocker@bbchg.org"
"BETHANY CHRISTIAN ACADEMY","0248","MR VICTOR - WALLER","1765 HIGHLAND AVE","MONTGOMERY","AL","36107","2601","334-264-2101","334-264-0513","serveright2@yahoo.com"
"BETHANY DAY CARE - KINDERGARTEN","0249","MRS ADDIE MYRICK","714 CEDAR ST","MONTGOMERY","AL","36106","1002","334-265-5521","335-265-5521","bethanydaycare@knology.net"
"BETHEL BAPTIST SCHOOL","0253","MS JANIS WELLS","1301 BETHEL ROAD NORTH E","HARTSELLE","AL","35640","0000","256-773-2154",,"jwells@bethelofhartselle.org"
"BETHEL BAPTIST CHURCH CDC","0254","MS CAROLYNE K MCCALL","1637 PEARSON AVE SW","BIRMINGHAM","AL","35211","2635","205-923-8363",,"nonesupplied@noreply.com"
"BETHLEHEM CHILD DEVELOPEMENT CENTER","0256","MS LIZ KING","416 BETHLEHEM RD","MIDLAND CITY","AL","36350","7000","334-673-4980","999-999-9999","lizbcdc@yahoo.com"
"BETTER LIFE CHRISTIAN ACADEMY","0257","PSTR SANDRA BOUTWELL","8020 MOFFETT RD STE C","SEMMES","AL","36575","4701","251-649-4006",,"nonesupplied@noreply.com"
"BIBLE WAY CHRISTIAN ACADEMY","0261","MS ELLEN GARRISON","8224 COUNTY ROAD 36","SNEAD","AL","35952","0000","205-466-5606","205-466-7107","bibleway@hopper.net"
"BLUFF PARK UNITED METHODIST CHURCH","0263","JOAN LANDRUM","733 VALLEY ST","HOOVER","AL","35226","1296","205-822-0910","205-824-0228","nonesupplied@noreply.com"
"TUSCALOOSA CHRISTIAN","0265","MR DAN LANCASTER","PO BOX 250","COTTONDALE","AL","35453","0103","205-553-4303","205-553-4259","dlancaster@tcswarriors.org"
"N E MILES JEWISH DAY SCHOOL","0270","ROBERT GREENBERG","4000 MONTCLAIR RD","BIRMINGHAM","AL","35213","2412","205-879-1068",,"nemjdsdir@aol.com"
"BRADFORD HEALTH SERVICE - MADISON","0286","RICHARD ADAMS","1600 BROWNS FERRY RD","MADISON","AL","35758","9601","256-461-7272","256-464-9618","nonesupplied@noreply.com"
"BREAK THROUGH","0291","MR SAWASKI JACKSON","20 MARSHALL ST","MONTGOMERY","AL","36104","5441","334-264-8027","334-264-8027","nonesupplied@noreply.com"
"BRIARWOOD CHRISTIAN SCHOOL","0302","DR BARRETT MOSBACKER","6255 CAHABA VALLEY RD","BIRMINGHAM","AL","35242","4915","205-776-5902","999-999-9999","Khux@bcsk12.org"
"BROWN'S PRIVATE SCHOOL","0320","BENNIE C JOHNSON JR","1130 BELLVIEW ST","MONTGOMERY","AL","36104","4822","334-264-2971","334-281-5171","brownsprivateschool@aol.com"
"CALVARY BAPTIST ACADEMY","0321","MR DIRK CRAWFORD","126 DOUGLASS RD NW","HUNTSVILLE","AL","35806","2278","256-837-6873","999-999-9999","dwc@calvarybaptisthsv.org"
"BY FAITH CHRISTIAN ACADEMY","0329","MR AVERY BROWN","5528 WARES FERRY RD","MONTGOMERY","AL","36117","2105","334-271-2320",,"nonesupplied@noreply.com"
"BULLOCK MEMORIAL SCHOOL","0330","MR TOM GARRETT","PO BOX 31","UNION SPRINGS","AL","36089","0031","256-315-5400","256-315-5420","nonesupplied@noreply.com"
"CAHABA SCHOOL","0331","MS DEBORAH H MINOR","3821 LORNA RD STE 118-120","HOOVER","AL","35244","1035","205-989-8333","205-989-8339","dhminor@bellsouth.net"
"CALERA CHRISTIAN SCHOOL","0333","NORMA ALEXANDER","PO BOX 1610","CALERA","AL","35040","1610","205-668-2521","205-668-4018","nonesupplied@noreply.com"
"CALVARY CHRISTIAN ACADEMY","0338","DR JOHN GLASSCOCK","4601 TROY HWY","MONTGOMERY","AL","36116","5175","334-281-9633","334-281-9671","nonesupplied@noreply.com"
"CALVARY CHRISTIAN SCHOOL","0339","MRS BETH EDWARDS","6800 THREE NOTCH RD","MOBILE","AL","36619","1699","334-660-1951","334-661-8998","nonesupplied@noreply.com"
"CAHAWBA CHRISTIAN ACADEMY","0340","MRS SHELLEY B JONES","2415 MONTEVALLO RD","CENTREVILLE","AL","35042","6615","205-926-4676","999-999-9999","cahawbaprincipal@yahoo.com"
"CANTERBURY HIGH SCHOOL","0342","DIANNE CAUSEY","2005B N COUNTRY CLUB DR","MONTGOMERY","AL","36106","1613","334-834-2273","334-834-5782","firstqualityhs@bellsouth.net"
"THE CAPITOL SCHOOL","0343","DR BARBARA S ROUNTREE","2828 6TH ST","TUSCALOOSA","AL","35401","1707","205-758-2828","205-750-0280","brountree@thecapitolschool.com"
"CAHABA VALLEY CHURCH","0344","MS SUSAN PRINCE","5099 CALDWELL MILL RD","BIRMINGHAM","AL","35242","4525","205-991-8356","999-999-9999","nonesupplied@noreply.com"
"CARE TO LEARN SCHOOL","0345","MS MARY VAN HOOSER","PO BOX 2374","MADISON","AL","35758","5420","256-852-3723","999-999-9999","nonesupplied@noreply.com"
"CAPSTONE CHRISTIAN ACADEMY","0346","MS SHELIA JENNINGS","1003 INDUSTRIAL PARK","PIEDMONT","AL","36272","6909","256-447-2777","999-999-9999","capstoneschool@bellsouth.net"
"CAMELLIA BAPTIST WEEKDAY EDUCATION MINISTRY","0347","MS TRACY AUTREY","201 WOODVALE RD","PRATTVILLE","AL","36067","2713","334-365-5693","334-365-0755","wem@camelliabaptist.com"
"CARRIE MADISON LEARNING ACADEMY, INC","0349","MS KAREN JACKSON","PO BOX 10044","MONTGOMERY","AL","36108","0020","334-223-5287","999-999-9999","nonesupplied@noreply.com"
"CARRIAGE HILLS KINDERGARTEN","0355","KATHRYN NELSON","1565 RAY THORINGTON RD","MONTGOMERY","AL","36117","8895","999-999-9999","999-999-9999","nonesupplied@noreply.com"
"CATHEDRAL CHRISTIAN SCH","0358","MR RICK SPIKER","1401 HUFFMAN RD","CENTER POINT","AL","35215","6199","205-854-7020","205-854-7023","nonesupplied@noreply.com"
"CEDAR GROVE PREPARATORY ACADEMY INC","0370","MRS EMILY W JOHNSON","809 SEMINARY ST","PRICHARD","AL","36610","4351","334-452-3734","334-452-3709","nonesupplied@noreply.com"
"ELLWOOD CHRISTIAN ACADEMY","0405","MR DARRELL WALKER","1 BELL RD","SELMA","AL","36701","7732","334-877-1581","999-999-9999","ellwoodchristian@yahoo.com"
"CENTRAL CHRISTIAN","0410","DANIEL T SHELTON","17395 STATE HIGHWAY 104","ROBERTSDALE","AL","36567","7052","251-947-5043","999-999-9999","central@gulftel.com"
"CENTRAL CHRISTIAN SCHOOL","0411","PSTR AARON CARPENTER","PO BOX 184","DIXONS MILLS","AL","36736","0184","334-992-2351","999-999-9999","nonesupplied@noreply.com"
"CENTRAL PARK CHRISTIAN SCH","0415","DR LEVAN G PARKER","1900 43RD STREET ENSLEY","BIRMINGHAM","AL","35208","3309","205-786-4811","205-786-0140","centralparkchristianschool@yahoo.com"
"CHAPMAN CHRISTIAN ACADEMY","0422","MS ROBIN CHAPMAN","4711 CHAPMAN RD","MILLBROOK","AL","36054","9704","334-285-5354",,"nonesupplied@noreply.com"
"CHAMBERS ACADEMY","0430","JIM CHILDERS","15048 US HIGHWAY 431","LAFAYETTE","AL","36862","5451","334-864-9852","334-864-9691","academyc@bellsouth.net"
"THE SUNSHINE SCHOOL AT CHILDREN’S OF ALABAMA","0444","SUZANNE LEE REEVES","1600 7TH AVE S","BIRMINGHAM","AL","35233","1711","205-939-6629","205-939-6063","nonesupplied@noreply.com"
"CHILTON CHRISTIAN ACADEMY","0446","MR DONALD JONES","23240 HWY 31","JEMISON","AL","35085","0000","205-688-4545","205-688-1870","nonesupplied@noreply.com"
"CHRYSALIS ACADEMY","0451","MS ANDREA TREHERN","12087 LADNER RD","GRAND BAY","AL","36541","5800","251-423-4102","999-999-9999","atrehern@thechrysalisacademy.org"
"CHURCHILL ACADEMY MONTGOMERY MONTESSORI","0455","MS LISA HANLON SCHROEDER","395 RAY THORINGTON RD","MONTGOMERY","AL","36117","8486","334-270-4225","334-270-7805","info@churhhillacademy.com"
"CATHEDRAL ACADEMY","0456","FR BRENT KEITH","1204 HIGHLAND AVE","SELMA","AL","36703","4124","334-872-9997",,"nonesupplied@noreply.com"
"CLEARLY KIDS CHRISTIAN ACADEMY","0463","DENISE HEATH","8051 GLENN RD","TRUSSVILLE","AL","35173","5241","205-661-1030","999-999-9999","dheath@clearbranch.org"
"COLLEGEDALE CHRISTIAN SCHOOL","0479","MS SYLVIA GRISSETT","701 E COLLEGEDALE ST","TROY","AL","36081","4002","334-566-7492","999-999-9999","collegedalechristian@yahoo.com"
"COLUMBUS GIRLS ACADEMY","0481","MRS KIMBERLY ANN BLANK","14 MOTTS DR","SEALE","AL","36875","3910","334-855-3695","334-855-1487","kimberly.blank@teenchallenge.cc"
"COMMUNITY ACTION PARTNERSHIP OF ALABAMA","0492","MS LINDA VEST","1909 CENTRAL PKWY SW","DECATUR","AL","35601","6822","256-350-1476","999-999-9999","nonesupplied@noreply.com"
"COMMUNITY ACTION PARTNERSHIP","0493","LEROY GRADFORD JR","PO BOX 3975","HUNTSVILLE","AL","35810","0975","256-851-9800","256-851-2230","nonesupplied@noreply.com"
"CONECUH SPRINGS CHRISTIAN SCHOOL","0496","MS MONA PADGETT","220 HICKS INDUSTRIAL BLVD","UNION SPRINGS","AL","36089","6577","334-738-4800","334-798-4807","monapadgett@hotmail.com"
"COMMUNITY TRAINING INSTITUTE","0497","DR MORRELL TODD","1401-AVENUE G ENSLEY","BIRMINGHAM","AL","35218","0000","205-780-0435","205-780-2935","nonesupplied@noreply.com"
"THE COMMUNITY SCHOOL","0498","MRS MELANIE DAW","29964 ST. BASIL STREET","DAPHNE","AL","36526","0000","251-626-0123","999-999-9999","nonesupplied@noreply.com"
"CORNERSTONE CHRISTIAN ACADEMY","0501","MRS ANGELA SMITH","PO BOX 1488","RAINSVILLE","AL","35986","1488","256-638-9311","999-999-9999","ccacademy@farmertel.com"
"CORNERSTONE CHRISTIAN ACADEMY","0502","MRS REBECCA BEAN SMITH","PO BOX 1691","ONEONTA","AL","35121","0019","205-553-9630","205-553-8880","nonesupplied@noreply.com"
"CORNERSTONE CHRISTIAN ACADEMY","0503","MS SHARON COX","2885 CHOCCOLOCCO RD","ANNISTON","AL","36207","4825","256-236-1603","256-236-1120","cwcwisdom@aol.com"
"CORNERSTONE SCHOOLS OF ALABAMA","0504","VERONICA WHEELER","PO BOX 320309","BIRMINGHAM","AL","35232","0309","205-591-7600",,"vwheeler@csalabama.org"
"CORNERSTONE CHRISTIAN SCHOOL","0505","LAURIE PORTER","24975 HIGHWAY 25","COLUMBIANA","AL","35051","3531","205-669-5340","205-669-5283","dcollins@ccschargers.us"
"COOSA CHRISTIAN SCHOOL","0510","MR MIKE ALDRIDGE","2736 WILLS CREEK RD","GADSDEN","AL","35904","4576","256-547-1841","999-999-9999","none"
"COOSA VALLEY ACADEMY","0520","CYNTHIA G BALLARD","PO BOX 250","HARPERSVILLE","AL","35078","0250","205-672-7326","205-672-7329","nonesupplied@noreply.com"
"ALLAN COTT SCHOOL","0525","MRS CLARICE S WORTHAM","150 GLENWOOD LN","BIRMINGHAM","AL","35242","5700","205-795-3237","205-795-3275","cwortham@glenwood.org"
"COTTAGE HILL CHRISTIAN ACADEMY","0530","MR JAMES MCMILLAN","7355 CREEKWOOD DR","MOBILE","AL","36695","4015","251-634-2513","999-999-9999","mcmillanj@chbss.org"
"COVENANT CHRISTIAN ACADEMY","0534","MS SYLVIA DEVINE","926 WEATHERLY RD SE","HUNTSVILLE","AL","35803","1175","256-882-3668","999-999-9999","nonesupplied@noreply.com"
"COUNTRY DAY SCHOOL","0535","MS SHERRI NAFF","1699 OLD DRY CREEK RD NW","HUNTSVILLE","AL","35806","5300","256-837-5266","256-722-3000","cds@country-day.com"
"COVENANT CHRISTIAN SCHOOL","0536","MRS PEGGY A HAYDEN","4121 7TH AVE # AVENUE-WY","BIRMINGHAM","AL","35224","2619","205-781-1923","205-783-0401","nonesupplied@noreply.com"
"COVENANT CHRISTIAN SCHOOL","0537","MR KEITH WALDEN CURRIE","7150 HITT RD","MOBILE","AL","36695","4432","251-633-8055","999-999-9999","robrien@covenantschool.com"
"COVENANT CHRISTIAN SCHOOL","0538","MR BILL DEEGAN","1900 COVENANT DR","TUSCUMBIA","AL","35674","4752","256-383-4436","999-999-9999","ccseagles@ccseagles.com"
"COVENANT CHRISTIAN SCHOOL","0539","LAURA GRICE","105 S GEORGE WALLACE DR","TROY","AL","36081","4020","334-566-0817","334-566-0878","ccsadmin1@troycable.net"
"CREATIVE MONTESSORI SCH INC","0550","MR SCOTT KAMOWSKI","1650 28TH CT S","HOMEWOOD","AL","35209","2410","205-879-3278","205-879-3287","nonesupplied@noreply.com"
"CREATIVE BEGINNINGS CHILD DEVELOPMENT CENTER","0551","MS ELLEN GRIFFIN","10128 MEMORIAL PKWY NW","HUNTSVILLE","AL","35810","1221","256-851-1994","256-851-1935","nonesupplied@noreply.com"
"CRENSHAW CHRISTIAN ACADEMY","0560","ANGELA A CARPENTER","608 COUNTRY CLUB DR","LUVERNE","AL","36049","6838","334-335-5749","334-335-6422","aacarpenter@crenshawcougars.org"
"CRITTENTON YOUTH SERVICES","0571","JOY LOGAN","30 SCHILLINGER RD N STE 105","MOBILE","AL","36608","5060","251-639-0004","999-999-9999","nonesupplied@noreply.com"
"CULLMAN CHRISTIAN SCHOOL","0581","MR ROGER HOOD","PO BOX 2655","CULLMAN","AL","35056","2655","256-734-0734","999-999-9999","headmaster@cullmanchristian.org"
"DAY SCHOOL","0601","MRS KATHY PEINHARDT MILLER","PO BOX 1811","ALABASTER","AL","35007","2069","205-664-1600","205-664-2306","day1program@bellsouth.net"
"DECATUR HERITAGE CHRISTIAN ACADEMY","0605","MR SCOTT MAYO","PO BOX 5659","DECATUR","AL","35601","0659","256-351-4275","256-355-5547","smayo@dhca.org"
"DIXIE ACADEMY","0640","JAMES E PARTIN","PO BOX 67","LOUISVILLE","AL","36048","0067","334-266-5311",,"Jamespartin@mac.com"
"DUNNAM'S PRIVATE SCHOOL INC","0655","MS GAIL STUBBS MITCHELL","811 GLENN RD","BESSEMER","AL","35022","4602","205-425-4194","999-999-9999","nonesupplied@noreply.com"
"E BIRMINGHAM COGIC CHRISTIAN","0665","BERDIS A BLANDING JR","5600 1ST AVE N","BIRMINGHAM","AL","35212","1602","205-592-9698","205-591-8355","nonesupplied@noreply.com"
"EASTMONT BAPTIST KINDERGARTEN","0671","MS SHERRY WALLACE","4505 ATLANTA HWY","MONTGOMERY","AL","36109","3104","999-999-9999","999-999-9999","nonesupplied@noreply.com"
"EAST BIRMINGHAM CHURCH OF GOD ACADEMY","0672","MR PETER WREN","5600 1ST AVE N","BIRMINGHAM","AL","35212","1602","205-591-1680","999-999-9999","nonesupplied@noreply.com"
"E LAKE UNITED METH ELEM SCH","0673","SALLY ALLOCCA","7753 1ST AVE S","BIRMINGHAM","AL","35206","4312","205-836-6356","205-836-3202","nonesupplied@noreply.com"
"NEW DAY ACADEMY","0674","DR ROB TURNER","700 E COTTONWOOD RD","DOTHAN","AL","36301","3644","334-794-7373","334-702-1094","nonesupplied@noreply.com"
"EAST MEMORIAL CHRISTIAN ACADEMY","0676","MR BRYAN EUGENE EASLEY","1320 OLD RIDGE RD E","PRATTVILLE","AL","36066","1921","334-358-4085","999-999-9999","ahammack@eastmemorial.org"
"EASTWOOD CHRISTIAN SCHOOL","0678","MR JOHN GEIGER","1701 E TRINITY BLVD","MONTGOMERY","AL","36106","3673","334-272-8195","334-386-2399","jgeiger@eastwoodschool.org"
"EASTEN SHORE CHRISTIAN ACADEMY","0679","MS ASHLEY JONES","28328 COUNTY ROAD 13","DAPHNE","AL","36526","6095","334-222-1111",,"nonesupplied@noreply.com"
"EDGEWOOD ACADEMY","0680","FRANKIE L. MITCHUM","PO BOX 160","ELMORE","AL","36025","0160","334-567-5102",,"fmitchum@edgewoodacademy.org"
"THE ELLIS ACADEMY","0688","DR DIANE ELLIS MILES","347 JADE RD","TONEY","AL","35773","8606","256-420-8312",,"nonesupplied@noreply.com"
"EMMANUEL CHRISTIAN SCHOOL","0700","MARK REDMOND","178 EARLINE RD","DOTHAN","AL","36305","4202","334-792-0935","334-702-7410","mredmond@emmanuelchristian.org"
"ENTERPRISE PREPARATORY ACADEMY","0705","DR GARY FRAISER","PO BOX 310600","ENTERPRISE","AL","36331","0600","334-308-1313",,"nonesupplied@noreply.com"
"EMMANUEL S D A JR ACADEMY","0716","JUDY ROSS JR","2000 DR MARTIN LUTHER KING AVE","MOBILE","AL","36617","0000","334-478-1140","334-479-1227","nonesupplied@noreply.com"
"EPHESUS ACADEMY","0720","MICHAEL MONETTE","829 MCMILLON AVE SW","BIRMINGHAM","AL","35211","1700","205-786-2194",,"ephesusacademy@gmail.com"
"ETOWAH DEVELOPMENT ACADEMY","0721","MRS SUSAN WILSON","PO BOX 1172","GADSDEN","AL","35902","1172","256-547-7918","999-999-9999","sretowahacademy@bellsouth.net"
"EPISCOPAL DAY SCHOOL","0726","MRS LAURA MCCARTNEY","156 S 9TH ST","GADSDEN","AL","35901","3699","256-546-9071","256-546-7912","lmccartney@episcopal-day-school.org"
"ESCAMBIA ACADEMY","0750","BETTY J WARREN","268 COWPEN CREEK RD","ATMORE","AL","36502","5862","334-368-2080","334-368-1950","nonesupplied@noreply.com"
"EVANGEL CLASSICAL CHRISTIAN SCHOOL","0755","MS PAMELA MCKEE","423 THOMPSON RD","ALABASTER","AL","35007","9489","205-216-0149","205-216-0150","pmckee@evangelclassical.org"
"EVANGEL SCHOOL","0759","MR WILLIAM M SNUGGS","PO BOX 1670","ALABASTER","AL","35007","2066","205-706-2595","801-409-5547","office@evangelhomeschool.org"
"EVANGEL CHRISTIAN ACADEMY","0765","DAVEY D RAY JR","3975 VAUGHN RD","MONTGOMERY","AL","36106","3098","334-272-3882","334-272-5662","ddray@ecalions.org"
"EVANGEL CHRISTIAN SCHOOL","0769","MR JAMES TILLMAN JR","1277 JUBILEE DR","SARALAND","AL","36571","3977","251-675-4619",,"evangel@fountainoflifechurch.net"
"FAMILY OF FAITH CHRISTIAN ACADEMY","0771","MR TERRENCE JAMES","10755 HARROGATE DR","GRAND BAY","AL","36541","6351","251-490-1836","251-865-3038","nonesupplied@noreply.com"
"FAMILY LINKS SUCCESS ACADEMY","0772","MS ROBIN MACKEY","PO BOX 5072","ANNISTON","AL","36205","0072","256-820-5911",,"nonesupplied@noreply.com"
"FAITH ACADEMY","0790","TIMOTHY SKELTON","8650 TANNER WILLIAMS RD","MOBILE","AL","36608","8318","251-633-7267","251-633-9133","tim.skelton@faithacademy.us"
"FAITH CHRISTIAN ACADEMY","0791","MS TAMMY KINGERY","PO BOX 305","ROANOKE","AL","36274","0305","334-863-8827","999-999-9999","budstiltner@ymail.com"
"FAITH CHRISTIAN ACADEMY","0793","MR WAYNE FORSYTH","705 W SANDERFER RD","ATHENS","AL","35611","4047","256-233-3778","256-233-4550","cwforsyth@faithacademy.org"
"FAITH CHRISTIAN ACADEMY","0794","MR STEVE AGEE","3979 COUNTY ROAD 434","MOULTON","AL","35650","8007","256-974-9351","999-999-9999","nonesupplied@noreply.com"
"FAITH CHRISTIAN SCHOOL","0797","MR RYAN W. TODT","4100 RONNAKI RD","ANNISTON","AL","36207","7150","256-236-4499","999-999-9999","rtodt@faithchristian.info"
"EMERALD MOUNTAIN CHRISTIAN SCH","0798","MRS BOBBIE H AMES","PO BOX 241405","MONTGOMERY","AL","36124","1405","334-567-0555","334-567-3914","emeraldmtn@bellsouth.net"
"FAITH LUTHERAN SCHOOL","0800","DAISY B KIRKSEY","1703 DR M L KING JR AVENUE","MOBILE","AL","36617","0000","334-471-1629","999-999-9999","nonesupplied@noreply.com"
"FAITH CHRISTIAN ACADEMY","0801","MS DEE TIDWELL","PO BOX 462","ALEXANDER CITY","AL","35011","0462","256-234-6421","256-234-3581","scaadmin@bellsouth.net"
"FAITH IN ACTION BUSINESS ACCESS ONLINE","0802","DR AARON D MCCALL","PO BOX 1106","HAYNEVILLE","AL","36040","1106","334-548-5402","334-548-5404","fiaom@htcnet.net"
"FAITH COVENANT ACADEMY","0803","MR CHARLES MICHAEL MAZE","PO BOX 1374","HUNTSVILLE","AL","35807","0374","256-881-8844",,"nonesupplied@noreply.com"
"FIRST BAPTIST PRESCHOOL","0811","MS RENA MALDONADO","125 S RANDOLPH AVE","EUFAULA","AL","36027","1637","334-687-0000",,"nonesupplied@noreply.com"
"FIRST ASSEMBLY CHRISTIAN SCHOOL","0812","PSTR KEITH JONES","PO BOX 697 85261 HIGHWAY 9","ASHLAND","AL","36251","0697","256-354-4090","256-354-4090","pastorkeith@firstagashland.com"
"FIRST BAPTIST IRONDALE","0813","MS SHANNON MURPHREE","6001 OLD LEEDS RD","IRONDALE","AL","35210","4292","205-956-3985",,"nonesupplied@noreply.com"
"FIRST BAPTIST CHILD DEVELOPMENT CENTER","0814","MS CATHY SANFORD","205 W BRIDGE ST","WETUMPKA","AL","36092","2606","334-567-3319","334-567-5192","cathy@fbc-wetumpka.org"
"FIRST BAPTIST KINDERGARTEN","0816","MRS JAMIE BARNES ROBISON","138 S WASHINGTON ST","PRATTVILLE","AL","36067","3120","334-361-9481","999-999-9999","jamie.robison@fbcprarrville.org"
"FIRST BAPT KINDER/DAYCARE","0817","DEBORAH S TUCK","2309 2ND AVE N","PELL CITY","AL","35125","1706","205-338-3439","205-338-0194","kindergarten@fbcpellcity.org"
"FIRST BAPTIST SAKS CHILD DEVELOPMENT CENTER","0819","CARLA S PRICE","4723 SAKS RD","ANNISTON","AL","36206","1940","256-237-3468","256-238-9549","weedirector@cableone.net"
"FIRST UNITED METH FIRST SCH","0820","JEAN S CARR","2416 W CLOVERDALE PARK","MONTGOMERY","AL","36106","1906","334-834-8990","999-999-9999","jsullivancarr@yahoo.com"
"FIRST UNITED METHODIST KINDERGARTEN DAY CARE","0822","MS CLAUDIA MATHEWS","105 E SPRING ST","SYLACAUGA","AL","35150","3045","256-249-2300","256-249-0342","deedee@firstmethodistchurch.com"
"FIRST SEVENTH DAY ADV CHC OF ADAMSVILLE","0831","DR PHYLLIS WILLIAMS","4220 OAKWOOD DR","ADAMSVILLE","AL","35005","1960","999-999-9999","999-999-9999","nonesupplied@noreply.com"
"FIRST PRESBYTERIAN EARLY CHILDHOOD","0841","MRS JULIE HARVIN","3012 W MAIN ST","DOTHAN","AL","36305","1103","334-793-6283","999-999-9999","nonesupplied@noreply.com"
"FLINT HILL CHRISTIAN SCHOOL","0855","LARRY PENDER","1630 POWDER PLANT RD","BESSEMER","AL","35022","6143","205-424-2675","205-424-3535","bro.larry@flinthill.net"
"FLOWERS LEARNING CENTER","0857","MS ELOISE SHELBY FLOWERS","3085 WOODLEY RD","MONTGOMERY","AL","36116","3148","334-288-1611","999-999-9999","flowerslearning@bellsouth.net"
"FLORENCE CHRISTIAN ACADEMY","0865","MR MICHAEL FULCHER","2701 FLORENCE BLVD","FLORENCE","AL","35630","1742","999-999-9999","999-999-9999","nonesupplied@noreply.com"
"FORESTDALE BAPTIST SCHOOL","0870","JANICE GIBBONS","1400 BRISBANE AVE","BIRMINGHAM","AL","35214","3799","205-798-1248","205-798-0413","forstdalebaptistchurch@charter.net"
"FORDS CHAPEL UNITED METHODIST CHURCH","0871","MRS CHRISTY S. CRENSHAW","280 FORD CHAPEL DR","HARVEST","AL","35749","8941","256-864-0888","999-999-9999","fordschapelmdo@bellsouth.net"
"FORT DALE ACADEMY","0880","MR DAVID BRANTLEY","1100 GAMBLE ST","GREENVILLE","AL","36037","1800","334-382-2606","334-382-0912","dbrantley@fortdale.com"
"FORT RUCKER ELEM SCHOOL","0910","MRS BARBARA DELL MCMULLEN","P O BOX 62079","FT RUCKER","AL","36362","0000","334-598-4408","334-598-8622","nonesupplied@noreply.com"
"FORT RUCKER PRIMARY","0920","MS DELL MCMULLEN","P O BOX 62079","FT RUCKER","AL","36362","0000","334-598-4474","334-598-8622","nonesupplied@noreply.com"
"FREEDOM LIFE CHRISTIAN ACADEMY-GIFTED","0941","MRS ANNETTA TATE","223 W FLEMING RD","MONTGOMERY","AL","36105","3120","334-284-1461","334-281-1912","freedomlife1@bellsouth.net"
"FUNSHINE PLAYSCHOOL","0946","MS CALLIE EVERETT","120 N COUNTY 33 RD","ASHFORD","AL","36312","3527","334-899-3987",,"nonesupplied@noreply.com"
"GAN GAN & PA PA LEARNING RESOURCE CENTER","0955","MRS GEORGIA C FRAZIER","9029 AIRPORT RD","BIRMINGHAM","AL","35217","2832","205-841-3045","999-999-9999","nonesupplied@noreply.com"
"GARDENDALE CHRISTIAN ACADEMY","0961","JOHN PARRISH","1800 DECATUR HWY","GARDENDALE","AL","35071","2350","205-631-9465",,"jdp76@mac.com"
"GADSDEN JOB CORP CENTER","0962","MS RENEE SANTANGELO","600 VALLEY ST","GADSDEN","AL","35901","2440","256-439-2890","999-999-9999","santangelo.rene'@jobcorps.org"
"GUARDIAN ANGEL CHRISTIAN ACADEMY","0963","MS TERESA HUNT","1600 STANLEY AVE","ANDALUSIA","AL","36420","7416","334-222-8356","334-427-7056","nonesupplied@noreply.com"
"GLENWOOD SCHOOL INC","0970","PHILLIP R ELDER","PO BOX 310","PHENIX CITY","AL","36868","0310","334-297-3614","256-214-9027","pelder@glennwoodgators.com"
"GOOD SHEPHERD LUTHERN ELEMENTARY SCHOOL","0972","MS CHARLOTTE BAILEY","PO BOX 669","ELBERTA","AL","36530","0669","251-504-2474","999-999-9999","nonesupplied@noreply.com"
"GARYWOOD CHRISTIAN SCHOOL","0985","MR RANDAL K RAY","2730 ALLISON BONNETT MEMORIAL DR","HUEYTOWN","AL","35023","1843","205-744-8135","999-999-9999","randal@garywood.org"
"GOD'S HOUSE KINDERGARTEN AND DAYCARE","0986","MS SUSAN COXHEAD","4660 CALDWELL MILL RD","VESTAVIA","AL","35243","2514","205-967-7611","205-967-7611","susan@adpc.org"
"GOVERNMENT ST BAPTIST SCH","1005","ROBERT E MURPHY","3401 GOVERNMENT BLVD","MOBILE","AL","36693","4301","251-660-7444","251-660-1097","principal@governmentstreet.org"
"GRACE CHRISTIAN ACADEMY","1012","MS TONI A STANTON","19470 COUNTY ROAD 6","GULF SHORES","AL","36542","0000","251-968-4352","999-999-9999","nonesupplied@noreply.com"
"GRACE CHRISTIAN ACADEMY","1013","REV CAROL DIANE GRACE","1186 MAC DRUMMOND RD","JASPER","AL","35504","5624","205-522-5633","999-999-9999","gracechristianacademy.carol@gmail.com"
"GRACE CHRISTIAN ACADEMY INC","1019","MS PATRICIA THOMAS","PO BOX 9068","MONTGOMERY","AL","36108","0002","334-288-1240","334-288-1087","nonesupplied@noreply.com"
"GRACE CHRISTIAN ACADEMY-HERON BAY","1021","MR RUFUS HOWARD GASTON JR","900 ABILENE DR E","MOBILE","AL","36695","5004","999-999-9999","251-634-2227","nonesupplied@noreply.com"
"GRACE LUTHERAN SCHOOL","1030","JOSHUA DANIEL SWARTZ","3321 S MEMORIAL PKWY","HUNTSVILLE","AL","35801","5396","256-881-0553","256-881-0563","gls@gls-hsv.org"
"GRACE TEMPLE PRE SCHOOL-DAYCARE","1031","MR ALEXANDER MOORE","159 HEMLEY AVE","MOBILE","AL","36607","2725","251-478-9200","251-450-0320","mrsjpm2005@yahoo.com"
"GREATER PEACE CHILD DEVELOPMANT CENTER","1032","MS VERTRINA GRUBBS","940 FOX RUN PKWY","OPELIKA","AL","36801","6067","251-786-1580",,"nonesupplied@noreply.com"
"GREAT BEGINNINGS ACADEMY","1033","MRS DELORES SMITH","1406 PROMOTION PLAZA","LEEDS","AL","35094","0000","205-699-1023","999-999-9999","nonesupplied@noreply.com"
"GREEN GATE SCHOOL","1040","YVONNA RICHARDSON","3265 MCGEHEE RD","MONTGOMERY","AL","36111","2300","334-281-3300","334-286-4884","ynr1954@aol.com"
"GREENGATE SCHOOL","1041","MS MARCIA RAMSEY","1300 MERIDIAN ST N STE 2200","HUNTSVILLE","AL","35801","4616","256-551-4439","251-551-0726","mramsey@greengateschool.org"
"CLARKE PREP SCHOOL","1070","MR MARC MICKLEBORO","20100 HIGHWAY 43","GROVE HILL","AL","36451","4102","251-275-8576",,"nonesupplied@noreply.com"
"GULF STATES CONF OF SEVENTH-DAY ADVENTISTS","1071","MS RITA HENRIQUEZ-GREEN","6450 ATLANTA HWY","MONTGOMERY","AL","36117","4204","256-597-2582",,"nonesupplied@noreply.com"
"HAPPI FACES PRESCHOOL INC","1091","MS AMY MEHERG STEWART","323 ROCK RIDGE RD","WINFIELD","AL","35594","4865","999-999-9999","999-999-9999","nonesupplied@noreply.com"
"HAMPTON COVE CHRISTIAN ACADEMY","1092","MR T J LEE","351 OLD HIGHWAY 431","HAMPTON COVE","AL","35763","9265","256-539-3773",,"tjlee@hamptoncoveacademy.org"
"HARVEST CHRISTIAN SCHOOL","1109","MR DUNCAN CAMPBELL","7303 TAYLORS FERRY RD","BESSEMER","AL","35023","5568","205-497-0883","999-999-9999","harvestibc@gmail.com"
"HARVEST TEMPLE ACADEMY","1110","VICKI EARP","4500 VAUGHN RD","MONTGOMERY","AL","36106","3102","334-277-6834","999-999-9999","nonesupplied@noreply.com"
"HAVEN CHRISTIAN ACADEMY","1111","MR BUDDY HAYES","9444 HIGHWAY 22","MONTEVALLO","AL","35115","5732","205-668-2408","999-999-9999","nonesupplied@noreply.com"
"HIGDON HILL SCHOOL","1127","MS CAROLYN CAUTHEN","6869 5TH AVE S","BIRMINGHAM","AL","35212","1866","205-838-2089","205-838-4411","carolyn.cauthen@psysolutions.com"
"HIGHLANDS SCHOOL","1130","KATHRYN WOODSON BARR","4901 OLD LEEDS RD","MOUNTAIN BRK","AL","35213","1899","205-956-9731","205-951-8127","kbarr@highlandsschool.org"
"HOLT STREET MEMORIAL BAPTIST CHURCH ACADEMY","1131","DR WILLIE D MCCLUNG SR","1870 S COURT ST","MONTGOMERY","AL","36104","5401","334-263-0522","999-999-9999","hsmbc@yahoo.com"
"HIGHPOINT CHRISTIAN SCHOOL","1133","MR LEMUEL TAYLOR JR","2421 LOTT RD","EIGHT MILE","AL","36613","2341","334-452-4601","334-452-1212","nonesupplied@noreply.com"
"HILLTOP MONTESSORI SCHOOL","1134","MS MICHELE BYRD SCOTT","6 ABBOTT SQ","BIRMINGHAM","AL","35242","1805","205-437-9343","205-437-9344","hms@hilltopmontessori.com"
"HOLY COM EPISCOPAL DAY SCH","1135","MRS LAURA MCCARTNEY","156 S 9TH ST","GADSDEN","AL","35901","3646","256-546-9071","256-546-7912","bdubose@episcopal-day-school.org"
"HOLY CROSS EPISCOPAL SCHOOL","1136","MRS MELANIE F KELLEY JR","4400 BELL RD","MONTGOMERY","AL","36116","4202","334-395-8222","334-395-7280","melanie.kelley@hcesal.com"
"HOPE ACADEMY","1159","MS JACQUELINE A PUGH","379 MOCCASIN RD","FAYETTE","AL","35555","7343","334-222-1111",,"nonesupplied@noreply.com"
"HOOPER ACADEMY","1160","DR JOHN D NIBLETT","380 FISCHER RD","HOPE HULL","AL","36043","9773","334-288-5980","334-288-9171","jniblett@hooperacademy.org"
"HOPE ACADEMY - A LEARNING CENTER","1161","MS ARTHENE I BASKIN","1101 WILCOX DR","PRICHARD","AL","36610","1583","251-452-8288",,"hopeacademynow@aol.com"
"HOPE CHRISTIAN SCHOOL","1162","MS CONNIE ATCHISON","PO BOX 563","ALABASTER","AL","35007","2045","205-664-2232","205-663-0287","nonesupplied@noreply.com"
"HOPE COMM CHRISTIAN CHILD DEV CENTER","1163","MR CHARLES RODGERS","PO BOX 141","HUNTSVILLE","AL","35804","0141","256-534-8750","256-534-8782","daycare95@comcast.net"
"HOPE ACADEMY PRESBYTERIAN HOME","1165","MRS LINDA G HARRIS","905 ASHLAND HWY","TALLADEGA","AL","35160","2586","256-362-4314","999-999-9999","phceddir@bellsouth.net"
"HOOVER CHRISTIAN SCHOOL","1176","GAYLAN HERR","2113 OLD ROCKY RIDGE RD","HOOVER","AL","35216","6101","205-987-3376",,"gaylanherr@gmail.com"
"HOUSTON ACADEMY","1190","JOHN P O'CONNELL","901 BUENA VISTA DR","DOTHAN","AL","36303","1999","334-794-4106","334-793-4053","joconn2119@aol.com"
"HUNTSVILLE ACHIEVEMENT SCH","1210","RICHARD REYNOLDS","406 1/2 GOVERNORS DR SW","HUNTSVILLE","AL","35801","5124","999-999-9999","999-999-9999","carol.campbell@hsvachievement.com"
"HUNTSVILLE EDUCATIONAL SERVICE","1218","MS PATTY OREILLY","PO BOX 1131","HUNTSVILLE","AL","35807","0131","256-650-6331","999-999-9999","hespmo@att.net"
"IMAGINATION STATION CHILD DEVELOPMENT CENTER","1231","MS REBEKAH ENSEY","400 MCFARLAND BLVD STE B","NORTHPORT","AL","35476","3371","205-333-3291",,"nonesupplied@noreply.com"
"INDIAN SPRINGS SCHOOL","1240","GARETH M VAUGHAN","190 WOODWARD DR","INDIAN SPRINGS","AL","35124","3272","205-988-3350",,"gvaughan@indiansprings.org"
"ISLAMIC ACADEMY OF ALABAMA","1258","ANDREW ADDELHAQUE","1810 25TH CT S","HOMEWOOD","AL","35209","1926","205-870-0422","205-868-1112","iaaprincipal@bellsouth.net"
"ISLAMIC ACADEMY OF HUNTSVILLE","1259","MUHAMMED AYOUB","1645 SPARKMAN DR NW","HUNTSVILLE","AL","35816","1113","256-722-9838","256-721-1752","islamicacademyofhunstville@gmail.com"
"JACKSON ACADEMY","1260","MR ROBERT ANDRESS","PO BOX 838","JACKSON","AL","36545","0838","251-246-5552",,"nonesupplied@noreply.com"
"JACKSON CREEK CHRISTIAN ACADEMY","1261","MRS JOHNNIE GRANT","10431 OLD PASCAGOULA RD","GRAND BAY","AL","36541","3935","251-957-6052","999-999-9999","jacksoncreek@centurytell.net"
"JACKSONVILLE CHRISTIAN ACAD","1265","TOMMY G MILLER","831 ALEXANDRIA RD SW","JACKSONVILLE","AL","36265","2757","256-435-3333","256-435-2059","tmillerjca@yahoo.com"
"JERICHO WAY CHRISTIAN ACADEMY","1271","REV CAROL GRACE","1083 RIVER RD","CORDOVA","AL","35550","3919","205-522-5633",,"nonesupplied@noreply.com"
"JEFFERSON CHRISTIAN ACADEMY","1275","BEN C BURGER","1500 HERITAGE PLACE DR","IRONDALE","AL","35210","3745","205-956-9111","205-956-9508","nonesupplied@noreply.com"
"JOSEPH S. BRUNO MONTESSORI ACADEMY","1280","MS THERESA B SPAIN","5509 TIMBER HILL RD","BIRMINGHAM","AL","35242","3533","205-995-8709",,"theresa@jsbacademy.org"
"JOHN T MORGAN ACADEMY","1290","KARIM P OAKS","PO BOX 2650","SELMA","AL","36702","2650","334-875-4464",,"kpoaks@morganacademy.com"
"JOHN B NORMAN SR CHRISTIAN ACADEMY","1291","PSTR JOHN NORMAN SR","309 20TH ST SW","BIRMINGHAM","AL","35211","3216","205-925-6900","205-925-2725","jbnfca@bellsouth.net"
"KIDDIE KOLLEGE OF FIRST UMC","1308","BETH ROBERTS","800 GREENSBORO AVE","TUSCALOOSA","AL","35401","2146","205-345-7261","999-999-9999","nonesupplied@noreply.com"
"KINGWOOD CHRISTIAN SCHOOL","1325","MRS RUTH WHITE GRAY","1351 ROYALTY DR","ALABASTER","AL","35007","3035","205-663-3973","999-999-9999","rgray@kingwoodchristianschool.com"
"KINGWOOD CHRISTIAN CHILD DEV","1326","MRS BARBARA A DRACKETT","200 HARVEST WAY","ALABASTER","AL","35007","9017","205-620-6720","205-663-7145","kcsdc@kingwoodchristian.org"
"KNOLLWOOD CHRISTIAN SCHOOL","1334","DR LARRY JONES","PO BOX 340","SYLACAUGA","AL","35150","0340","256-249-4750","999-999-9999","LJones@knollwoodcs.com"
"KNOLLWOOD CHRISTIAN SCHOOL","1335","SANDRA M GUY","1501 KNOLLWOOD DR","MOBILE","AL","36609","2532","251-661-1987","251-661-6461","sguykcs@aol.com"
"THE KINGS RANCH ASSESSMENT CENTER SCHOOL","1339","LESKA MEELER","221 DAYSPRING DRIVE","CHELSEA","AL","35043","0000","205-678-8331","205-678-7372","nonesupplied@noreply.com"
"THE LAKESIDE SCHOOL","1340","MIRANDA WATSON","1020 LAKE DR","EUFAULA","AL","36027","9502","334-687-5748",,"mwatson@lakesidechiefs.com"
"LAKEVIEW SCHOOL","1344","MRS CLARICE S WORTHAM","150 GLENWOOD LN","BIRMINGHAM","AL","35242","5700","205-795-3237","205-795-3275","cwortham@glenwood.org"
"LAKE CITY CHRISTIAN ACADEMY","1345","GAYLE BUCHANAN","5025 SPRING CREEK DR","GUNTERSVILLE","AL","35976","2815","256-582-2888","256-505-0886","nonesupplied@noreply.com"
"LAKEVIEW CHRISTIAN SCHOOL","1346","MS DEBORAH SABLER","1600 E GLENN AVE","AUBURN","AL","36830","5784","334-887-7094",,"evangel@fountainoflifechurch.net"
"LAWRENCE COUNTY CHRISTIAN SCHOOL","1361","STEPHEN MILAM","10485 COUNTY ROAD 460","MOULTON","AL","35650","6786","256-974-8771","256-974-8771","nonesupplied@noreply.com"
"LEARNING CENTER PRESCHOOL","1364","VICKI JOHNSON","419 COLLEGE AVE","BOAZ","AL","35957","1611","256-593-3820","999-999-9999","nonesupplied@noreply.com"
"LEARNING TREE INC","1365","DR MARC WILLIAMS","4979 LOTT RD","EIGHT MILE","AL","36613","9179","334-252-0025","999-999-9999","theltree@aol.com"
"LEARNING EXPRESS CENTER","1367","DR HUEY LING LIN","1927 WALNUT ST","MONTGOMERY","AL","36106","1532","334-202-3287","334-262-3288","Feelinglin@aol.com"
"LEAPS ACADEMY","1368","MRS ASHLEY P FAUST","1815 MARTIN ST S","PELL CITY","AL","35128","2321","205-884-7621","999-999-9999","ashleypsimmons@hotmail.com"
"LEE-SCOTT ACADEMY","1370","DON ROBERTS","1601 ACADEMY DR","AUBURN","AL","36830","2895","334-821-2430","334-821-0876","droberts@lee-scott.org"
"LITTLE FRIENDS PRESCHOOL","1405","MS HELEN M JOHNSON","120 HILLCREST DR","ANDALUSIA","AL","36420","2562","334-222-8114","999-999-9999","nonesupplied@noreply.com"
"SCOTTSBORO CHRISTIAN ACADEMY","1415","MS DEBBIE JOHNSON","9545 AL HIGHWAY 79","SCOTTSBORO","AL","35768","7347","256-259-5398","256-574-3639","nonesupplied@noreply.com"
"LIGHTHOUSE CHRISTIAN ACADEMY","1416","MR GARY MOHENY","3570 BELL RD","MONTGOMERY","AL","36116","1309","334-271-4200","999-999-9999","gary.mohney@lcapirates.com"
"LIVING WORD CHRISTIAN CENTER KINGDOM ACADEMY","1417","DR LEVY H KNOX","1060 GOVERNMENT ST","MOBILE","AL","36604","2404","334-433-5866","334-433-5867","nonesupplied@noreply.com"
"LIFE INSTITUTE CHRISTIAN SCHOOL","1418","DR HENRY WILLIAMS ROBERTS JR","351 S CRAFT HWY","CHICKASAW","AL","36611","2208","251-456-2652","251-456-2654","wolccoffice@aol.com"
"LOWNDES ACADEMY","1430","CHUCK INSINGA","PO BOX 99","LOWNDESBORO","AL","36752","0099","999-999-9999","999-999-9999","cinsinga@lowndesacademy.org"
"LYMAN WARD MILITARY ACADEMY","1440","MR ALBERT W JENRETTE","PO BOX 550","CAMP HILL","AL","36850","0550","256-896-4127","256-896-4661","bill.jenrette@lwma.org"
"MACON-EAST MONTGOMERY ACADEMY","1450","MR JAMES E. ARRINGTON","15396 VAUGHN RD","CECIL","AL","36013","3500","334-277-6566","334-277-6544","jarrington@maconeast.net"
"MA'AT HIGH SCHOOL","1451","MS RHODA E JOHNSON","14 SOUTHMONT DR","TUSCALOOSA","AL","35405","4131","999-999-9999","999-999-9999","nonesupplied@noreply.com"
"MADISON ACADEMY","1460","MRS CARMELITA CAROL BURTON","325 SLAUGHTER RD","MADISON","AL","35758","2007","256-971-1632","256-971-1436","cburton@macademy.org"
"MADISON BAPTIST ACADEMY","1461","MR LARRY NICHOLSON","840 BALCH RD","MADISON","AL","35758","9713","256-772-8480","999-999-9999","nonesupplied@noreply.com"
"MAGNOLIA SPRINGS CHRISTIAN SCHOOL","1470","TAMMY CURL","6058 THEODORE DAWES RD","THEODORE","AL","36582","3952","251-653-0251","255-653-2668","registrar@msbacademy.com"
"MARANATHAN ACADEMY","1475","DONNA DUKES","PO BOX 320321","BIRMINGHAM","AL","35232","0321","205-591-8100","205-591-8100","mflca@ymail.com"
"MARENGO ACADEMY","1490","H D RUSSELL","2103 S MAIN ST","LINDEN","AL","36748","3215","334-295-4151","334-295-4159","nonesupplied@noreply.com"
"MARIETTA JOHNSON SCHOOL","1495","HENRY L VETT","8 MARIETTA DR","FAIRHOPE","AL","36532","1653","251-928-9347","251-928-8849","nonesupplied@noreply.com"
"MARION ACADEMY","1497","ANTHONY YELVERTON","1820 PRIER DR","MARION","AL","36756","5930","334-683-8204","334-683-4938","amherst48@juno.com"
"MARS HILL BIBLE SCHOOL","1505","DR KENNY BARFIELD","698 COX CREEK PKWY","FLORENCE","AL","35630","1199","256-767-1203","256-718-8579","kbarfield@mhbs.org"
"MARSHALL CHRISTIAN ACADEMY","1509","MR RODNEY LYNN CRANFORD","1631 BRASHERS CHAPEL RD","ALBERTVILLE","AL","35951","3511","256-279-0192",,"rlc@marshallchristianacademy.com"
"MAXWELL AFB ELEM SCHOOL","1530","MS MELISSA HAYES","800 MAGNOLIA BLVD BLDG 538","MAXWELL AFB","AL","36112","5922","334-953-7804","334-953-4339","melissa.hayes@am.dodea.edu"
"MCELWAIN CHRISTIAN ACADEMY","1539","LUCY BAKER BLOODWORTH","4445 MONTEVALLO RD","MOUNTAIN BRK","AL","35213","1515","205-957-2628","999-999-9999","lbloodworth@mcelwain.org"
"MCRAE LEARNING CENTER","1545","SADIE MOSS","PO BOX 1266","SELMA","AL","36702","1266","334-872-8078",,"nonesupplied@noreply.com"
"MEADOWVIEW CHRISTIAN SCHOOL","1550","DR MICHAEL GAYLOR","1512 OLD ORRVILLE RD","SELMA","AL","36701","6997","334-277-8033","334-277-2542","gaylor_meadowview@yahoo.com"
"METROPOLITIAN SCHOOL OF TALENT AND THE ARTS","1551","DR JANICE BASKIN-BERRY","224 2ND STREET THOMAS","BIRMINGHAM","AL","35214","6056","205-422-8506","999-999-9999","wb4685@email.phoenix.edu"
"MISS BETTY’S PRESCHOOL","1552","MS BETTY FULLER","2025 COUNTY ROAD 106","MOULTON","AL","35650","5813","256-974-9892",,"nonesupplied@noreply.com"
"MOBILE ASSN RET CITIZENS","1555","FLORA DAY","2424 GORDON SMITH DR","MOBILE","AL","36617","2319","334-479-7409","334-473-7649","nonesupplied@noreply.com"
"MINISTERIAL BROTHERHOOD MINISTRIES","1556","DR MORRELL TODD","1629 32ND AVE N","BIRMINGHAM","AL","35207","4835","205-780-0435","205-780-2935","nonesupplied@noreply.com"
"MIRACLE DELIVERANCE TEMPLE","1560","JAMES JOHNSON, SR.","PO BOX 39741","BIRMINGHAM","AL","35208","0018","205-925-2417","205-923-4646","MDELLEARING@birmingham.rr.com"
"MOBILE CHRISTIAN SCHOOL","1580","LORIE ANN MINOR","5900 COTTAGE HILL RD","MOBILE","AL","36609","3199","251-661-1613","999-999-9999","david_pahman@mobilechristian.org"
"MOBILE JUNIOR ACADEMY","1590","MR DOUG CARR","1900 CODY RD S","MOBILE","AL","36695","3007","251-633-8638","251-633-8639","douglascarr@bellsouth.net"
"PRESCHOOL CENTER FOR SENSORY IMPAIRED","1597","MICHELLE JONES","1050 GOVERNMENT ST","MOBILE","AL","36604","2404","334-433-1234","334-432-3199","nonesupplied@noreply.com"
"MOFFETT ROAD CHRISTIAN","1598","MS DONNA CRABTREE","6159 MOFFETT RD","MOBILE","AL","36618","4805","251-391-4663","251-649-3502","nonesupplied@noreply.com"
"MONROE ACADEMY","1600","RONNIE WILLIAMS","4096 S ALABAMA AVE","MONROEVILLE","AL","36460","5638","334-743-3932","334-743-4267","nonesupplied@noreply.com"
"ARLINGTON SCHOOL","1605","DEBORAH PETITTO","1312 22ND ST S","BIRMINGHAM","AL","35205","4108","205-939-3665","205-939-3664","nonesupplied@noreply.com"
"MONTGOMERY CHRISTIAN SCHOOL","1627","MR THOMAS J DANIELSON","1728 S HULL ST","MONTGOMERY","AL","36104","5552","334-262-3892","999-999-9999","nonesupplied@noreply.com"
"MONTGOMERY SDA SCHOOL","1628","MS JOYCE BOLAND","4233 ATLANTA HWY","MONTGOMERY","AL","36109","3024","334-272-6437","334-272-6437","jgboland@hotmail.com"
"EAST MONTGOMERY MONTESSORI SCHOOL","1629","MS FRANCES BELL","6801 VAUGHN RD","MONTGOMERY","AL","36116","1328","334-272-5097","334-272-9398","knowmontessori@bellsouth.net"
"MONTGOMERY ASSOCIATION FOR RETARDED CITIZENS","1631","LYNN M WISE","527 BUCKINGHAM DR","MONTGOMERY","AL","36116","2738","334-281-6938","334-286-9102","nonesupplied@noreply.com"
"MONTGOMERY JOB CORPS CENTER","1637","MR FRANK COIRO","1145 AIR BASE BLVD","MONTGOMERY","AL","36108","3103","999-999-9999","999-999-9999","nonesupplied@noreply.com"
"SUMMIT ACADEMY","1638","DR GEORGE MICHAEL SHEHI","3001 SCENIC HWY","GADSDEN","AL","35904","3047","256-546-9265","999-999-9999","rbevel@mtnviewhospital.com"
"MOUNTAIN CHAPEL METHODIST PK","1645","MS STACEY BOUCHILLON","2541 ROCKY RIDGE RD","VESTAVIA","AL","35243","4450","205-822-0049","999-999-9999","nonesupplied@noreply.com"
"MT. PILGRIM CHRISTIAN ACADEMY","1656","MRS ELEASHIA ROPER","6746 GRASSELLI RD","FAIRFIELD","AL","35064","0000","205-780-5096","205-780-5096","ropermpca@yahoo.com"
"NEW LIFE CHRISTIAN ACADEMY","1665","MRS ANNIE BLACKMON","PO BOX 1085","TROY","AL","36081","1085","334-566-0424","999-999-9999","ablackmon@troycable.net"
"NEW DIMENSIONS CHRISTIAN ACADEMY","1673","MS GLORIA SYLVESTER","2200 MAIN AVE","NORTHPORT","AL","35476","4272","205-333-3990",,"nonesupplied@noreply.com"
"NEW COVENANT COMMUNITY LEARNING CENTER","1676","BSHP FRANK J KIRKWOOD","624 BASSWOOD DR","ADAMSVILLE","AL","35005","2129","205-788-5876","999-999-9999","nonesupplied@noreply.com"
"NEW HOPE CHRISTIAN ELEMENTARY SCHOOL","1679","MS GWENDOLYN H. BELL","1740 CLEBURN AVE SW","BIRMINGHAM","AL","35211","4233","205-925-9399","999-999-9999","gamble@newhope2location.com"
"NEW LIFE CHRISTIAN SCHOOL","1681","MR RONNIE BAILEY","1945 DREWRY RD","MONROEVILLE","AL","36460","5896","334-575-7280","334-575-5821","nonesupplied@noreply.com"
"NEW LIFE CHRISTIAN SCHOOL OF EXCELLENCE","1682","MRS BRENDA BECKWOOD","1600 8TH AVE N","BESSEMER","AL","35020","5743","205-425-4735","999-999-9999","bbeckwood@nlim.org"
"NORTH ALABAMA CHRISTIAN SCHOOL","1686","MS SANDRA SUMMERFORD","5651 AL HIGHWAY 40","VALLEY HEAD","AL","35989","3059","256-657-3380","256-657-3308","northalabamachristianschool@yahoo.com"
"NORTH ALABAMA CENTER FOR EDUCATIONAL EXCELLENCE","1691","MR EARNEST DAVIS","4900B CENTURY ST NW","HUNTSVILLE","AL","35816","1902","999-999-9999","999-999-9999","nonesupplied@noreply.com"
"NORTH MOBILE CHRISTIAN SCHOOL","1693","MICHAEL S. BELL","1255 INDUSTRIAL PKWY","SARALAND","AL","36571","3723","251-679-3279","251-679-3273","nmcs@northmobilechristian.org"
"NORTH SIDE CHRISTIAN SCHOOL","1695","MS SUSIE CRUMB","4812 YONDERHILL DR","BIRMINGHAM","AL","35207","1234","205-849-7676","999-999-9999","nonesupplied@noreply.com"
"NORTHPOINTE CHRISTIAN ACADEMY","1696","MRS CHIQUITA BANKHEAD WILKINS","4050 FAIRGROUND RD","MONTGOMERY","AL","36110","2008","334-356-6045","999-999-9999","NPCA2011@hotmail.com"
"OAK PARK CHRISTIAN ACADEMY","1701","MS DONNA DEMENT","3321 SOLLIE RD","MOBILE","AL","36695","2555","251-633-8045",,"nonesupplied@noreply.com"
"NORTHSIDE METHODIST ACADEMY","1711","JEREMY MARTENS","2600 REDMOND RD","DOTHAN","AL","36303","5616","334-794-7273",,"jmartens@nmacademy.net"
"NORTHVIEW CHRISTIAN CHURCH ACADEMY","1714","YVETTE HOGANS","233 BIC RD","DOTHAN","AL","36303","5851",,,"nccacademy@nccfamily.org"
"OAK MOUNTAIN CLASSICAL SCHOOL","1716","KEITH NIX","5080 CAHABA VALLEY TRCE","BIRMINGHAM","AL","35242","3627","205-995-9694","205-980-9095","tperkins@westminsterknights.org"
"OPEN DOOR BAPTIST CHURCH","1718","MS CINDA PERRY","1761 MCFARLAND BLVD N","TUSCALOOSA","AL","35406","2135","205-391-3601","999-999-9999","nonesupplied@noreply.com"
"NORTH RIVER CHRISTIAN ACADEMY","1720","DAN HABRIAL","1785 MCFARLAND BLVD N","TUSCALOOSA","AL","35406","2135","205-349-4881",,"shschool@hiwaay.net"
"OAKWOOD ADVENTIST ACADEMY K-8","1721","MR GILBERT COOPER","7000 ADVENTIST BLVD NW","HUNTSVILLE","AL","35896","0001","256-726-7010","256-726-7016","principal@mindspring.com"
"OPEN DOOR CHRISTIAN SCHOOL","1724","MRS VIOLET WALLACE","20774 COUNTY ROAD 12 S","FOLEY","AL","36535","9210","251-943-1693","999-999-9999","nonesupplied@noreply.com"
"PARKWAY CHRISTIAN ACADEMY","1728","REV MICHAEL R. GALLIEN","959 HUFFMAN RD","BIRMINGHAM","AL","35215","7846","205-833-2410","205-833-4692","mrgallien@gmail.com"
"PARKVIEW CHRISTIAN SCHOOL","1731","MR JOHN S DOWLING","608 S EUFAULA AVE","EUFAULA","AL","36027","2602","334-687-4449","334-687-5665","pcsoffice@eufaula.rr.com"
"PFC HOWARD JOHNSON ACADEMY","1732","MS GLORIA JOHNSON","102 BORDER CIR E","MOBILE","AL","36608","4540","251-345-9991","251-345-1120","glomogo@aol.com"
"PATHWAYS ACADEMY","1733","MS TAMMY H JACKSON","517 4TH AVE E","GLENCOE","AL","35905","1915","256-494-1600",,"tams@bellsouth.net"
"PEOPLE IN PROGRESS","1734","MS KRYSTAL ROGERS","472 S LAWRENCE ST","MONTGOMERY","AL","36104","4261","334-414-7105",,"nonesupplied@noreply.com"
"PATRICIAN ACADEMY","1740","MR MICHAEL R. ETHRIDGE","901 S MULBERRY AVE","BUTLER","AL","36904","2811","205-459-3605","205-459-4802","pasaints@pasaints.com"
"PHILLIPS TEMPLE CHRISTIAN ACADEMY","1755","BSHP GEORGE AYERS","2257 SAINT STEPHENS RD","MOBILE","AL","36617","3728","251-473-8312","251-473-1525","ptchristaca@aol.com"
"PICKENS ACADEMY","1760","J BRACH WHITE","225 RAY BASS RD","CARROLLTON","AL","35447","2210","205-367-8144","205-367-1771","bwhite@pickensacademy.com"
"PIKE LIBERAL ARTS SCHOOL","1770","CECIL E SIKES","PO BOX 329","TROY","AL","36081","0329","334-566-2023","334-670-2010","pikelibschool@yahoo.com"
"PRATTVILLE CHRISTIAN ACADEMY","1777","MR RANDY FULLINGTON","322 OLD FARM LN N","PRATTVILLE","AL","36066","6502","334-301-8771","999-999-9999","rmitchell@4pca.com"
"THE PINNACLE SCHOOLS","1781","AMY SHAW","500 GOVERNORS DR SW","HUNTSVILLE","AL","35801","5126","256-518-9998","999-999-9999","nonesupplied@noreply.com"
"PLAY WORLD CHILD DEVELOPMENT SCHOOL","1794","MR JOHN MARK SAIN","721 GRESHAM RD","FLORENCE","AL","35630","1039","256-767-2251","999-999-9999","playworldcc@aol.com"
"PRICHARD PREPARATORY SCHOOL","1796","MRS ROSALIE HOWLEY","743 MOUNT SINAI AVE","WHISTLER","AL","36612","1826","251-456-1234","999-999-9999","rhowley@prichardprepschool.com"
"PREMIER SCHOOL","1797","MS LESLIE DAVIS BUCHANAN","1827 SLAUGHTER RD","MADISON","AL","35758","8695","256-864-8450","256-864-8455","shschool@hiwaay.net"
"PROMISE PLACE PRESCHOOL AT FIRST BAPTIST","1807","MR BERRY J SMITH","309 E MAIN ST","ALBERTVILLE","AL","35950","2441","256-891-1002","999-999-9999","nonesupplied@noreply.com"
"PROMETHEAN ACADEMY","1808","DR JESSE R BUCKLEY JR","261 WESTERN HILLS DR","MADISON","AL","35757","8511","203-426-3394","999-999-9999","nonesupplied@noreply.com"
"PROVIDENCE CLASSICAL SCHOOL","1809","MS PATTIE STEWARD","1705 SPARKMAN DR NW","HUNTSVILLE","AL","35816","1117","999-999-9999","999-999-9999","nonesupplied@noreply.com"
"PROVIDENCE CHRISTIAN SCHOOL","1811","EMORY LATTA","4847 MURPHY MILL RD","DOTHAN","AL","36303","1374","334-702-8933","334-702-0700","elatta2@prov-cs.net"
"PROVIDENCE ACADEMY","1812","MR BO DIPLACIDO","1930 SLAUGHTER RD","MADISON","AL","35758","8619","256-830-9555","256-830-9595","nonesupplied@noreply.com"
"REDSTONE ARSENAL CHILD YOUTH & SCHOOL SERVICES","1819","ANDRE TERRY","BUILDING 1500 WEEDEN MOUNTAIN ROAD","REDSTONE ARSENAL","AL","35808","0000","256-876-3704","999-999-9999","nonesupplied@noreply.com"
"RANDOLPH SCHOOL","1820","BYRON C HULSEY","1005 DRAKE AVE SE","HUNTSVILLE","AL","35802","1099","256-881-1701","256-881-1784","bhulsey@randolphschool.net"
"RATCHFORD HEAD START","1821","MS LORI INGLE","600 JACKSON AVE W","ONEONTA","AL","35121","2260","205-625-6254","999-999-9999","dpreston@capma.org"
"RTK COMMUNITY LEARNING AND TECHNOLOGY CENTER","1822","MR RICO KELLY","1090 COOSA COUNTY ROAD 52","GOODWATER","AL","35072","3627","256-839-1546","256-839-1546","rtkcommlearn@att.net"
"RED MOUNTAIN COMMUNITY SCHOOL","1823","MS MELANIE B WALKER","PO BOX 55973","BIRMINGHAM","AL","35255","5973","205-218-4965","999-999-9999","melaniebwalker@gmail.com"
"RIVER EAST BAPTIST CHURCH KINDERGARTEN","1824","TAMMY CLARK","1707 REID CIR","GADSDEN","AL","35903","7645","256-494-3034","999-999-9999","nonesupplied@noreply.com"
"RIVERHILL SCHOOL","1827","TREVA LESTER","2826 COUNTY ROAD 30","FLORENCE","AL","35634","6606","256-764-8200","256-766-7006","tlester@riverhillschool.org"
"THE RILEY BEHAVIORAL AND EDUCATIONAL CENTER","1828","MRS KIMBERLY M TRAVIS","1900 GOLF RD SW STE E","HUNTSVILLE","AL","35802","4319","256-882-2457","999-999-9999","ktravis@therileycenter.org"
"RESTORATION ACADEMY","1829","MR CARL LYNN","4600 CARNEGIE AVE","FAIRFIELD","AL","35064","1430","205-785-8805","205-785-8809","nonesupplied@noreply.com"
"RUSHTON SCHOOL-GATEWAY","1833","JIM LOOP","5201 MESSER AIRPORT HWY","BIRMINGHAM","AL","35212","3032","205-510-2714","205-510-2647","nonesupplied@noreply.com"
"RIVERCHASE UNITED METHODIST DAY SCHOOL","1834","LAURIE SHOTNIK","1953 OLD HIGHWAY","HOOVER","AL","35244","0000","205-989-8070",,"lauries@riverchaseumc.org"
"SKYLAND SEVENTH DAY ADVENTIST DAY CHURCH SCHOOL","1836","MS SANDI SPADY","2211 SKYLAND BLVD E","TUSCALOOSA","AL","35405","4324","205-556-2442","999-999-9999","nonesupplied@noreply.com"
"SAFE HAVEN CHRISTIAN ACADEMY","1837","MS JANICE S MORRISSETTE","803 N DR MARTIN L KING JR DR","PRICHARD","AL","36610","4820","251-457-6088","999-999-9999","safehavenchristi@bellsouth.net"
"SAINT JAMES SCHOOL","1850","MRS MELBA B. RICHARDSON","6010 VAUGHN RD","MONTGOMERY","AL","36116","1202","334-273-2999","999-999-9999","mrichardson@stjweb.org"
"SARDIS CHRISTIAN","1851","MR JIMMIE SWAIN","1620 4TH CT W","BIRMINGHAM","AL","35208","4212","205-786-4379","205-780-5898","jimmieswain@bellsouth.net"
"ST JOHNS DELIVERENCE SCHOOL OF TOMORROW","1860","FRANCINE A REESE","1624 BOYKIN BLVD","MOBILE","AL","36605","4217","251-470-0350","334-470-0440","shschool@hiwaay.net"
"ST LUKE'S EPISCOPAL SCHOOL","1870","WILSON PALMER KENNEDY","3975 JAPONICA LN","MOBILE","AL","36693","2928","251-666-2991","251-666-2996","pkennedy@stlukesmobile.com"
"SAINT MARK KINDERGARTEN","1885","MRS JANET NEBRIG","2901 COLUMBIANA RD","BIRMINGHAM","AL","35216","3505","205-822-1312","205-822-5919","janet@saintmarkumc.org"
"ST MARK UNITED METHODIST SCHOOL","1886","MS ANDREA TREHERN","439 AZALEA RD","MOBILE","AL","36609","1628","251-423-4102","999-999-9999","atrehern@thechrysalisacademy.org"
"ST PAUL'S EPISCOPAL SCHOOL","1890","ROBERT RUTLEDGE","161 DOGWOOD LN","MOBILE","AL","36608","1398","334-342-6700","334-342-1844","nonesupplied@noreply.com"
"SEMMES CHRISTIAN ACADEMY","1900","LAVONIA WHITE","9275 VICKERS RD","SEMMES","AL","36575","4423","334-649-5582","999-999-9999","nonesupplied@noreply.com"
"ST PAUL'S LUTHERAN SCHOOL","1901","ROBERT E LANGE","510 3RD AVE SE","CULLMAN","AL","35055","4399","256-734-6580","256-734-6580","relange@stpaulscullman.com"
"SARDIS CHRISTIAN SCHOOL","1941","MR EARL S WILSON","1620 4TH CT W","BIRMINGHAM","AL","35208","4212","205-786-4379","999-999-9999","nonesupplied@noreply.com"
"SATSUMA CHRISTIAN SCHOOL","1950","CHARNEL ETTAWIL","5600 BAYOU AVE","SATSUMA","AL","36572","0000","334-675-1295","334-675-8363","shschool@hiwaay.net"
"SILVERHILL CHRISTIAN ACADEMY","2001","MS AMY MCCULLY","PO BOX 145","SILVERHILL","AL","36576","0145","999-999-9999","999-999-9999","nonesupplied@noreply.com"
"SHADES MOUNTAIN CHRISTIAN SCHOOL","2005","MR LAIRD CRUMP","2290 OLD TYLER RD","HOOVER","AL","35226","1729","204-978-6001","205-978-9120","lairdcrump@smcs.org"
"SHELBY ACADEMY INC","2010","DEWAYNE KERVIN","9178 HIGHWAY 22","MONTEVALLO","AL","35115","5724","205-668-2299","205-668-1912","nonesupplied@noreply.com"
"SLAUGHTER ROAD CHILD DEVELOPMENT CENTER","2019","MS PAM HOLLIS","9 EASTVIEW DR","MADISON","AL","35758","7898","256-971-1300","999-999-9999","ttrach@knology.net"
"SHOALS CHRISTIAN SCHOOL","2022","THOMAS R HUGHES","301 HEATHROW DR","FLORENCE","AL","35633","1559","256-767-7070","256-766-5677","sch@shoalschristian.org"
"SHARP DEAN SCHOOL OF CONTINUING STUDIES INC","2024","DR ROSETTA SHARP DEAN","PO BOX 5266","ANNISTON","AL","36205","0266","256-238-0451","999-999-9999","rosetta@cableone.net"
"SOUTH CHOCTAW ACADEMY","2030","MRS MARCUS ANNE DEMPSEY","PO BOX 160","TOXEY","AL","36921","0160","251-843-2426","251-843-2088","scoffice@yahoo.com"
"SOUTH MONTGOMERY CTY ACAD","2040","CAROLYN HICKS","PO BOX 10","GRADY","AL","36036","0010","334-864-9852","334-864-9691","somtgy@mon-cre.net"
"S HIGHLAND CHILD DEV CTR INC","2050","MS MICHELLE DARABARIS","2035 HIGHLAND AVE S","BIRMINGHAM","AL","35205","3801","205-939-1210","205-933-7361","cdcdirector@shpcbhm.org"
"SOUTHERN ACADEMY","2060","JAMES I DAVIS","407 COLLEGE ST","GREENSBORO","AL","36744","1705","334-624-8111","334-624-3778","saoffice@southernacademy.net"
"SOUTHMINISTER DAY SCHOOL","2075","JEANIE COVIN","1124 MONTGOMERY HWY","VESTAVIA","AL","35216","2808","205-822-9531","205-822-0708","sdsoffice@bellsouth.net"
"SPARTA ACADEMY","2080","WAYNE HAMMONDS","300 PIERCE ST","EVERGREEN","AL","36401","2698","251-578-2852","251-578-2878","angelapierce2@yahoo.com"
"SPRING HILL BAPT PRESCHOOL","2085","PATRICIA A HAMPTON","2 MCGREGOR AVE S","MOBILE","AL","36608","1899","334-342-6044","256-896-4661","nonesupplied@noreply.com"
"SPRING VALLEY SCHOOL","2089","MS JOAN KEAGY","PO BOX 131431","BIRMINGHAM","AL","35213","6431","205-251-4455","999-999-9999","jkeagy@springvalleyschool.org"
"SPRINGWOOD SCHOOL","2090","MR BILL PARSONS","PO BOX 1030","LANETT","AL","36863","1030","334-644-2191",,"bparsons@springwoodschool.com"
"ST JOSEPH CHILD DEVELOPMENT CENTER","2091","FR DENNIS BERRY","1444 HIGHWAY 165","FORT MITCHELL","AL","36856","5136","334-855-4675","999-999-9999","guywilsonst@hotmail.com"
"ST ANN ELEMENTARY SCHOOL","2092","MRS CHRISTINE C WRIGHT","3910 SPRING AVE SW # A","DECATUR","AL","35603","1294","256-353-6543","256-353-0705","cwright@saintanncatholicschool.com"
"ST.BARNABAS REGIONAL SCHOOL","2093","MS TILLIE BARNHILL","7901 1ST AVE N","BIRMINGHAM","AL","35206","3842","205-836-5385","205-833-0272","tbarnhil@gte.net"
"STANFORD CHRISTIAN ACADEMY","2095","MR KENNETH STANFORD","PO BOX 2735","SEMMES","AL","36575","2735","251-645-2070","999-999-9999","sca8780@aol.com"
"ST BERNARD PREP SCHOOL","2096","REV JOEL MARTIN OSB","1600 SAINT BERNARD AVE SE","CULLMAN","AL","35055","3057","256-739-6682","999-999-9999","nonesupplied@noreply.com"
"SUMITON CHRISTIAN SCHOOL","2097","MRS CHERYL ANN CAPPS","PO BOX 40 155 HOSANNA DR","SUMITON","AL","35148","0040","205-648-6643","205-648-0235","cjc4bama@yahoo.com"
"ST ROSE OF LIMA ACADEMY","2098","SR MARY SETON CEBROWSKI","1401 22ND ST S","BIRMINGHAM","AL","35205","4109","205-933-0549","999-999-9999","smseton@saintroseacademyop.com"
"SUMTER ACADEMY","2100","ROBERT GARTMAN","181 SUMTER ACADEMY RD","YORK","AL","36925","9739","334-875-4464",,"nonesupplied@noreply.com"
"SYLVAN LEARNING CENTER","2101","MR MARK HARBIN","7500 SOUTH MEMORIAL PARKWAY SUITE 119","HUNTSVILLE","AL","35802","0000","256-880-1444",,"nonesupplied@noreply.com"
"SYLVAN LEARNING CENTER","2102","MS AMBER NOLEN","687 N DEAN RD","AUBURN","AL","36830","4044","334-826-3600",,"nonesupplied@noreply.com"
"SYLVAN LEARNING CENTER","2103","MS MINNIE MOORE","1720 HIGHWAY 78 EAST EMERALD PLACE","OXFORD","AL","36203","0000","256-831-4050","999-999-9999","syl2610@bellsouth.net"
"SUSANNA WESLEY EARLY EDUCATION MINISTRY","2104","MS AMY VANDERGRIFT","120 GREENE ST SE","HUNTSVILLE","AL","35801","4807","256-534-6866","256-534-9786","sweem@huntsvillefirst.org"
"SYLVAN LEARNING CENTER","2106","MS CAROLYN MILLER","2618 HOUGH RD","FLORENCE","AL","35630","1747","999-999-9999","999-999-9999","nonesupplied@noreply.com"
"SYLVAN LEARNING CENTER","2108","MR EDDIE W MCLAIN","246 GASDEN HIGHWAY SUITE 10","BIRMINGHAM","AL","35235","2055","205-871-5045","205-871-5093","nonesupplied@noreply.com"
"SUCCESS UNLIMITED ACADEMY","2109","MS SUSAN ODLE","2328 FAIRLANE DR","MONTGOMERY","AL","36116","1604","334-819-8005","334-819-8008","admin@suacademy.com"
"SUCCESS ACADEMY","2111","MR R MIKE ROLLINS","PO BOX 5072","ANNISTON","AL","36205","0072","256-820-5911","999-999-9999","rmackey@hiwaay.net"
"SUMMIT CHRISTIAN ACADEMY","2112","MR HEADMASTER HEADMASTER","1801 HIGHWAY 14 EAST","MILLBROOK","AL","36054","0000","334-358-0706",,"nonesupplied@noreply.com"
"TABERNACLE CHRISTIAN SCHOOL","2113","MR GLENN DICKSON","2649 DECATUR HWY","GARDENDALE","AL","35071","2115","205-631-9318",,"nonesupplied@noreply.com"
"TEACHER'S P.E.T.S. ACADEMY","2131","MRS CONTESSA T JACKSON","PO BOX 359","HARVEST","AL","35749","0359","256-698-8911","999-999-9999","cjackson@teacherspetsinc.com"
"TEMPLE CHRISTIAN ACADEMY","2141","PSTR WILLIAM D ODOM","PO BOX 483","ATMORE","AL","36504","0483","251-368-8282","999-999-9999","abt_tca@frontiernet.net"
"TEMPLE MOUNT CHRISTIAN ACADEMY","2142","BRUCE EDWARD MCDONALD, D.D.","1803 MULBERRY ST","MONTGOMERY","AL","36106","1525","334-260-1021","334-269-4527","nonesupplied@noreply.com"
"THE LITTLE TREE PRESCHOOL","2182","MS KIM SMITH","421 OPELIKA RD","AUBURN","AL","36830","3981","256-234-8631","256-234-8653","nonesupplied@noreply.com"
"THE MONTGOMERY ACADEMY","2200","DAVID J. FARACE","3240 VAUGHN RD","MONTGOMERY","AL","36106","2725","334-272-8210","999-999-9999","dave_farace@montgomeryacademy.org"
"THE MONTGOMERY ACADEMY - LOWER SCHOOL","2201","MR ARCHIBALD DOUGLAS","3240 VAUGHN RD","MONTGOMERY","AL","36106","2725","334-272-8210","334-277-3240","douglas.a@montgomeryacademy.org"
"THE NET CHRISTIAN ACADEMY","2202","MR JOSEPH L FOLLETTE JR","1593 HUGHES RD STE D-121","MADISON","AL","35758","8919","256-651-8729","925-522-4887","pastorjoe@lovingthenet.com"
"ALABAMA WALDORF SCHOOL","2221","RANDY BROTHREN","1220 50TH ST S","BIRMINGHAM","AL","35222","3916","205-592-0541","205-592-0541","nonesupplied@noreply.com"
"THE NEIGHBORHOOD SCHOOL","2222","MS CARRIANN TOOMBS","26481 KENSINGTON PL STE A","DAPHNE","AL","36526","5122","251-786-1580",,"nonesupplied@noreply.com"
"THE WESTMINSTER SCHOOL AT OAK MOUNTAIN","2251","MS MAURA ELLEN BRYAN","5080 CAHABA VALLEY TRCE","BIRMINGHAM","AL","35242","3627","205-955-9694",,"nonesupplied@noreply.com"
"THREE RIVERS ACADEMY","2252","MRS NIKKI LEMASTER-BUTLER","445 COTTON GIN RD","MONTGOMERY","AL","36117","3558","334-517-1158","999-999-9999","threeriversboard@yahoo.com"
"TRAILBLAZER ACADEMY-ST MARY’S HOME","2291","MR NORMAN CARTER","4350 MOFFETT RD","MOBILE","AL","36618","1719","251-344-7733",,"nonesupplied@noreply.com"
"TRI COUNTY CHRISTIAN ACADEMY","2296","MR IKE THOMPSON","216 WALNUT ST","PRATTVILLE","AL","36067","2927","334-358-1193","334-358-1517","nonesupplied@noreply.com"
"TRINITY BAPTIST ACADEMY","2314","MR CURTIS COCHRAN","1701 CHILDHAVEN RAOD","CULLMAN","AL","35055","0000","256-737-0037","999-999-9999","nonesupplied@noreply.com"
"TRINITY CHRISTIAN ACADEMY","2330","TIMOTHY SNOW","1500 AIRPORT RD","OXFORD","AL","36203","2553","256-831-3333",,"tca@trinityoxford.org"
"TRINITY CHRISTIAN SCHOOL","2331","MS SHARON MILLER","1010 INDIA RD","OPELIKA","AL","36801","2820","334-745-2464","999-999-9999","tcsprincipal@bellsouth.net"
"TRINITY LUTHERAN SCHOOL","2340","MRS JOANN WHIGHAM","2668 BERKLEY AVE","MOBILE","AL","36617","1799","251-456-7960","999-999-9999","jwhigham@trinitylutheranmobile.org"
"TRINITY CHRISTIAN ACADEMY","2361","MRS ZSA ZSA COUCH","4201 NORDALE DR","MONTGOMERY","AL","36116","2300","334-409-2800",,"nonesupplied@noreply.com"
"TRUETT CHRISTIAN ACADEMY","2365","GAYLE C TRUETT","2037 EDINBURGH CT","MONTGOMERY","AL","36116","1310","334-834-7469","334-269-0117","nonesupplied@noreply.com"
"TRINITY PRESBYTERIAN SCHOOL","2370","ROBERT DONALD NEU","1700 E TRINITY BLVD","MONTGOMERY","AL","36106","2899","334-213-2100","334-213-2171","bneu@trinitywildcats.com"
"TURNING POINT","2379","MR ERIN BRADLEY","318A HAMER RD","OWENS CROSS ROADS","AL","35763","9612","256-725-7170","256-725-7169","nonesupplied@noreply.com"
"TUSCALOOSA ACADEMY","2380","DR BARRY A. PETERSON","420 RICE VALLEY RD N","TUSCALOOSA","AL","35406","2722","205-758-4462","999-999-9999","taknights@tuscaloosaacademy.org"
"UAB PSYCHIATRIC PROG HOSP SCH","2390","MELISSA MCKERLEY-OLIVER","1713 6TH AVENUE S","BIRMINGHAM","AL","35294","0001","205-934-4574","205-975-7391","mmckerley@uabmc.edu"
"UAB ENGEL SCHOOL","2391","DR LEE I. ASCHERMAN M.D.","1632 7TH AVE S","BIRMINGHAM","AL","35233","1711","205-934-5156","999-999-9999","nonesupplied@noreply.com"
"UNDER HIS WINGS COVER SCHOOL","2392","MS KRISTINE DUBIELAK","6535 COUNTY ROAD 51","FAYETTE","AL","35555","5942","205-904-8327","205-904-8327","nonesupplied@noreply.com"
"UMS-WRIGHT PREPARATORY SCH","2400","DR TONY W HAVARD","65 MOBILE ST","MOBILE","AL","36607","3140","251-479-6551","251-470-9050","thavard@ums-wright.org"
"VALLEY VIEW BAPTIST EDUCATION PROGRAM","2404","MS TONYA HENSON","7254 PRESIDENT ST","LEEDS","AL","35094","7819","205-699-7766","999-999-9999","nonesupplied@noreply.com"
"VALLEY HAVEN SCHOOL","2405","TONY EDMONDSON","PO BOX 416","VALLEY","AL","36854","0416","334-644-5900","334-644-5910","nonesupplied@noreply.com"
"WEEKDAY ENRICHMENT PROGRAM","2415","HARRIETTE WOODRING","2061 KENTUCKY AVE","VESTAVIA","AL","35216","1907","205-979-2415","205-978-6811","nonesupplied@noreply.com"
"VERITAS ACADEMY","2416","MR HANK AUSTIN","4011 LAKEWOOD DR","PHENIX CITY","AL","36867","2023","334-480-0389","334-298-4877","hank@aol.com"
"VICTORY BAPTIST SCHOOL","2417","MR JOE BYRD","PO BOX 1090","MILLBROOK","AL","36054","0024","334-285-5082","999-999-9999","nonesupplied@noreply.com"
"VICTORY CHRISTIAN ACADEMY","2421","MS SHIRLEY MCKINNEY","43800 HIGHWAY 25","VINCENT","AL","35178","6124","205-672-9400","999-999-9999","nonesupplied@noreply.com"
"VICTORY CHRISTIAN SCHOOL","2422","DAVID WEIR","PO BOX 710","PELL CITY","AL","35125","0710","205-338-2901","205-338-3916","dweir7@gmail.com"
"THE VILLAGE MONTESSORI SCHOOL","2425","SUSAN HARPER","231 E DRAKE AVE","AUBURN","AL","36830","3917","334-887-7726",,"nonesupplied@noreply.com"
"WALL HIGHWAY BAPTIST KINDERGARTEN","2427","MS PAULA ORTNER","6597 WALL TRIANA HWY","MADISON","AL","35757","7403","999-999-9999","999-999-9999","nonesupplied@noreply.com"
"WARRIOR ACADEMY","2430","JOHN E SANTORO, III","P.O. BOX 268, 920 WARRIOR ACADEMY","EUTAW","AL","35462","0268","205-372-3546","205-372-9744","nonesupplied@noreply.com"
"WEINACKER'S MONTESSORI SCH","2435","JOHN WEINACKER","227 HILLCREST RD","MOBILE","AL","36608","5308","334-344-8755","334-344-8755","nonesupplied@noreply.com"
"WEE CARE ACADEMY INC","2436","MS JANICE DANIELS","1813 4TH AVE N","BIRMINGHAM","AL","35203","2101","205-322-2229","999-999-9999","nonesupplied@noreply.com"
"WEBSTER CHRISTIAN SCHOOL","2451","MRS BROOKS MCCALLEY","PO BOX 530703","BIRMINGHAM","AL","35253","0703","205-951-5401","999-999-9999","websterchristian@bellsouth.net"
"WEST POINT PREP SCHOOL","2475","MS TINA MCMINN","140 COUNTY ROAD 1242","CULLMAN","AL","35057","6736","256-734-7505","999-999-9999","nonesupplied@noreply.com"
"WESTMINSTER CHRISTIAN ACADEMY","2480","MR CRAIG BOUVIER","237 JOHNS RD NW","HUNTSVILLE","AL","35806","1517","256-705-8000",,"information@wca-hsv.org"
"WESTBROOK CHRISTIAN SCHOOL","2490","MRS CYNTHIA G GREER","100 WESTMINSTER DR","RAINBOW CITY","AL","35906","3701","256-442-7457","999-999-9999","cgreer@westbrookchristian.org"
"WILCOX ACADEMY","2510","CHRISTOPHER S BURFORD","PO BOX 1149","CAMDEN","AL","36726","1149","334-682-9619",,"nonesupplied@noreply.com"
"WINEWOOD CHRISTIAN SCHOOL INC","2521","REV JOHN H DAVIS JR","2974 WINEWOOD RD","BIRMINGHAM","AL","35215","4198","205-853-9906","205-854-9629","winewoodschool@hotmail.com"
"WIREGRASS CHRISTIAN ACADEMY","2525","MRS JOAN B. HOWELL","209 W COLLEGE ST","ENTERPRISE","AL","36330","2916","334-393-8972","334-393-1465","nonesupplied@noreply.com"
"WOODLANDS EARLY CHILDHOOD ENRICHMENT CENTER","2531","MS DANA WIGGINS","8491 FOSHEE RD","BREWTON","AL","36426","6104","251-575-4071","251-575-4071","nonesupplied@noreply.com"
"WORKSHOPS INC","2535","JAMES E CRIM","4244 3RD AVE S","BIRMINGHAM","AL","35222","2008","205-592-9683","205-592-9687","jimcrim@workshopsinc.com"
"BIG COVE CHRISTIAN ACADEMY","3000","MS RACHEL WIEGAND","6354 HIGHWAY 431 S","OWENS CROSS ROADS","AL","35763","9210","256-518-9642","256-725-3179","rachelwiegand@juno.com"
"HARRIS EARLY LEARNING CENTER","3010","DR ROBBIE BLACK ROBERTS","1413 7TH AVE N","BIRMINGHAM","AL","35203","1808","205-252-5060","205-252-6628","robbieroberts@harriselc.org"
"BIRMINGHAM INSTITUTE CHURCH","3011","DR ELVIRITA R FINLEY","9825 BEAR CREEK RD HWY 43","STERRETT","AL","35147","0000","205-231-5500","205-231-5535","nonesupplied@noreply.com"
"FIRST MISSIONARY BAPTIST CHILD DEVELOPMENT CENTER","3030","MS NICOLE CAMPBELL","3509 BLUE SPRING RD NW","HUNTSVILLE","AL","35810","3458","256-852-6673","256-852-5975","joscruggs@fmbc.org"
"HOLY SPIRIT ELEMENTARY SCHOOL","3066","SR ELAINE SEBERA","711 JAMES I HARRISON JR PKWY E","TUSCALOOSA","AL","35405","3209","205-553-5606","999-999-9999","lcorona@holyspirit-al.com"
"KEYSTONE LEARNING","3080","MS LIBERTY S DUKE","PO BOX 837","NORTHPORT","AL","35476","0837","334-834-2484","334-262-5479","nonesupplied@noreply.com"
"MAYFAIR CHILD DEVELOPMENT CENTER","3090","NORMA ANDERSON","1095 CARL T JONES DR SE","HUNTSVILLE","AL","35802","1866","256-858-8692","999-999-9999","nonesupplied@noreply.com"
"ST CLAIR COUNTY DAY PROGRAM INC","3101","MR DAVID GRAY","PO BOX 1653","ASHVILLE","AL","35953","1653","205-594-7492","205-594-3258","david.gray@sccboe.org"
"THE MONTESSORI LEARNING CENTER","3110","MS BRENDA TACKETT","2334 PANSY ST SW","HUNTSVILLE","AL","35801","3803","256-534-6296","999-999-9999","brenda.tackett@knology.net"
"MONTESSORI SCHOOL OF DECATUR","3120","MS PEGGIE KILPATRICK","402 JOHNSTON ST SE","DECATUR","AL","35601","3008","256-355-7567","999-999-9999","nonesupplied@noreply.com"
"MONTESSORI SCHOOL OF HUNTSVILLE","3130","MS SUSAN J SMITH","15975 CHANEY THOMPSON RD SE","HUNTSVILLE","AL","35803","3939","256-881-3790","256-881-3188","mshadministrator@knology.net"
"THE GUIDING LIGHT FAMILY CARE CENTER","3139","MS GWEN BOYD","60 ROEBUCK DR","BIRMINGHAM","AL","35215","8037","205-838-1033","205-838-1331","nonesupplied@noreply.com"
"MOUNTAIN VIEW CHRISTIAN ACADEMY","3140","JONATHAN DALE AULTMAN","3665 HIGHWAY 73","BRYANT","AL","35958","0000","256-597-3467","256-597-3467","jaultman@mvcaschool.com"
"MOUNTAINVIEW BAPTIST SCHOOL","3141","MRS JUDY DICK","5568 CHALKVILLE RD","BIRMINGHAM","AL","35235","2170","205-854-2741","999-999-9999","nonesupplied@noreply.com"
"THE MURRAY SCHOOL AT WILMER HALL","3150","MRS MARGIE SUMLIN","3811 OLD SHELL RD","MOBILE","AL","36608","1317","251-342-4931","251-342-4466","msumlin@wilmerhall.org"
"OLD PATH CHRISTIAN SCHOOL","3180","MR JOEY POLSTON","1000 LEE ROAD 263","CUSSETA","AL","36852","3143","334-742-0144","999-999-9999","nonesupplied@noreply.com"
"PHENIX CHRISTIAN SCHOOL","3190","CECILIA E DRUMMONDS","PO BOX 1208","PHENIX CITY","AL","36868","1208","334-298-3588","334-298-3621","cdrummonds@firstagpc.org"
"J B SHELTON ACADEMY INC","3200","MS JANET L SHELTON","1050 HILLCREST RD STE B","MOBILE","AL","36695","4572","251-639-1311","501-642-4510","jbrooks711@bellsouth.net"
"VALLEY FELLOWSHIP CHRISTIAN ACADEMY","3220","MS PATTI SIMON","3616 HOLMES AVE NW","HUNTSVILLE","AL","35816","4112","256-533-5248","256-533-5253","psimon@valleyfellowship.com"
"VICTORY CHRISTIAN SCHOOL","3230","MS GAYLE GRIFFITH","20511 COUNTY ROAD 12 S","FOLEY","AL","36535","9206","334-943-7686","334-943-7687","nonesupplied@noreply.com"
"VICTORY CHRISTIAN SCHOOL","3231","MS CATHY TIDMORE","4204 HIGHWAY 29","ONEONTA","AL","35125","0000","205-237-5242","999-999-9999","ray.tidmore@yahoo.com"
"VINEMONT CHRISTIAN ACADEMY","3240","MR KENNETH TERRY","21325 US HIGHWAY 31","VINEMONT","AL","35179","5989","999-999-9999","999-999-9999","nonesupplied@noreply.com"
"WHITESBURG BAPTIST WEEKDAY","3250","MRS CINDY ABERCROMBIE","6806 WHITESBURG DR SE","HUNTSVILLE","AL","35802","2299","256-880-5313","256-880-5314","nonesupplied@noreply.com"
"WHITESBURG CHRISTIAN ACADEMY","3251","MRS TRACEY ELAINE THOENES","6806 WHITESBURG DR SE","HUNTSVILLE","AL","35802","2250","256-704-5678","999-999-9999","tracey.thoenes@wbccares.org"
"VON-LYN SCHOOL OF WEST ALABAMA INC.","3261","MS YVONNE MASSEY","PO BOX 20466","TUSCALOOSA","AL","35402","0466","205-342-0041","205-342-0029","nonesupplied@noreply.com"
"TRINITY SCHOOL","3270","MRS JOAN H QUICK","800 MONTCLAIR RD #209","BIRMINGHAM","AL","35213","1908","205-592-5753","999-999-9999","nonesupplied@noreply.com"
"EXPLORATORIUM ACADEMY","3290","DR MARY HILL LOWE","8449 CROSSLAND LOOP STE 109","MONTGOMERY","AL","36117","0917","334-279-9700","999-999-9999","marylowe@hillandloweeducationalservices.org"
"THE ARNOLD SCHOOL OF ALABAMA","4000","CYNTHIA M GARNER","4308 DOWNTOWNER LOOP N","MOBILE","AL","36609","5502","334-343-1700","334-343-1715","cgarner@thearnoldschool.com"
"VAUGHN SCHOOL THE","4085","DEBI NOWAKOWSKI","1600 7TH AVE S STE 500","BIRMINGHAM","AL","35233","1711","205-939-9651","999-999-9999","nonesupplied@noreply.com"
"ALABAMA BAPTIST CHILDREN'S HOME","4104","BOBBY JOE SMITH","6512 GRELOT RD","MOBILE","AL","36695","2657","251-639-1022","999-999-9999","bjsmith@abchome.org"
"BIRMINGHAM CATHOLIC SCHOOLS","0000","SR LEANNE WELCH","2121 THIRD AVENUE NORTH","BIRMINGHAM","AL","35203","0000","205-838-8308","999-999-9999","nonesupplied@noreply.com"
"CATHOLIC HIGH SCHOOL-HUNTSVILLE","0025","MR VINCENT SALVADOR AQUILA","7301 OLD MADISON PIKE NW","HUNTSVILLE","AL","35806","2113","256-430-1760","999-999-9999","vaquila@jp2falcons.org"
"HOLY FAMILY ELEM SCHOOL","0030","CHANDRA FARRIER","1916 19TH STREET ENSLEY","BIRMINGHAM","AL","35218","2098","205-780-5858",,"nonesupplied@noreply.com"
"JOHN CARROLL CATHOLIC HIGH SCHOOL","0035","REV JOHN G MCDONALD","300 LAKESHORE PKWY","BIRMINGHAM","AL","35209","7114","205-940-2400",,"principal@jcchs.org"
"HOLY SPIRIT REGIONAL SCHOOL","0060","JAMES BELL","619 AIRPORT RD SW","HUNTSVILLE","AL","35802","4358","256-881-4852","256-881-4904","nonesupplied@noreply.com"
"HOLY FAMILY CRISTO REY HIGH SCHOOL","0065","MR ELBERT MORROW","2001 19TH STREET ENSLEY","BIRMINGHAM","AL","35218","2099","205-789-9937","205-787-8530","emorrow@hfcristorey.org"
"HOLY SPIRIT HIGH SCHOOL","0070","SR ELAINE SEBERA","601 JAMES I HARRISON JR PKWY E","TUSCALOOSA","AL","35405","3208","205-553-5606","999-999-9999","jhalli@holyspirit-al.com"
"OUR LADY OF FATIMA ELEMENTARY SCHOOL","0080","MRS VELDA BENJAMIN GILYOT","630 1ST ST S","BIRMINGHAM","AL","35205","4299","205-251-8395","999-999-9999","veebeegee@charter.net"
"OUR LADY OF THE VALLEY SCH","0085","MRS SANDRA RODEN","5510 DOUBLE OAK LN","BIRMINGHAM","AL","35242","3513","205-991-3703","205-995-1251","sroden@olvsch.com"
"OUR LADY OF SORROWS SCHOOL","0090","MARY JANE DORN","1720 OXMOOR RD","BIRMINGHAM","AL","35209","4097","205-879-3237","205-879-9332","mjdorn@olsschool.com"
"OUR LADY OF LOURDES KINDERGARTEN","0095","MS ELIZABETH S ABTS","980 HUFFMAN RD","BIRMINGHAM","AL","35215","7899","205-836-1218","205-836-5436","ollkindergarten@bham.rr.com"
"SACRED HEART SCHOOL","0110","CHARLES MANISCALCO","16 MORTON RD","FT MCCLELLAN","AL","36205","3447","256-237-4231","256-241-2353","principal@sacredheartcardinals.org"
"SACRED HEART SCHOOL","0120","ERNEST W. HAUK","112 2ND AVE SE","CULLMAN","AL","35055","3512","256-734-4563","256-734-5882","office@shscullman.com"
"SAINT ALOYSIUS SCHOOL","0130","STEPHANIE BURKE","751A ACADEMY DR","BESSEMER","AL","35022","5276","205-425-0045","999-999-9999","principalburke@gmail.com"
"ST ANN CATHOLIC SCHOOL","0140","MRS CHRISTINE C WRIGHT","3910 SPRING AVE SW # A","DECATUR","AL","35603","1294","256-353-6543","256-353-0705","cwright@saintanndecatur.org"
"ST BARNABAS SCHOOL","0150","SR BRENDA MONAHAN","7901 1ST AVE N","BIRMINGHAM","AL","35206","3842","205-836-5385","999-999-9999","stbarnabasrs@gmail.com"
"ST FRANCIS XAVIER","0170","MR JAMES NATHAN WRIGHT III","2 XAVIER CIR","BIRMINGHAM","AL","35213","2026","205-871-1687","205-871-1674","office@saintfrancisxavierschool.com"
"ST FRANCIS XAVIER PRESCHOOL","0171","MS JOY MUELLER","2 XAVIER CIR","BIRMINGHAM","AL","35213","2026","256-879-5596","999-999-9999","nonesupplied@noreply.com"
"ST JAMES CATHOLIC SCHOOL","0180","MR JOHN FRANCIS PARKER","700 ALBERT RAINS BLVD","GADSDEN","AL","35901","2564","256-546-0132","999-999-9999","jparker@stjamesgadsden.org"
"ST JOHN THE BAPTIST CATHOLIC","0185","SHERRY LEWIS","1057 HUGHES RD","MADISON","AL","35758","6403","256-722-0772","256-722-0151","slewis@stjohnb.com"
"ST JOSEPH REGIONAL CATHOLIC SCHOOL","0200","MRS KELLEY MARIE DEWBERRY","115 PLUM ST","FLORENCE","AL","35630","4877","256-766-1923","999-999-9999","nonesupplied@noreply.com"
"ST MARYS","0240","RONALD R BELL","6124 MYRON MASSEY BLVD","FAIRFIELD","AL","35064","2529","205-923-5161","205-923-5141","nonesupplied@noreply.com"
"ST PETERS CHILD DEVELOPMENT CENTER","0255","MRS LORRIE STEELE","2061 PATTON CHAPEL RD","BIRMINGHAM","AL","35216","5781","205-620-5953","205-995-1251","stpeterscdc@bellsouth.net"
"PRINCE OF PEACE CATHOLIC SCHOOL","1801","CONNIE JUDGE ANGSTADT","4650 PRESERVE PKWY","HOOVER","AL","35226","2009","205-824-7886","205-824-2093","cangstadt@popcatholic.org"
"HOLY FAMILY REGIONAL SCHOOL","3065","MS PATRICIA LEE KUHN","2300 BEASLEY AVE NW","HUNTSVILLE","AL","35816","4004","256-539-5221","999-999-9999","pkuhn@holy-family-school.com"
"HOLY SPIRIT CATHOLIC REGIONAL SCHOOL ELEMENTARY","3066","LISA CORONA","711 JAMES I HARRISON JR PKWY E","TUSCALOOSA","AL","35405","3209","205-553-9630",,"lcorona@holyspirit-al.com"
"MOBILE CATHOLIC SCHOOLS","0000","MS GWEN BYRD","308 S DEARBORN ST","MOBILE","AL","36603","1810","334-438-4611","999-999-9999","nonesupplied@noreply.com"
"CHRIST THE KING SCHOOL","0010","MAXWELL J CRAIN","PO BOX 1890","DAPHNE","AL","36526","1890","251-626-1692",,"mcrain@mobilearchdiocese.org"
"CORPUS CHRISTI SCHOOL","0020","MS JOAN T MCMULLEN","6300 MCKENNA DR STE C","MOBILE","AL","36608","3899","251-342-5474","251-380-0325","jmcmullen@corpuschristiparish.com"
"LITTLE FLOWER CATHOLIC SCHOOL","0040","MS CLARA ANN BRUNK","2103 GOVERNMENT ST","MOBILE","AL","36606","1694","251-479-5761","999-999-9999","cbrunk@littleflower.cc"
"MCGILL-TOOLEN HIGH SCHOOL","0050","MICHELLE T HAAS JR","1501 OLD SHELL RD","MOBILE","AL","36604","2291","251-445-2900","251-441-0833","haasm@mcgill.pvt.k12.al.us"
"MONTGOMERY CATHOLIC PREPARATORY SCHOOL - HIGH SCHOOL CAMPUS","0060","MRS ANNE O. CEASAR","5350 VAUGHN ROAD","MONTGOMERY","AL","36116","1153","334-272-7220","334-272-2440","ACeasar@montgomerycatholic.org"
"MONTGOMERY CATHOLIC PREPARATORY SCHOOL - MIDDLE SCHOOL CAMPUS","0061","MRS ANNE O. CEASAR","5350 VAUGHN ROAD","MONTGOMERY","AL","36116","1153","334-272-7220","334-272-2440","ACeasar@montgomerycatholic.org"
"MOST PURE HEART OF MARY SCH","0070","SR NANCY CROSSEN","310 SENGSTAK ST","MOBILE","AL","36603","6298","251-432-5270","999-999-9999","secretary@mphom.org"
"MOTHER MARY SCHOOL","0080","SR CECELIA HARRISON","318 SEALE RD STE A","PHENIX CITY","AL","36869","6924","334-298-6371","334-298-7934","mmcs3342986371@aol.com"
"RESURRECTION CATHOLIC SCHOOL","0120","SR GAIL TRIPPETT","2815 FORBES DR","MONTGOMERY","AL","36110","1399","334-230-1973","334-265-7988","srgtrippett@rcmsouth.org"
"MONTGOMERY CATHOLIC PREPARATORY SCHOOL - ST BEDE CAMPUS","0130","MRS ANNE O. CEASAR","3850 ATLANTA HIGHWAY","MONTGOMERY","AL","36109","3626","334-272-7220","334-272-2440","ACeasar@montgomerycatholic.org"
"ST BENEDICT SCHOOL","0140","MRS JAIVI ANN HOWELL","PO BOX 819","ELBERTA","AL","36530","0819","251-986-8143","999-999-9999","jhowell@saintbenedict.net"
"ST DOMINIC SCHOOL","0160","MRS LINDA MATHIAS","4160 BURMA RD","MOBILE","AL","36693","4499","251-661-5226","999-999-9999","lmathias@stdominicmobile.org"
"ST IGNATIUS SCHOOL","0170","MR GARY L BLACKBURN","3650 SPRING HILL AVE","MOBILE","AL","36608","5797","251-445-6744","999-999-9999","blackburng@stignatius.org"
"ST JOSEPH CATHOLIC SCHOOL","0215","MS MARJORIE REESE","2009 W MONTGOMERY RD","TUSKEGEE INSTITUTE","AL","36088","2499","334-727-0620","999-999-9999","sjstus@gmail.com"
"ST JUDE EDUCATIONAL INST","0220","MRS WANDA S. TWITTY","2048 W FAIRVIEW AVE","MONTGOMERY","AL","36108","4196","334-264-5376","999-999-9999","wanda.twitty@stjudeei.org"
"ST JUDE HIGH SCHOOL","0230","SR MARY BETH KUBERA","2048 W FAIRVIEW AVE","MONTGOMERY","AL","36108","4198","334-264-5376","334-264-6669","st.jude@mindspring.com"
"ST MARY SCHOOL","0250","MRS DEBORAH DOLAN OLLIS","107 N LAFAYETTE ST","MOBILE","AL","36604","2295","251-433-9904","251-438-9069","dollis@stmarymobile.org"
"ST PATRICK SCHOOL","0280","MR DOMINADOR H. MANIO JR","2701 40TH STREET","PHENIX CITY","AL","36867","2448","334-298-3408","999-999-9999","stpatspc@yahoo.com"
"ST PATRICK'S SCHOOL","0285","SR MARGARET MARY HARTE","PO BOX 609","ROBERTSDALE","AL","36567","0609","251-947-7395","999-999-9999","mharte@mobilearchdiocese.org"
"ST PIUS X SCHOOL","0290","MS LAUREN KELLER ALVAREZ","217 S SAGE AVE","MOBILE","AL","36606","3618","251-473-5004","251-473-5008","lalvarez@mobilearchdiocese.org"
"ST VINCENT DE PAUL SCHOOL","0335","MRS MARY B MCLENDON","6571 LARKSPUR DR","MOBILE","AL","36619","1563","251-666-8022","251-666-1296","svsschool@comcast.net"
