"County Name","School name","Street","City","State","Zip","Physical Street","Physical City","Physical State","Physical Zip","Administrator Name","Administrator Title","Grade Start","Grade End","Phone","Fax","Email"
"Grundy","Timothy Christian School",,"Wellsburg","Iowa","50680","18000 D Ave","Wellsburg","Iowa","50680","Janna Voss","Principal","01","08","6418693679","6418693510","jlvoss@iowatelecom.net"
"Kossuth","Bishop Garrigan Schools","1224 N Mc Coy","Algona","Iowa","50511","1224 N Mc Coy","Algona","Iowa","50511","Eugene Meister","President","09","12","5152953521","5152957739","meisterg2000@yahoo.com"
"Kossuth","Seton Grade School","808 E Lucas St","Algona","Iowa","50511","808 E Lucas St","Algona","Iowa","50511","Kathleen Froehlich","Principal","PK","08","5152953509","5152955688","froehlichk@garrigan.pvt.k12.ia.us"
"Kossuth","Bishop Garrigan High School","1224 N Mc Coy","Algona","Iowa","50511","1224 N Mc Coy","Algona","Iowa","50511","Michael Stence","Principal","09","12","5152953521","5152957739","stencem@garrigan.pvt.k12.ia.us"
"Allamakee","St Patrick School","200 2nd St. SW","Waukon","Iowa","52172","200 2nd St. SW","Waukon","Iowa","52172","Richard Wede","Principal","PK","06","5635682415","5635682170","rwede@st-pats.pvt.k12.ia.us"
"Story","St Cecilia School","2900 Hoover Ave","Ames","Iowa","50010","2900 Hoover Ave","Ames","Iowa","50010","Brandt Snakenberg","Principal","PK","05","5152325290","5152336423","bstakenberg@stceciliaschoolames.org"
"Jones","St Patrick School","216 N Garnavillo St","Anamosa","Iowa","52205","216 N Garnavillo St","Anamosa","Iowa","52205","Charlotte Scheckel","Principal","PK","06","3194622688","3194623239","cscheckel@stpat-anamosa.pvt.k12.ia.us"
"Polk","Ankeny Christian Academy Elementary","1604 W 1st Street","Ankeny","Iowa","50023-2525","1604 W 1st Street","Ankeny","Iowa","50023-2525","Joyce Hansen","Principal","K","06","5159658114","5159658210","joyce.hansen@ankenychristianacademy.com"
"Jackson","Marquette Catholic School System","502 Franklin Street","Bellevue","Iowa","52031","502 Franklin Street","Bellevue","Iowa","52031","James Squiers","Principal","PK","12","5638723356","5638723285","dbqe04@arch.pvt.k12.ia.us"
"Jackson","St Josephs Elementary","403 Park St","Bellevue","Iowa","52031","403 Park St","Bellevue","Iowa","52031","James P. Squiers","Principal","PK","08","5638723284","5638723285","DBQE04@arch.pvt.k12.ia.us"
"Jackson","Marquette High School","502 Franklin St","Bellevue","Iowa","52031","502 Franklin St","Bellevue","Iowa","52031","James P. Squiers","Principal","09","12","5638723356","5638723285","DBQE04@arch.pvt.k12.ia.us"
"Benton","Central Lutheran School","310 3rd St W","Newhall","Iowa","52315-0190","310 3rd St W","Newhall","Iowa","52315-0190","Janet S. Doellinger","Principal","PK","08","3192235271","3192235257","jdoellinger@centrallutheranschool.org"
"Scott","Lourdes Catholic School","1453 Mississippi Blvd","Bettendorf","Iowa","52722","1453 Mississippi Blvd","Bettendorf","Iowa","52722","Katie Selden","Principal","PK","08","5633593466","5638231595","kselden@lourdes.pvt.k12.ia.us"
"Boone","Sacred Heart School","1111 Marshall","Boone","Iowa","50036","1111 Marshall","Boone","Iowa","50036","Kimberly Graven","Principal","K","08","5154324124","5154325280","kgraven@shboone.com"
"Boone","Trinity Lutheran School","712 12th St","Boone","Iowa","50036","712 12th St","Boone","Iowa","50036","Jeff Fick","Principal","PK","08","5154326912","5154321059","telcs@q.com"
"Sioux","Hull Christian School","1301 5th St","Hull","Iowa","51239","1301 5th St","Hull","Iowa","51239","Randy Ten Pas","Principal","PK","08","7124392273","7124391713","rtenpas@hullchristian.com"
"Sioux","Hull Protestant Reformed Christian School","218 2nd St","Hull","Iowa","51239","218 2nd St","Hull","Iowa","51239","Peter D. Brummel","Principal","K","08","7124392490","7124392490","hullprcs@mtcnet.net"
"Sioux","Western Christian High School","925 5th St","Hull","Iowa","51239","925 5th St","Hull","Iowa","51239","Glenn L. Schaap","Principal","09","12","7124391013","7124391407","gschaap@w-christian.pvt.k12.ia.us"
"Hancock","Kanawha Christian School","470 E 5th St","Kanawha","Iowa","50447","470 E 5th St","Kanawha","Iowa","50447","Stan Vanden Berg","Principal","PK","08","6417623322","6417628362","svb@mtcnet.net"
"Des Moines","Burlington Notre Dame Schools","702 S Roosevelt Avenue","Burlington","Iowa","52601","702 S Roosevelt Avenue","Burlington","Iowa","52601","Ron Glasgow","Principal","PK","12","3197548431","3197528690","ron.glasgow@gpaea.k12.ia.us"
"Des Moines","Notre Dame High School","702 S Roosevelt Ave","Burlington","Iowa","52601","702 S Roosevelt Ave","Burlington","Iowa","52601","Ron Glasgow","Principal","06","12","3197548431","3197528690","ron.glasgow@gpaea.k12.ia.us"
"Des Moines","Notre Dame Elementary School","700 S Roosevelt Ave","Burlington","Iowa","52601","700 S Roosevelt Ave","Burlington","Iowa","52601","Robert Carr","Principal","PK","05","3197548431","3197528690","bob.carr@gpaea.k12.ia.us"
"Franklin","St Pauls Lutheran School","404  W. Main St","Latimer","Iowa","50452","404 W. Main St","Latimer","Iowa","50452","Barb Buescher","Principal","K","08","6415796046","6415796285","stplsl@frontiernet.net"
"Carroll","Kuemper Catholic School System","116 South East St.","Carroll","Iowa","51401","116 South East St.","Carroll","Iowa","51401","Vern Henkenius","Other Administrator","PK","12","7127923313","7127928073","vrhenkenius@kuemper.org"
"Carroll","Kuemper High School","109 S Clark","Carroll","Iowa","51401","109 S Clark","Carroll","Iowa","51401","Penny Miller","Principal","09","12","7127923596","7127928070","psmiller@kuemper.org"
"Carroll","Kuemper Catholic Grade School","201 S Clark","Carroll","Iowa","51401","201 S. Clark Street","Carroll","Iowa","51401","Sharon Dentlinger","Principal","PK","08","7127923610","7127928072","skdentlinger@kuemper.org"
"Black Hawk","Valley Lutheran High School","4520 Rownd Street","Cedar Falls","Iowa","50613-7924","4520 Rownd Street","Cedar Falls","Iowa","50613-7924","Nathan Richter","Principal","09","12","3192664565","8888888888","nrichter@valleylutheranhigh.com"
"Black Hawk","St Patrick School","615 Washington St","Cedar Falls","Iowa","50613","615 Washington St","Cedar Falls","Iowa","50613","Sr Marilou Irons","Principal","PK","08","3192776781","3192665806","DBQE07@arch.pvt.k12.ia.us"
"Linn","Holy Family School System","3700 First Avenue NW","Cedar Rapids","Iowa","52405","3700 First Avenue NW","Cedar Rapids","Iowa","52405","Richard Louk","Principal","PK","08","3193967792","3193906527","dbqe12@arch.pvt.k12.ia.us"
"Linn","All Saints School","720 29th St SE","Cedar Rapids","Iowa","52403","720 29th St SE","Cedar Rapids","Iowa","52403","Marlene Bartlett","Principal","PK","05","3193634110","3193639547","mbartlett@cr-cath.pvt.k12.ia.us"
"Linn","Xavier High School","6300 42nd StNE","Cedar Rapids","Iowa","52411","6300 42nd StNE","Cedar Rapids","Iowa","52411","Tom Keating","Principal","09","12","3192946635","3192946712","tkeating@cr-cath.pvt.k12.ia.us"
"Linn","St Ludmila Center","215 21st Ave SW","Cedar Rapids","Iowa","52404","215 21st Ave SW","Cedar Rapids","Iowa","52404","Rick Louk","Principal","PK","04","3193621943","3193644149","dbqe10@arch.pvt.k12.ia.us"
"Linn","St Matthew School","125 24th St. N.E.","Cedar Rapids","Iowa","52402","125 24th St. N.E.","Cedar Rapids","Iowa","52402","Joseph F. Wolf","Principal","PK","05","3193623021","3193627946","dbqe11@arch.pvt.k12.ia.us"
"Linn","St Pius X School","4901 Council St., NE","Cedar Rapids","Iowa","52402-2402","4901 Council St., NE","Cedar Rapids","Iowa","52402-2402","Candace G. Hurley","Principal","PK","05","3193934507","3193930216","DBQE13@arch.pvt.k12.ia.us"
"Linn","St Jude Center","3700 1st Avenue NW","Cedar Rapids","Iowa","52405","3700 1st Avenue NW","Cedar Rapids","Iowa","52405","Ronda Krystofiak","Principal","PK","02","3193967818","3193900952","dbqe09@arch.pvt.k12.ia.us"
"Linn","Summit Schools Inc","1010 Regent St NE","Cedar Rapids","Iowa","52402","1010 Regent St NE","Cedar Rapids","Iowa","52402","Erikka Vosmek","Supervisor","PK","05","3192942036","3192942039","ebenhart@summit.pvt.k12.ia.us"
"Linn","Trinity Lutheran School","1361 7th Ave SW","Cedar Rapids","Iowa","52404-1831","1361 7th Ave SW","Cedar Rapids","Iowa","52404-1831","Jonathan Baumgartel","Principal","PK","08","3193626952","3193661569","baumgartelj@trinitycr.org"
"Linn","Regis Middle School","735 Prairie Dr. NE","Cedar Rapids","Iowa","52402","735 Prairie Dr. NE","Cedar Rapids","Iowa","52402","Rick Blackwell","Principal","06","08","3193631968","3192476099","regismiddleschool@mchsi.com"
"Linn","LaSalle Middle School","3700 First Ave. N.W.","Cedar Rapids","Iowa","52405","3700 First Ave. N.W.","Cedar Rapids","Iowa","52405","Richard Louk","Principal","05","08","3193967792","3193906527","dbqe12@arch.pvt.k12.ia.us"
"Linn","Isaac Newton Christian Academy","1635 Linmar Drive NE","Cedar Rapids","Iowa","52402","1635 Linmar Drive NE","Cedar Rapids","Iowa","52402","Dean Ridder","Principal","PK","08","3193629512","3193625610","dridder@incaonline.org"
"Clinton","St Joseph School","417 6th Ave","De Witt","Iowa","52742","417 6th Ave","De Witt","Iowa","52742","Christine A. Meyer","Principal","K","08","5636593812","5636591565","chris.meyer@st-joseph-dwt.pvt.k12.ia.us"
"Lyon","Northwest Iowa Protestant Reformed Sch","302 N 3rd St","Doon","Iowa","51235","302 N 3rd St","Doon","Iowa","51235","Vacant","Principal","K","08","7127263200","7127263200","nwiaprs@mtcnet.net"
"Floyd","Immaculate Conception School","1203 Clark","Charles City","Iowa","50616","1203 Clark","Charles City","Iowa","50616","Mindy Hart","Principal","PK","06","6412281225","6412287692","DBQE14@arch.pvt.k12.ia.us"
"Page","Clarinda Lutheran School Association","707 W Scidmore","Clarinda","Iowa","51632","707 W Scidmore","Clarinda","Iowa","51632","Merrilee Anne Sump","Principal","K","08","7125423657","7125423657","msump@cls.k12.ia.us"
"Clinton","Prince Of Peace Catholic Education System","312 S 4th Street","Clinton","Iowa","52732","312 S 4th Street","Clinton","Iowa","52732","Nancy Peart","Administrator","PK","12","5632421663","5632438272","npeart@prince.pvt.k12.ia.us"
"Clinton","Prince of Peace Academy Elementary Building","312 S 4th St","Clinton","Iowa","52732","312 S 4th St","Clinton","Iowa","52732","Nancy Peart","Administrator","K","08","5632421663","5632438272","npeart@prince.pvt.k12.ia.us"
"Clinton","Prince of Peace College Prep","312 South 4th Street","Clinton","Iowa","52732","312 South 4th Street","Clinton","Iowa","52732","Nancy Peart","Administrator","09","12","5632421663","5632438272","npeart@prince.pvt.k12.ia.us"
"Clinton","Prince of Peace Preschool","312 S. 4th Street","Clinton","Iowa","52732","245 26th Ave North","Clinton","Iowa","52732","Nancy Peart","Administrator–Other","PK","PK","5632429258","5632429258","npeart@prince.pvt.k12.ia.us"
"Pottawattamie","St Albert Catholic Schools","400 Gleason Avenue","Council Bluffs","Iowa","51503","400 Gleason Avenue","Council Bluffs","Iowa","51503","Jonna D. Andersen","Principal","PK","12","7123282316","7123288316","andersenj@stalbert.pvt.k12.ia.us"
"Pottawattamie","St Albert Elementary Sch","400 Gleason Avenue","Council Bluffs","Iowa","51503","400 Gleason Avenue","Council Bluffs","Iowa","51503","Anne I. Jensen","Principal","PK","06","7123233703","7123220399","jensena@saintalbertschools.org"
"Pottawattamie","St Albert Secondary School","400 Gleason Ave","Council Bluffs","Iowa","51503","400 Gleason Ave","Council Bluffs","Iowa","51503","Jonna Andersen","Principal","07","12","7123282316","7123288316","andersenj@stalbertschools.org"
"Union","St Malachy School","403 W Clark","Creston","Iowa","50801","403 W Clark","Creston","Iowa","50801","John T. Walsh","Principal","PK","08","6417827125","6417825924","jwalsh@crestonstmalachy.org"
"Scott","Assumption High School","1020 W Central Park Ave","Davenport","Iowa","52804","1020 W Central Park Ave","Davenport","Iowa","52804","Chuck  Elbert","Principal","09","12","5633265313","5633263510","elbertc@mail.assumption.pvt.k12.ia.us"
"Scott","All Saints Catholic School","1926 Marquette St","Davenport","Iowa","52804-2198","1926 Marquette St","Davenport","Iowa","52804-2198","Cheryl Lafferty","Principal","PK","08","5633243205","5633249331","clafferty@saints.pvt.k12.ia.us"
"Scott","St Paul The Apostle School","1007 E Rusholme St","Davenport","Iowa","52803","1007 E Rusholme St","Davenport","Iowa","52803","Julie  Delaney","Principal","PK","08","5633222923","5633222530","julie.delaney@st-paul.pvt.k12.ia.us"
"Scott","John F Kennedy Cath Sch","1627 W 42nd St","Davenport","Iowa","52806","1627 W 42nd St","Davenport","Iowa","52806","Chad C. Steimle","Principal","PK","08","5633913030","5633885206","chad.steimle@kennedy-dav.pvt.k12.ia.us"
"Scott","Marquette Academy","1116 West 6th Street","Davenport","Iowa","52802","1116 West 6th Street","Davenport","Iowa","52802","Carolyn Merrill","Principal","K","05","5633223723",,"merrill60@msn.com"
"Scott","Trinity Lutheran School","1122 W Central Pk Ave","Davenport","Iowa","52804","1122 W Central Pk Ave","Davenport","Iowa","52804","Bill Meyer","Principal","PK","08","5633225224","5633249153","bmeyer@trinity-lutheran-dav.pvt.k12.ia.us"
"Winneshiek","St Benedict School","402 Rural Ave","Decorah","Iowa","52101","402 Rural Ave","Decorah","Iowa","52101","Ruth J. Palmer","Principal","PK","08","5633824668","5633823193","dbqe16@arch.pvt.k12.ia.us"
"Crawford","St Rose Of Lima School","1012 2nd Ave South","Denison","Iowa","51442","1012 2nd Ave South","Denison","Iowa","51442","Susan King","Principal","K","05","7122635408","7122639370","k6strose@frontiernet.net"
"Crawford","Zion Lutheran School","1004 1st Ave South","Denison","Iowa","51442","1004 1st Ave South","Denison","Iowa","51442","Brian L''Heureux","Principal","K","08","7122634766","7122636010","zionls@frontiernet.net"
"Polk","Grandview Park Baptist Elem","1701 East 33rd Street","Des Moines","Iowa","50317","1701 East 33rd Street","Des Moines","Iowa","50317","Richard McWilliams","Principal","K","08","5152657579","5152669834","mcwilliams.gpbs@mchsi.com"
"Polk","St Anthony School","16 Columbus Ave","Des Moines","Iowa","50315","16 Columbus Ave","Des Moines","Iowa","50315","Joseph F. Cordaro","Principal","PK","08","5152431874","5152434467","jcordaro@stanthonydsm.org"
"Polk","St Augustin School","4320 Grand Ave","Des Moines","Iowa","50312","4320 Grand Ave","Des Moines","Iowa","50312","Nancy Oneill Dowdle","Administrator","PK","08","5152795947","5152798049","ndowdle@dowling.pvt.k12.ia.us"
"Polk","Holy Family School","1265 E. 9th St.","Des Moines","Iowa","50316","1265 E. 9th St.","Des Moines","Iowa","50316","Martin Flaherty","Principal","PK","08","5152628025","5152629665","mflaherty@hfsdm.org"
"Polk","St Joseph Elementary School","2107 E 33rd St","Des Moines","Iowa","50317","2107 E 33rd St","Des Moines","Iowa","50317","Phyllis J. Konchar","Principal","PK","08","5152663433","5152662860","Pkonchar@dowling.pvt.k12.ia.us"
"Polk","St Theresa School","5810 Cara Carpenter Ave","Des Moines","Iowa","50311","5810 Cara Carpenter Ave","Des Moines","Iowa","50311","Ellen K. Stemler","Principal","PK","08","5152770178","5152552415","estemler@sainttheresaiowa.org"
"Polk","Christ The King School","701 Wall Ave","Des Moines","Iowa","50315","701 Wall Ave","Des Moines","Iowa","50315","Becky Johnson","Principal","PK","08","5152853349","5152850381","bjohnson@dowling.pvt.k12.ia.us"
"Polk","Holy Trinity School","2922 Beaver Ave","Des Moines","Iowa","50310","2922 Beaver Ave","Des Moines","Iowa","50310","Audra Meyer","Principal","PK","08","5152553162","5152551381","ameyer@htschool.org"
"Polk","Mt Olive Lutheran School","5625 Franklin","Des Moines","Iowa","50310-1099","5625 Franklin","Des Moines","Iowa","50310-1099","Cory Emily","Principal","K","08","5152770247","5152742723","cory.emily@molcs.org"
"Polk","The Academy","100 45th St","Des Moines","Iowa","50312","100 45th St","Des Moines","Iowa","50312","Kathleen Ricker","Principal","K","08","5152740453","5152776237","office@theacademydesmoines.org"
"Dubuque","Holy Family System (Dubuque)","2005 Kane St","Dubuque","Iowa","52001","2005 Kane St","Dubuque","Iowa","52001","Steven Cornelius","Administrator–Other","PK","12","5635825456","5635833885","dbqmd01@arch.pvt.k12.ia.us"
"Dubuque","St Columbkille School","1198 Rush St","Dubuque","Iowa","52003","1198 Rush St","Dubuque","Iowa","52003","Barb Roling","Principal","K","05","5635823532","5635834884","dbqe22@arch.pvt.k12.ia.us"
"Dubuque","St Anthony School","2175 Rosedale","Dubuque","Iowa","52001-4198","2175 Rosedale","Dubuque","Iowa","52001-4198","Denise Grant","Principal","PK","05","5635562820","5635562131","dgrant@holyfamily.dbq.pvt.k12.ia.us"
"Dubuque","Holy Ghost School","2981 Central Ave","Dubuque","Iowa","52001-1953","2981 Central Ave","Dubuque","Iowa","52001-1953","Denise Grant","Principal","PK","05","5635561511","5635564768","DBQE17@arch.pvt.k12.ia.us"
"Dubuque","Mazzuchelli Catholic Middle School","2005 Kane Street","Dubuque","Iowa","52001","2005 Kane Street","Dubuque","Iowa","52001","Kim Hermsen","Principal","06","08","5635825456","5635833885","DBQM03@arch.pvt.k12.ia.us"
"Dubuque","Wahlert Catholic High School","2005 Kane St","Dubuque","Iowa","52001-0599","2005 Kane St","Dubuque","Iowa","52001-0599","Ron Meyer","Principal","09","12","5635839771","5635839775","DBQH04@arch.pvt.k12.ia.us"
"Dubuque","Resurrection School","4300 Asbury Rd","Dubuque","Iowa","52002-0498","4300 Asbury Rd","Dubuque","Iowa","52002-0498","David Gross","Principal","K","05","5635839488","5635577995","DBQE20@arch.pvt.k12.ia.us"
"Dubuque","Dubuque Lutheran School","2145 John F. Kennedy Rd","Dubuque","Iowa","52002","2145 John F. Kennedy Rd","Dubuque","Iowa","52002","George Wm. Holland","Principal","K","05","5635880614","5635883475","principal@dubuquelutheranschool.com"
"Palo Alto","Emmetsburg Catholic School","1903 S Broadway","Emmetsburg","Iowa","50536","1903 S Broadway","Emmetsburg","Iowa","50536","Jean Hylsop","Principal","K","08","7128523464","7128523464","jhyslop@emmetsburg-catholic.pvt.k12.ia.us"
"Jefferson","Maharishi School Of The Age Of Enlightenment","Keith Wallace Dr","Fairfield","Iowa","52556","804 Dr Robt K Wallace Dr","Fairfield","Iowa","52556","Laura Bordow","Principal","K","06","6414729400","6414721211","lbordow@msae.edu"
"Webster","St Edmond School","501 N 22nd St","Fort Dodge","Iowa","50501","501 N 22nd St","Fort Dodge","Iowa","50501","John  Howard","Principal","PK","12","5159555850","5159553569","howardj@st-edmond.pvt.k12.ia.us"
"Webster","St Paul Lutheran School","1217 4th Ave S","Fort Dodge","Iowa","50501","1217 4th Ave S","Fort Dodge","Iowa","50501","Gene Sommerfeld","Principal","PK","08","5159557208","5155737839","principal@stpaulfd.org"
"Webster","Community Christian School","3058 10th Ave N","Fort Dodge","Iowa","50501","3058 10th Ave N","Fort Dodge","Iowa","50501","Kristi Ellis","Principal","PK","08","5155733011","5155767698","ccschool@ccsfd.org"
"Lee","Holy Trinity Catholic Schools Inc","2600 Avenue A","Fort Madison","Iowa","52627","2600 Avenue A","Fort Madison","Iowa","52627","Doris Turner","Principal","K","12","3193722486","3193726310","doris.turner@gpaea.k12.ia.us"
"Lee","Holy Trinity High School Holy Trinity Jr-Sr. High","2600 Ave A","Fort Madison","Iowa","52627","2600 Ave A","Fort Madison","Iowa","52627","Doris Turner","Principal","07","12","3193722486","3193726310","doris.turner@gpaea.k12.ia.us"
"Lee","Holy Trinity Elem","413 Ave C","West Point","Iowa","52627-0039","413 Ave C","West Point","Iowa","52627-0039","Doris Turner","Principal","K","06","3198376131","3198378112","doris.turner@gpaea.k12.ia.us"
"Poweshiek","Central Iowa Christian School","201 380th Ave","Grinnell","Iowa","50112","201 380th Ave","Grinnell","Iowa","50112","Steve Ryan","Principal","PK","08","6412363000","6412361433","office@centraliowachristian.org"
"Clayton","St Marys School","510 S. Second St.","Guttenberg","Iowa","52052-0100","510 S. 2nd St.","Guttenberg","Iowa","52052-0100","S.M. Suzanne Gallagher","Principal","K","08","5632521577","5632521363","sgallagher@st-marys.gutt.pvt.k12.ia.us"
"Shelby","Shelby County Catholic School System","2005 College Place","Harlan","Iowa","51537-1948","2005 College Place","Harlan","Iowa","51537-1948","Ann Andersen","Principal","PK","08","7127555634","7127553332","aanderse@shelcocath.pvt.k12.ia.us"
"Shelby","Shelby Co. Catholic Sch","2005 College Place","Harlan","Iowa","51537","2005 College Place","Harlan","Iowa","51537","Ann Andersen","Principal","PK","08","7127555634","7127553332","aanderse@shelcocath.pvt.k12.ia.us"
"O'Brien","Sanborn Christian School","405 West 2nd St","Sanborn","Iowa","51248","405 West 2nd St","Sanborn","Iowa","51248","Anthony Minderhoud","Principal","PK","08","7127293288","7127293289","sanchr@sanbornchristian.com"
"Howard","Notre Dame Elementary School","221 2nd Ave East","Cresco","Iowa","52136","221 2nd Ave East","Cresco","Iowa","52136","Wendy Schatz","Principal","PK","06","5635474513","5635473835","dbqe15@arch.pvt.k12.ia.us"
"Humboldt","St Mary School","303 3rd Ave North","Humboldt","Iowa","50548","303 3rd Ave North","Humboldt","Iowa","50548","Cindy Edge","Principal","PK","06","5153322134","5153321487","smshadm@goldfieldaccess.net"
"Buchanan","St John Elementary School","314 3rd St NE","Independence","Iowa","50644","314 3rd St NE","Independence","Iowa","50644","Peter Bellaver","Principal","K","08","3193347173","3193349088","dbqe35@arch.pvt.k12.ia.us"
"Johnson","Regina Schools","2140 Rochester Ave","Iowa City","Iowa","52245","2140 Rochester Ave","Iowa City","Iowa","52245","Carol Trueg","Other Administrator","PK","12","3193385436","3198873817","carol.trueg@icregina.com"
"Johnson","Willowwind School","950 Dover","Iowa City","Iowa","52245","950 Dover","Iowa City","Iowa","52245","Carly Andrews","Principal","K","06","3193386061","3193394465","carlya@willowwind.org"
"Johnson","Regina Jr Sr High School","2150 Rochester Ave","Iowa City","Iowa","52245","2150 Rochester Ave","Iowa City","Iowa","52245","David Krummel","Principal","07","12","3193385436","3198873817","david.krummel@icregina.com"
"Johnson","Regina Elementary School","2120 Rochester Ave","Iowa City","Iowa","52245","2120 Rochester Ave","Iowa City","Iowa","52245","Celeste Vincent","Principal","PK","06","3193375739","3193374109","celeste.vincent@icregina.com"
"Buchanan","St Athanasius School",,"Jesup","Iowa","50648-0288","641 Stevens St","Jesup","Iowa","50648-0288","Raymond Pechous","Principal","K","08","3198271314","3198271124","DBQE36@arch.pvt.k12.ia.us"
"Lee","Keokuk Catholic Schools Keokuk Catholic School","2981 Plank Rd","Keokuk","Iowa","52632","2981 Plank Rd","Keokuk","Iowa","52632","Laurie  Mendenhall","Principal","PK","05","3195245450","3195247725","laurie.mendenhall@gpaea.k12.ia.us"
"Plymouth","Gehlen Catholic School","709 Plymouth St NE","Le Mars","Iowa","51031-3701","709 Plymouth St NE","Le Mars","Iowa","51031-3701","Jeff  Alesch","Principal","K","12","7125464181","7125469384","j_alesch@gehlencatholic.com"
"Plymouth","Gehlen Catholic School Incorporated","709 Plymouth St NE","Le Mars","Iowa","51031-3701","709 Plymouth St NE","Le Mars","Iowa","51031-3701","Jeff Alesch","Principal","07","12","7125464181","7125469384","j_alesch@gehlencatholic.com"
"Plymouth","Gehlen Catholic Elem School","709 Plymouth Street NE","Le Mars","Iowa","51031-3701","709 Plymouth Street NE","Le Mars","Iowa","51031-3701","Lorie Nussbaum","Principal","PK","06","7125464181","7125469384","l_nussbaum@gehlencatholic.com"
"Pottawattamie","Heartland Christian School","400 Wright Rd","Council Bluffs","Iowa","51501","400 Wright Rd","Council Bluffs","Iowa","51501","William D Ross","Principal","K","06","7123225817","7123224287","ek_wilson@hotmail.com"
"Jasper","Sully Christian School","12629 S 92nd Ave E","Sully","Iowa","50251","12629 S 92nd Ave E","Sully","Iowa","50251","Virginia Tull","Principal","K","08","6415944180","6415943799","principal@sullychristian.org"
"Woodbury","Danbury Catholic School","602 Peach St","Danbury","Iowa","51019","602 Peach St","Danbury","Iowa","51019","Kristy Liechti","Principal","K","06","7128832244","7128832024","kliechti@pionet.net"
"Jackson","Sacred Heart School","806 Eddy St","Maquoketa","Iowa","52060","806 Eddy St","Maquoketa","Iowa","52060","Angela Ruley","Principal","PK","06","5636523743","5636523743","dbqE38@arch.pvt.k12.ia.us"
"Linn","St Joseph School","1430 14th St","Marion","Iowa","52302","1430 14th St","Marion","Iowa","52302","Anthony Voss","Principal","PK","08","3193776348","3193779358","DBQE39@arch.pvt.k12.ia.us"
"Marshall","Marshalltown Catholic Grade School","10 W Linn St","Marshalltown","Iowa","50158","10 W Linn St","Marshalltown","Iowa","50158","James Wessling","Principal","K","06","6417537977","6417530337","DBQE40@arch.pvt.k12.ia.us"
"Cerro Gordo","Newman Catholic School System","2445 19th SW","Mason City","Iowa","50401","2445 19th SW","Mason City","Iowa","50401","Tony Adams","Principal","PK","12","6414236939","6414236653","dbqh07@arch.pvt.k12.ia.us"
"Cerro Gordo","Newman Catholic Elementary School","2000 S. McKinley","Mason City","Iowa","50401","2000 S. McKinley","Mason City","Iowa","50401","Tony Adams","Principal","K","05","6414233101","6414221181","dbqh07@arch.pvt.k12.ia.us"
"Cerro Gordo","Newman Catholic High School","2445 19th NW","Mason City","Iowa","50401","2445 19th NW","Mason City","Iowa","50401","Tony Adams","Principal","06","12","6414236939","6414236653","dbqh07@arch.pvt.k12.ia.us"
"Cerro Gordo","North Iowa Christian School","811 N. Kentucky","Mason City","Iowa","50401","811 N. Kentucky","Mason City","Iowa","50401","Janna Voss","Principal","K","08","6414236440","6414236440","nicschool@mchsi.net"
"Sioux","Spalding Catholic School System","Broad and Garfield","Granville","Iowa","51022","Broad and Garfield","Granville","Iowa","51022","Kathleen A. Alons","Principal","PK","12","7127273451","7127273455","kalons@spalding-catholic.pvt.k12.ia.us"
"Sioux","Spalding Catholic St Anthony Center","505 Cedar St","Hospers","Iowa","51238","505 Cedar St","Hospers","Iowa","51238","Kathleen A. Alons","Principal","K","03","7127528286","7127273455","kalons@spalding-catholic.pvt.k12.ia.us"
"Sioux","Spalding Catholic St Mary's Center","908 6th Avenue","Alton","Iowa","51003","908 6th Avenue","Alton","Iowa","51003","Kathleen A. Alons","Principal","04","06","7127564532","7127273455","kalons@spalding-catholic.pvt.k12.ia.us"
"Sioux","Spalding Catholic High School","510 Broad St","Granville","Iowa","51022","510 Broad St","Granville","Iowa","51022","Gary Niichel","Principal","07","12","7127273451","7127273455","gniichel@spalding-catholic.pvt.k12.ia.us"
"Sioux","Orange City Christian School","604 3rd St SW","Orange City","Iowa","51041","604 3rd St SW","Orange City","Iowa","51041","Gale Tien","Principal","PK","08","7127372274","7127378608","gtien@occhristian.pvt.k12.ia.us"
"Sioux","Unity Christian High School","216 Michigan Ave SW","Orange City","Iowa","51041","216 Michigan Ave SW","Orange City","Iowa","51041","Wayne Dykstra","Principal","09","12","7127374114","7127372686","wdykstra@unitychristian.net"
"Johnson","Iowa Mennonite School","1421 540th St SW","Kalona","Iowa","52247-0913","1421 540th St SW","Kalona","Iowa","52247-0913","Anthony Miller","Principal","09","12","3196562073","3196562073","tmiller@iamenno.pvt.k12.ia.us"
"Jones","Sacred Heart Grade School","234 N Sycamore St","Monticello","Iowa","52310","234 N Sycamore St","Monticello","Iowa","52310","James  Zimmerman","Principal","PK","06","3194654605","3194656183","dbqe42@arch.pvt.k12.ia.us"
"Muscatine","Saints Mary and Mathias Catholic School","2407 Cedar St","Muscatine","Iowa","52761","2407 Cedar St","Muscatine","Iowa","52761","Ann Gomez","Principal","PK","05","5632633264","5632636700","ann.gomez@mus-hayes.pvt.k12.ia.us"
"Chickasaw","St Joseph Community School","216 N Broadway Ave","New Hampton","Iowa","50659-1111","216 N Broadway Ave","New Hampton","Iowa","50659-1111","Beth Wright","Principal","PK","08","6413942865","6413945586","dbqe43@arch.pvt.k12.ia.us"
"Jasper","Newton Christian Day School","1710 N. 11th Ave. E.","Newton","Iowa","50208","1710 N. 11th Ave. E.","Newton","Iowa","50208","Virginia  Tull","Principal","K","08","6417921924","6417921924","ncs@iowatelecom.net"
"Kossuth","St John the Baptist","304 S Summit","Bancroft","Iowa","50517","304 S Summit","Bancroft","Iowa","50517","Jackie Rahe","Assistant Principal","K","06","5158852580","5158852402","sjohn@hickorytech.net"
"Fayette","Sacred Heart Elementary School","601 1st Ave SW","Oelwein","Iowa","50662","601 1st Ave SW","Oelwein","Iowa","50662","Nick Trenkamp","Principal","PK","06","3192831366","3192835279","DBQE44@arch.pvt.k12.ia.us"
"Mitchell","Sacred Heart School","218 S 12th St","Osage","Iowa","50461-1725","218 S 12th St","Osage","Iowa","50461-1725","Vacant","Other Administrator","K","06","6417325221","6417323428","DBQE45@arch.pvt.k12.ia.us"
"Mahaska","Oskaloosa Christian School","726 North E Street","Oskaloosa","Iowa","52577","726 North E Street","Oskaloosa","Iowa","52577","Jason Alons","Principal","K","08","6416722174","6416721451","principal@oskaloosachristian.net"
"Wapello","Seton Catholic School","117 E 4th St","Ottumwa","Iowa","52501","117 E 4th St","Ottumwa","Iowa","52501","Duane Siepker","Principal","PK","05","6416828826","6416826202","duane.siepker@gpaea.k12.ia.us"
"Marion","Pella Christian Grade School","216 Liberty St","Pella","Iowa","50219","216 Liberty St","Pella","Iowa","50219","David DeJong","Principal","PK","08","6416282414","6416289506","principal@pellachristian.net"
"Mahaska","Peoria Christian School","110 Peoria West St","Pella","Iowa","50219","110 Peoria West St","Pella","Iowa","50219","Elizabeth. Hoksbergen","Principal","K","08","6416254131","6416254131","edhoksbergen@gmail.com"
"Dallas","St Patrick School","1302 5th St","Perry","Iowa","50220","1302 5th St","Perry","Iowa","50220","Cory Wenthe","Principal","PK","08","5154654186","5154659808","cwenthe@dowling.pvt.k12.ia.us"
"Pocahontas","Pocahontas Catholic Grade School","305 SW 3rd","Pocahontas","Iowa","50574","305 SW 3rd","Pocahontas","Iowa","50574","Maureen Lenz","Principal","K","05","7123353603","7123353603","maureenlenz@hotmail.com"
"Plymouth","St Catherine-St Mary School System","523 Madison St","Remsen","Iowa","51050","523 Madison St","Remsen","Iowa","51050","John Hughes","Principal","PK","12","7127861433","7127862499","hughesj@remsenstmarys.org"
"Plymouth","St Catherine-St Mary Grade School","321 Fulton St","Remsen","Iowa","51050","321 Fulton St","Remsen","Iowa","51050","Elizabeth Gibney","Principal","PK","08","7127861160","7127861167","gibneye@remsenstmarys.org"
"Plymouth","St Marys High School","523 Madison St","Remsen","Iowa","51050","523 Madison St","Remsen","Iowa","51050","John Hughes","Principal","09","12","7127861433","7127862499","hughesj@remsenstmarys.org"
"Sioux","Rock Valley Christian School","1405 17th St","Rock Valley","Iowa","51247","1405 17th St","Rock Valley","Iowa","51247","Brad A Vis","Principal","PK","08","7124762615","7124762777","bvis@rvcs.pvt.k12.ia.us"
"Sioux","Netherlands Reformed Christian School","712 20th Ave","Rock Valley","Iowa","51247","712 20th Ave","Rock Valley","Iowa","51247","Harold Schelling","Principal","K","08","7124762821","7124765438","hschelling@nrcsia.org"
"O'Brien","St Patrick's School","1020 4th Ave","Sheldon","Iowa","51201","1020 4th Ave","Sheldon","Iowa","51201","Virginia Huss","Principal","PK","08","7123243181","7123243559","pschwebach@nethtc.net"
"O'Brien","Sheldon Christian School","1425 E 9th St","Sheldon","Iowa","51201","1425 E 9th St","Sheldon","Iowa","51201","Peter A. Van Velzen","Principal","PK","08","7123242429","7123248444","sheldprin@nethtc.net"
"Sioux","Sioux Center Christian School","630 First Ave SE","Sioux Center","Iowa","51250-0165","630 1st Ave SE","Sioux Center","Iowa","51250","Joe D. Dirksen","Principal","K","08","7127220777","7127220782","jdirksen@scchristian.pvt.k12.ia.us"
"Woodbury","Bishop Heelan Catholic Schools",,"Sioux City","Iowa","51102","1018 Grandview Blvd","Sioux City","Iowa","51102","Patrick Walsh","President","K","12","7122521350","7122529086","walshp@bishopheelan.org"
"Woodbury","Siouxland Community Christian School","6100 Morningside Avenue","Sioux City","Iowa","51106","6100 Morningside Avenue","Sioux City","Iowa","51106","Steve Clark","Superintendent","K","06","7122764732","7122764752","sccssuperintendent@cableone.net"
"Woodbury","Holy Cross Blessed Sacrament School","3030 Jackson St","Sioux City","Iowa","51104","3030 Jackson St","Sioux City","Iowa","51104","Michael Sweeney","Principal","03","08","7122774739","7122583698","sweeneym@bishopheelan.org"
"Woodbury","Bishop Heelan Catholic High School","1021 Douglas St","Sioux City","Iowa","51105","1021 Douglas St","Sioux City","Iowa","51105","Christian Bork","Principal","09","12","7122520573","7122524897","borkc@bishopheelan.org"
"Woodbury","Sacred Heart School","5010 Military Rd","Sioux City","Iowa","51103","5010 Military Rd","Sioux City","Iowa","51103","Brenda Ferrie","Principal","K","08","7122331624","7122331469","ferrieb@bishopheelan.org"
"Woodbury","Holy Cross St Michael School","4105 Harrison St","Sioux City","Iowa","51108","4105 Harrison St","Sioux City","Iowa","51108","Michael Sweeney","Principal","K","02","7122391090","7122398546","sweeneym@bishopheelan.org"
"Woodbury","Mater Dei Sch Immaculate Conception Center","3719 Ridge Ave","Sioux City","Iowa","51106","3719 Ridge Ave","Sioux City","Iowa","51106","Mary Fischer","Principal","PK","05","7122766216","7122741221","fischerm@bishopheelan.org"
"Woodbury","Mater Dei School Nativity Center","4243 Natalia Way","Sioux City","Iowa","51106","4243 Natalia Way","Sioux City","Iowa","51106","Mary Fischer","Principal","06","08","7122740268","7122740377","fischerm@bishopheelan.org"
"Woodbury","St Pauls Lutheran School","614 Jennings St","Sioux City","Iowa","51101","614 Jennings St","Sioux City","Iowa","51101","Alyce L. Strong","Principal","K","07","7122586325","7122521141","splutheran@cableone.net"
"O'Brien","Zion-St. John Lutheran School","103 W Bertha St.","Paullina","Iowa","51046-0249","103 W Bertha St.","Paullina","Iowa","51046-0249","Vacant","Principal","K","08","7129493915","7129493657","zsj@tcaexpress.net"
"Winneshiek","Calmar Festina Spillville Catholic Sch","302 South Maryville St","Calmar","Iowa","52132","302 South Maryville St","Calmar","Iowa","52132","Kathryn M. Schmitt","Principal","K","08","5635623291","5635623292","DBQE05@arch.pvt.k12.ia.us"
"Winneshiek","De Sales Grade School","414 E Main St","Ossian","Iowa","52161","414 E Main St","Ossian","Iowa","52161","Mae J. Becker","Principal","K","08","5635329352","5635329353","dbqe46@arch.pvt.k12.ia.us"
"Clay","Sacred Heart School",,"Spencer","Iowa","51301-0817","1111 4th Ave W","Spencer","Iowa","51301-0817","Ronald V. Olberding","Principal","PK","06","7122626428","7122624067","rolberding@spencer.k12.ia.us"
"Clay","Iowa Great Lakes Lutheran School","500 4th Avenue SW","Spencer","Iowa","51301","500 4th Avenue SW","Spencer","Iowa","51301","Donald M. Pipho","Principal","K","06","7122628237","7122628237","iglls2@hotmail.com"
"Buena Vista","St Mary's Catholic Schools","312 Seneca St","Storm Lake","Iowa","50588","312 Seneca St","Storm Lake","Iowa","50588","Beverly Mach","Principal","PK","12","7127324166","7127324590","bmach@stormlakecatholic.com"
"Buena Vista","St Mary's High School","312 Seneca St","Storm Lake","Iowa","50588","312 Seneca St","Storm Lake","Iowa","50588","Ervin  Rowlands","Principal","07","12","7127324166","7127324590","Erowlands@stormlakecatholic.com"
"Buena Vista","St Mary Grade School","312 Seneca St","Storm Lake","Iowa","50588","312 Seneca St","Storm Lake","Iowa","50588","Beverly Mach","Principal","PK","06","7127321856","7127324590","bmach@stormlakecatholic.com"
"Howard","Trinity Catholic School","116 N. Main St","Protivin","Iowa","52163","116 N. Main St","Protivin","Iowa","52163","Dana Spry-Holkesvik","Principal","K","06","5635698556","5635698477","DBQE47@arch.pvt.k12.ia.us"
"Polk","St Pius X School","3601 66th St","Urbandale","Iowa","50322-3499","3601 66th St","Urbandale","Iowa","50322-3499","Larry Zahm","Principal","K","08","5152761061","5152760350","lzahm@dowlingcatholic.org"
"Polk","Des Moines Christian Elementary School","13007 Douglas Parkway","Urbandale","Iowa","50323","13007 Douglas Parkway","Urbandale","Iowa","50323","Cade Lambert","Principal","PK","06","5152522485","5152516911","clambert@dmcs.org"
"Bremer","Community Lutheran School","2681 Quail  Ave","Readlyn","Iowa","50668","2681 Quail  Ave","Readlyn","Iowa","50668","Chris Jesse","Principal","PK","08","3192793968","3192793168","cls@netins.net"
"Washington","St James Elem School","602 W 2nd","Washington","Iowa","52353","602 W 2nd","Washington","Iowa","52353","Brad Thiel","Principal","K","06","3196533631","3196534019","bthiel@stjameswashington.org"
"Black Hawk","Waterloo Christian Sch School System","1307 West Ridgeway","Waterloo","Iowa","50701","1307 West Ridgeway","Waterloo","Iowa","50701","Lisa Goedken","Principal","K","12","3192359309","3198334780","goedkenl@waterloochristianschool.net"
"Black Hawk","Cedar Valley Catholic School System","3231 West 9th Street","Waterloo","Iowa","50702","3231 West 9th Street","Waterloo","Iowa","50702","Cathy Walz","Administrator–Other","K","12","3192321422",,"dbqMW01@arch.pvt.k12.ia.us"
"Black Hawk","The Bosco System","405 16th Ave","Gilbertville","Iowa","50634","405 16th Ave","Gilbertville","Iowa","50634","Julie Niemeyer","Principal","K","12","3192961692","3192961693","dbqe31@arch.pvt.k12.ia.us"
"Black Hawk","Blessed Sacrament School","600 Stephan Ave","Waterloo","Iowa","50701","600 Stephan Ave","Waterloo","Iowa","50701","Nancy Stirm","Principal","PK","08","3192337863","3192338237","DBQE49@arch.pvt.k12.ia.us"
"Black Hawk","Sacred Heart School","620 W 5th St","Waterloo","Iowa","50702","620 W 5th St","Waterloo","Iowa","50702","Amy Sandvold","Principal","PK","08","3192346593","3192347987","dbqe50@arch.pvt.k12.ia.us"
"Black Hawk","St Edward School","139 E Mitchell","Waterloo","Iowa","50702","139 E Mitchell","Waterloo","Iowa","50702","Pam Schowalter","Principal","PK","08","3192336202","3192352898","dbqe51@arch.pvt.k12.ia.us"
"Black Hawk","Immaculate Conception- St Joseph","311 16th Ave","Gilbertville","Iowa","50634-0256","311 16th Ave","Gilbertville","Iowa","50634-0256","Julie Niemeyer","Principal","K","08","3192961089","3192963847","DBQE31@arch.pvt.k12.ia.us"
"Black Hawk","Columbus Catholic High School","3231 W 9th St","Waterloo","Iowa","50702","3231 W 9th St","Waterloo","Iowa","50702","Tom  Ulses","Principal","09","12","3192333358","3192350733","tulses@cvcatholic.org"
"Black Hawk","Don Bosco High School",,"Gilbertville","Iowa","50634","405 16th Ave","Gilbertville","Iowa","50634","Eric Eckerman","Principal","09","12","3192961692","3192961693","eeckerman@boscosystem.pvt.k12.ia.us"
"Black Hawk","Immanuel Lutheran School","207 Franklin St","Waterloo","Iowa","50703","207 Franklin St","Waterloo","Iowa","50703","Barbara Buescher","Principal","PK","08","3192333967","3192326184","ilscyclones@mchsi.com"
"Black Hawk","Waterloo Christian Elementary School","1307 W Ridgeway","Waterloo","Iowa","50701","1307 W Ridgeway","Waterloo","Iowa","50701","Lisa Goedken","Principal","K","05","3192359309","3198334780","goedkenl@waterloochristianschool.net"
"Black Hawk","Waterloo Christian Middle School","1307 W Ridgeway","Waterloo","Iowa","50701","1307 W Ridgeway","Waterloo","Iowa","50701","Lisa Goedken","Principal","06","08","3192359309","3198334780","goedkenl@waterloochristianschool.net"
"Dallas","St Francis of Assisi School","7075 Ashworth Road","West Des Moines","Iowa","50266","7075 Ashworth Road","West Des Moines","Iowa","50266","Misty Hade","Principal","K","08","5154577167","5154401042","mhade@dowling.pvt.k12.ia.us"
"Bremer","St Pauls Lutheran School","212 2nd St. NW","Waverly","Iowa","50677","212 2nd St. NW","Waverly","Iowa","50677","Christi A. Lines","Principal","PK","06","3193521484","3193523999","christi.lines@stpaulswaverly.org"
"Hamilton","St Thomas Aquinas School","624 Dubuque St","Webster City","Iowa","50595-2245","624 Dubuque St","Webster City","Iowa","50595-2245","Michael Pavik","Principal","K","06","5158321346","5158321212","mpavik@st-thomas.pvt.k12.ia.us"
"Delaware","St Marys School","132 W Butler St","Manchester","Iowa","52057-1502","132 W Butler St","Manchester","Iowa","52057","Justin Nosbisch","Principal","PK","06","5639273689","5639271437","dbqe37@arch.pvt.k12.ia.us"
"Polk","Dowling Catholic High School","1400 Buffalo Rd","West Des Moines","Iowa","50265","1400 Buffalo Rd","West Des Moines","Iowa","50265","James M. Dowdle","Principal","09","12","5152253000","5152221056","jdowdle@dowling.pvt.k12.ia.us"
"Polk","Sacred Heart School","1601 Grand Ave.","West Des Moines","Iowa","50265","1601 Grand Ave.","West Des Moines","Iowa","50265","Frank Vito","Principal","K","08","5152231284","5152239413","fvito@dowling.pvt.k12.ia.us"
"Polk","Iowa Christian Academy","2501 Vine Street","West Des Moines","Iowa","50265","2501 Vine Street","West Des Moines","Iowa","50265","Aaron Gonzalez","Administrator","K","06","5152213999","5152252387","agonzalez@icablazers.org"
"Polk","The Early Education Center","1721 25th St Suite 210","West Des Moines","Iowa","50266","1721 25th St Suite 210","West Des Moines","Iowa","50266","Ed  Garza","Principal","PK","K","5152258513","5152253831","eecwdm@yahoo.com"
"Dubuque","Seton Catholic School System","210 2nd Ave SE","Farley","Iowa","52046-0249","210 2nd Ave SE","Farley","Iowa","52046-0249","Mary Smock","Administrator","PK","08","5637443290","5637443450","DBQE28@arch.pvt.k12.ia.us"
"Dubuque","Archbishop Hennessy Catholic Elem Schools","7420 Columbus","New Vienna","Iowa","52065","7420 Columbus","New Vienna","Iowa","52065","Vicki Palmer","Principal","K","06","5639212635","5639213003","dbqe33@arch.pvt.k12.ia.us"
"Dubuque","LaSalle Catholic School System",,"Holy Cross","Iowa","52053","835 Church St","Holy Cross","Iowa","52053","John Pesetski","Principal","PK","08","5638702405","5638704101","DBQE34@arch.pvt.k12.ia.us"
"Dubuque","St Paul School","309 3rd Ave SW","Worthington","Iowa","52078","309 3rd Ave SW","Worthington","Iowa","52078","Jayne Intlekofer","Principal","PK","06","5638552125","5638552022","DBQE56@arch.pvt.k12.ia.us"
"Dubuque","Hennessy Catholic School St Boniface Center","7420 Columbus St","New Vienna","Iowa","52065","7420 Columbus St","New Vienna","Iowa","52065","Dianne Makovec","Principal","K","03","5639212635","5639213003","dbqe33@arch.pvt.k12.ia.us"
"Dubuque","St Francis Xavier School","203 2nd St SW","Dyersville","Iowa","52040-1626","203 2nd St SW","Dyersville","Iowa","52040-1626","Peter Smith","Principal","K","06","5638757376","5638757037","dbqe26@arch.pvt.k12.ia.us"
"Dubuque","Hennessy Catholic School Petersburg Center","1623 300th Ave","Dyersville","Iowa","52040","1623 300th Ave","Dyersville","Iowa","52040","Dianne Makovec","Principal","04","06","5638757572","5638756140","dmakovec@hennessy.pvt.k12.ia.us"
"Dubuque","Beckman High School","1325 9th St SE","Dyersville","Iowa","52040","1325 9th St SE","Dyersville","Iowa","52040","Pat Meade","Principal","07","12","5638757188","5638757242","pmeade@beckman.pvt.k12.ia.us"
"Dubuque","Aquin Elementary School","608 3rd Ave NW","Cascade","Iowa","52033","608 3rd Ave NW","Cascade","Iowa","52033","Mary Yamoah","Principal","K","08","5638523331","5638525269","DBQE06@arch.pvt.k12.ia.us"
"Dubuque","Seton Catholic Elem Sch Farley Center","210 2nd Ave SE","Farley","Iowa","52046-0249","210 2nd Ave SE","Farley","Iowa","52046-0249","Mary Smock","Principal","K","08","5637443290","5637443450","DBQE28@arch.pvt.k12.ia.us"
"Dubuque","Seton Catholic Elem Sch Epworth Center","106 1st St SE","Epworth","Iowa","52045-0246","106 1st St SE","Epworth","Iowa","52045-0246","Mary Smock","Principal","K","02","5638765586","5638763055","DBQE28@arch.pvt.k12.ia.us"
"Dubuque","Luxemburg Center",,"Luxemburg","Iowa","52056","100 W Main","Luxemburg","Iowa","52056","John Pesetski","Principal","PK","03","5638532325","5638532325","DBQE34@arch.pvt.k12.ia.us"
"Dubuque","Seton Catholic Elem Sch Peosta Center","10801 Sundown Rd","Peosta","Iowa","52068","10801 Sundown Rd","Peosta","Iowa","52068","Mary Smock","Principal","PK","05","5635565967","5635567579","DBQE28@arch.pvt.k12.ia.us"
"Dubuque","Holy Cross Center",,"Holy Cross","Iowa","52053","835 Church Street","Holy Cross","Iowa","52053","John Pesetski","Principal","04","08","5638702405","5638704101","DBQE34@arch.pvt.k12.ia.us"
"Lyon","Inwood Christian School","302 E. Madison","Inwood","Iowa","51240","302 E. Madison","Inwood","Iowa","51240","Arlyn Schaap","Principal","PK","08","7127534541","7127532434","inwoodchrofc@alliancecom.net"
"Marshall","Clemons Lutheran School","302 Bevin St","Clemons","Iowa","50051","302 Bevin St","Clemons","Iowa","50051","Jeff Fick","Principal","PK","08","6414778263","6414778262","clschool@netins.net"
"Sioux","Ireton Christian School","104 5th St","Ireton","Iowa","51027","104 5th St","Ireton","Iowa","51027","Marlin Schoonhoven","Principal","PK","08","7122782245","7122782245","ics@mtcnet.net"
"Iowa","Lutheran Interparish School","804 Court St","Williamsburg","Iowa","52361","804 Court St","Williamsburg","Iowa","52361","William Sitas","Principal","PK","08","3196681711","3196689054","wsitas@mchsi.com"
"Dallas","Assumption School","1904 Sycamore","Granger","Iowa","50109","1904 Sycamore","Granger","Iowa","50109","Herb Hartman","Principal","PK","08","5159992211","5159992208","hartmanh@mchsi.com"
,,,,,,,,,,,,,,,
,,,,,,,,,,,,,,,,
