"District","School Name","Principals Name","Email","Address","City","State","Zip","Phone","Fax","Grade"
"City of Monroe","Our Lady of Fatima School (C)","Michele  Palowsky ","mpalowsky@fatimaschool.org","3202 Franklin Street","Monroe                   ","LA","71201","3183871851","3183877593","PK3,PK4,K-6"
"Caddo Parish","St. Joseph School (C)","Susan  Belanger ","sbelanger@sjsfalcons.org","1210 Anniston Avenue","Shreveport               ","LA","71105","3188653585","3188681859","PK3,PK4,K-8"
"Caddo Parish","St. John Berchmans Cathedral School (C)","Josephine  Cazes ","gtombrello@sjbcathedralschool.org","947 Jordan Street","Shreveport               ","LA","71101","3182216005","3184250648","PK3,PK4,K-8"
"City of Monroe","St. Frederick High School (C)","Guy  Farber ","gfarber@stfrederickhigh.org","3300 Westminster Avenue","Monroe                   ","LA","71201","3183239636","3183237456","7-12"
"City of Monroe","Jesus Good Shepherd School (C)","Lisa  Patrick ","lpatrick@jesusgoodshepherd.org","900 Good Shepherd Lane","Monroe                   ","LA","71201","3183258569","3183259730","PK3,PK4,K-6"
"Caddo Parish","Loyola College Preparatory School (C)","Frank  Israel Jr.","fisrael@loyolaprep.org","921 Jordan Street","Shreveport               ","LA","71101","3182212675","3182266325","9-12"
"Avoyelles Parish","St. Mary's Assumption School, Cottonport (C)","Nathan Peter Laborde ","smsangels2@gmail.com","P.O. Box 309","Cottonport               ","LA","71327","3188763651","3188762955","PK3,PK4,K-8"
"Rapides Parish","Holy Savior Menard Central High School (C)","Joel  Desselle ","jdesselle@holysaviormenard.com","4603 Coliseum Boulevard","Alexandria               ","LA","71303","3184458233","3184488170","7-12"
"Avoyelles Parish","St. Joseph Elementary & High School (C)","Brother Andre M. Lucia, F.S.E. ","sjschool99@gmail.com","P.O. Box 59","Plaucheville             ","LA","71362","3189223401","3189223776","PK4,K-12"
"Rapides Parish","St. Frances Cabrini School (C)","Father Jose  Robles-Sanchez ","frjose@cabrinichurch.com","2215 East Texas Avenue","Alexandria               ","LA","71301","3184483333","3184483343","PK3,PK4,K-6"
"Avoyelles Parish","St. Anthony of Padua School (C)","Martha  Coulon ","sassecure@bellsouth.net","116 South Knoll Street","Bunkie                   ","LA","71322","3183462739","3183469191","PK4,K-8"
"Rapides Parish","Our Lady of Prompt Succor School (C)","Johanna F. M. Tassin ","olpsoffice@promptsuccor.org","420 21st Street","Alexandria               ","LA","71301","3184871862","3184739321","PK3,PK4,K-6"
"Natchitoches Parish","St. Mary's Elementary & High School (C)","Phyllis M. Scott ","smsprincipal@cp-tel.net","P. O. Box 2070","Natchitoches             ","LA","71457","3183528394","3183525798","PK3,PK4,K-12"
"Avoyelles Parish","Sacred Heart School (C)","Sister Sandra  Norsworthy ","sacredheart@kricket.net","P. O. Box 179","Moreauville              ","LA","71355","3189852772","3189852164","PK4,K-8"
"East Baton Rouge Parish","Catholic Junior High School (Boys) (C)","Thomas W.  Eldringhoff ","teldringhoff@catholichigh.org","855 Hearthstone Drive","Baton Rouge              ","LA","70806","2253830397","2253830381","8-9"
"Iberville Parish","St. John Elementary School (C)","Bernardine  Legendre ","stjohnelem@csobr.org","58645 St. Clement Street","Plaquemine               ","LA","70764","2256876616","2256876280","PK3,PK4,K-6"
"Tangipahoa Parish","St. Joseph School (C)","Gerard  Toups PhD","sjsoffice@sjscrusaders.org","175 North Eighth Street","Ponchatoula              ","LA","70454","9853866421","9853860560","PK4,K-8"
"East Baton Rouge Parish","St. Joseph's Academy (Girls) (C)","Linda  Harvison ","stjosephacademy@csobr.org","3015 Broussard Street","Baton Rouge              ","LA","70808","2253837207","2253445714","9-12"
"Ascension Parish","St. Theresa Middle School (C)","Christine  Musso ","chrismusso@sjp-sta.org","212 East New River Street","Gonzales                 ","LA","70737","2256472803","2256477814","4-8"
"East Baton Rouge Parish","St. Thomas More School (C)","Judy  Armstrong PhD","stthomasmore@csobr.org","11400 Sherbrook Drive","Baton Rouge              ","LA","70815","2252752820","2252750376","K-8"
"East Baton Rouge Parish","St. Louis King of France School (C)","Mary C. Polito ","stlouiskingfrance@csobr.org","2311 North Sherwood Forest","Baton Rouge              ","LA","70815","2252733932","2252733978","PK3,PK4,K-8"
"Pointe Coupee Parish","Catholic Elementary School of Pointe Coupee(C)","Melissa  Cline ","catholicelempc@csobr.org","304 Napoleon Street","New Roads                ","LA","70760","2256389313","2256389953","PK3,PK4,K-6"
"East Baton Rouge Parish","St. Michael the Archangel Diocesan Regional HS","Ellen B. Lee ","stmichaelhigh@csobr.org","P.O. Box 86110","Baton Rouge              ","LA","70879","2257539782","2257530605","9-12"
"Tangipahoa Parish","St. Thomas Aquinas Diocesan Regional HS (C)","Jose  Becerra ","stthomasaquinas@csobr.org","14520 Voss Drive","Hammond                  ","LA","70401","9855427662","9855424010","9-12"
"East Baton Rouge Parish","St. Jean Vianney School (C)","Wendy  Gilmore ","wgilmore@stjeanvianneyschool.org","16266 S Harrell's Ferry Road","Baton Rouge              ","LA","70816","2257511831","2257528774","K-8"
"East Baton Rouge Parish","Redemptorist Diocesan Regional Junior HS (C)","Anna  Scimeca ","redemptoristhigh@csobr.org","4000 St. Gerard Avenue","Baton Rouge              ","LA","70805","2253570936","2253574555","7-9"
"Ascension Parish","St. John Primary (C)","Tina L. Schexnaydre ","tinaschexnaydre@sjp-sta.org","37407 Duplessis Road","Prairieville             ","LA","70769","2256778238","2256736803","PK4,K-3"
"East Baton Rouge Parish","St. Jude School (C)","Karen  Jakuback ","kjakuback@stjudebr.org","9150 Highland Road","Baton Rouge              ","LA","70810","2257692344","2257690671","PK4,K-8"
"Tangipahoa Parish","Holy Ghost School (C)","Tangee  Daugereaux ","csears@hgschool.org","507 North Oak Street","Hammond                  ","LA","70401","9853450977","9855426545","PK4,K-8"
"East Baton Rouge Parish","Redemptorist Elementary School (C)","Erica  Walker ","ewalker@resbr.org","3655 St. Gerard Avenue","Baton Rouge              ","LA","70805","2253551437","2253551879","PK4,K-6"
"Iberville Parish","St. John High School (C)","Cherie  Schlatre ","stjohnhigh@csobr.org","24250 Regina Street","Plaquemine               ","LA","70764","2256873056","2256873530","7-12"
"Ascension Parish","Ascension Diocesan Regional School (C)","Sandy  Pizzolato ","ascensionhigh@csobr.org","P.O. Box 386","Donaldsonville           ","LA","70346","2254739227","2254739235","PK4,K-12"
"East Baton Rouge Parish","Catholic High School (Boys) (C)","Lisa D.  Harvey ","lharvey@catholichigh.org","855 Hearthstone Drive","Baton Rouge              ","LA","70806","2253830397","2253830381","10-12"
"Pointe Coupee Parish","Catholic High of Pointe Coupee (C)","Colleen K. Caillet ","highschooloffice@catholicpc.com","P.O. Box 146","New Roads                ","LA","70760","2256389313","2256386471","7-12"
"West Baton Rouge Parish","Holy Family School (C)","Brenda  Fremin ","holyfamily@csobr.org","335 North Jefferson Avenue","Port Allen               ","LA","70767","2253444100","2253441928","PK4,K-8"
"Tangipahoa Parish","Mater Dolorosa School (C)","Linda  Wisinger ","lwisinger@mdeagles.org","P.O. Box 380","Independence             ","LA","70443","9858784295","9858784888","PK4,K-8"
"East Baton Rouge Parish","Most Blessed Sacrament School (C)","Maria I. Cloessner ","mcloessner@mbsbr.org","8033 Baringer Road","Baton Rouge              ","LA","70817","2257510273","2257537259","K-8"
"East Baton Rouge Parish","Our Lady of Mercy School (C)","Brian  Moscona ","bmoscona@olomschool.org","400 Marquette Avenue","Baton Rouge              ","LA","70806","2259241054","2259232201","PK4,K-8"
"East Baton Rouge Parish","Redemptorist Diocesan Regional High School (C)","Maribeth  Andereck ","redemptoristhigh@csobr.org","4000 St. Gerard Avenue","Baton Rouge              ","LA","70805","2253570936","2253574555","10-12"
"East Baton Rouge Parish","Sacred Heart of Jesus School (C)","Joan  Hutson ","jhutson@sacredheartbr.com","2251 Main Street","Baton Rouge              ","LA","70802","2253837481","2253831810","PK4,K-8"
"East Baton Rouge Parish","St. Aloysius School (C)","John L. Bennett ","staloysius@csobr.org","2025 Stuart Avenue","Baton Rouge              ","LA","70808","2253833871","2253834500","PK4,K-8"
"Central Community","St. Alphonsus School (C)","Cynthia  Ryals ","cryals@stalphonsusbr.org","13940 Greenwell Springs Rd.","Greenwell Springs        ","LA","70739","2252615299","2252612795","PK3,PK4,K-8"
"Assumption Parish","St. Elizabeth School (C)","Paula  Simoneaux ","stelizabeth@csobr.org","P.O. Drawer M","Paincourtville           ","LA","70391","9853697402","9853691527","PK4,K-8"
"East Baton Rouge Parish","St. Francis Xavier School (C)","Paula  Fabre ","pfabre@sfx.brcoxmail.com","1150 South Twelfth Street","Baton Rouge              ","LA","70802","2253876639","2253831215","PK4,K-8"
"East Baton Rouge Parish","St. George School (C)","Jack  Nelson ","stgeorge@csobr.org","7880 St. George Drive","Baton Rouge              ","LA","70809","2252931298","2252934886","K-8"
"St. James Parish","St. Peter Chanel Interparochial School","Joanna  Foltz ","stpeterchanel@csobr.org","2590 Hwy. 44","Paulina                  ","LA","70763","2258695778","2258698131","PK3,PK4,K-8"
"Lafourche Parish","St. Genevieve School (C)","Chris  Knobloch ","chris.knobloch@htdiocese.org","807 Barbier Avenue","Thibodaux                ","LA","70301","9854779291","9854479883","PK4,K-7"
"Terrebonne Parish","St. Gregory School (C)","Elizabeth M. Scurto ","elizabeth.scurto@htdiocese.org","441 Sixth Street","Houma                    ","LA","70364","9858762038","9858792789","PK3,PK4,K-7"
"Lafourche Parish","E.D. White Catholic High School (C)","David  Boudreaux ","michiasson@htdiocese.org","555 Cardinal Drive","Thibodaux                ","LA","70301","9854468486","9854481275","8-12"
"Terrebonne Parish","Vandebilt Catholic High School (C)","James  Reiss ","vandebilthi@htdiocese.org","209 South Hollywood Road","Houma                    ","LA","70360","9858762551","9858689774","8-12"
"Lafourche Parish","St. Mary's Nativity (C)","Marissa  Bagala ","stmarelm@htdiocese.org","3492 Nies Street","Raceland                 ","LA","70394","9855377544","9855374020","PK4,K-8"
"St. Mary Parish","Central Catholic School (C)","Vic  Bonnaffee III","centcathi@htdiocese.org","2100 Cedar Street, Unit 1","Morgan City              ","LA","70380","9853855372","9853853444","7-12"
"Terrebonne Parish","St. Bernadette School (C)","Joan  LeBoeuf ","stbernelm@htdiocese.org","309 Funderburk Avenue","Houma                    ","LA","70364","9858723854","9858725780","PK3,PK4,K-7"
"Lafourche Parish","St. Joseph Elementary School (C)","Gerard  Rodrigue Jr.","stjoeelm@htdiocese.org","501 Cardinal Drive","Thibodaux                ","LA","70301","9854461346","9854490760","PK4,K-7"
"Terrebonne Parish","Maria Immacolata School (C)","Yvonne  Weimer ","yweimer@htdiocese.org","324 Estate Drive","Houma                    ","LA","70364","9858761631","9858761608","PK4,K-7"
"Lafourche Parish","Holy Savior School (C)","Blaine J. Degruise ","bdegruise@htdiocese.org","201 Church Street","Lockport                 ","LA","70374","9855322536","9855322269","K-8"
"Lafourche Parish","Holy Rosary School (C)","Scott  Bouzigard ","ddarda@htdiocese.org","P.O. Drawer 40","Larose                   ","LA","70373","9856933342","9856933348","PK4,K-8"
"St. Mary Parish","Holy Cross Elementary School (C)","Mamie  Bergeron ","pjensen@htdiocese.org","2100 Cedar Street, Unit 2","Morgan City              ","LA","70380","9853841933","9853843270","K-6"
"Terrebonne Parish","St. Francis de Sales Cathedral School (C)","Brenda  Tanner ","btanner@htdiocese.org","P.O. Box 8034","Houma                    ","LA","70360","9858686646","9858515896","PK4,K-7"
"Lafayette Parish","Teurlings Catholic High School(C)","Michael H. Boyer ","mboyer@tchs.net","139 Teurlings Drive","Lafayette                ","LA","70501","3372355711","3372348057","9-12"
"Vermilion Parish","St. Peter School (C)","Jason  Vidrine ","jvidrine@hotmail.com","513 Sixth Street","Gueydan                  ","LA","70542","3375367930","3375369460","K-8"
"Acadia Parish","St. Michael School (C)","Myra L. Broussard ","myralb@cox.net","805 East Northern Avenue","Crowley                  ","LA","70526","3377831410","3377838547","PK4,K-8"
"Lafayette Parish","Sts. Leo-Seton School (C)","Kimberly  Gothreaux ","kgothreaux@leoseton.org","502 St. Leo Sreet","Lafayette                ","LA","70501","3372345510","3372343676","PK4,K-8"
"St. Martin Parish","Trinity Catholic Elementary School (C)","Dr. Carolyn C. O'Connell ","coconnell@trinitycatholicschoolla.org","242 Gary Street","St. Martinville          ","LA","70582","3373946693","3373943394","PK4,K-8"
"St. Mary Parish","St. John Elementary School (C)","Sheri  Higdon ","astoufflet@stjohnelem.com","924 Main Street","Franklin                 ","LA","70538","3378282648","3378282112","PK3,PK4,K-5"
"Lafayette Parish","St. Thomas More Catholic High School (C)","Audrey  Menard ","audrey.menard@stmcougars.net","450 East Farrel Road","Lafayette                ","LA","70508","3379883700","3379882911","9-12"
"St. Landry Parish","St. Ignatius School (C)","Cynthia B. Prather ","cindyp@stignatiusschool.us","P.O. Drawer J","Grand Coteau             ","LA","70541","3376623325","3376623349","PK4,K-8"
"Vermilion Parish","Vermilion Catholic High School (C)","Mike  Guilbeaux ","mikeguilbeaux@vermilioncatholic.com","425 Park Avenue","Abbeville                ","LA","70510","3378936636","3378980394","9-12"
"Iberia Parish","Catholic High School (C)","Ray  Simon ","rsimon@chspanthers.com","1301 DeLaSalle Drive","New Iberia               ","LA","70560","3373645116","3373645041","4-12"
"St. Martin Parish","St. Bernard School (C)","Ray  Latiolais ","rlatiolais@sbscrusaders.com","251 East Bridge Street","Breaux Bridge            ","LA","70517","3373325350","3373325894","PK4,K-8"
"Lafayette Parish","St. Pius Elementary School (C)","Donna  Lemaire ","donna_lemaire@stpiuselementary.org","205 E Bayou Pkwy.","Lafayette                ","LA","70508","3372373139","3372323455","PK3,PK4,K-8"
"St. Landry Parish","Berchmans Academy of the Sacred Heart (C)","Sr. Lynne  Lieux ","llieux@sshcoteau.org","P.O. Box 310","Grand Coteau             ","LA","70541","3376625275","3376623011","PK3,PK4,K-10"
"Lafayette Parish","Sts. Peter & Paul Catholic Elementary School","Robert  Richard Phd","rrichard@sts-peter-paul.org","1301 Old Spanish Trail","Scott                    ","LA","70583","3375043400","3375044995","PK4,K-7"
"Lafayette Parish","St. Genevieve School (C)","Becky  Trouille ","jchampagne@stgen.net","201 Elizabeth Street","Lafayette                ","LA","70501","3372345257","3372376065","PK4,K-8"
"Vermilion Parish","Mt. Carmel School (C)","Sr.Janet  LeBlanc,O.Carm. ","srjanet@mceschool.com","405 Park Avenue","Abbeville                ","LA","70510","3378980859","3378935968","K-8"
"Acadia Parish","St. Francis School (C)","Cynthia D. Habetz ","chabetz@stfranciswolves.com","490 St. Joseph Avenue","Iota                     ","LA","70543","3377792527","3377792309","PK4,K-8"
"St. Landry Parish","Academy of the Sacred Heart (Girls) (C)","Sr. Lynne  Lieux ","llieux@sshcoteau.org","P.O. Box 310","Grand Coteau             ","LA","70541","3376625275","3376623011","PK3,PK4,K-12"
"Lafayette Parish","Carencro Catholic Elementary School(C)","Andre'  Angelle ","aangelle@carencrocatholic.org","200 West St.Peter Street","Carencro                 ","LA","70520","3378968973","3378961931","PK4,K-8"
"Lafayette Parish","Cathedral Carmel School (C)","Kay B. Aillet ","kaillet@cathedralcarmel.com","848 St.John Street","Lafayette                ","LA","70501","3372355577","3372619493","PK4,K-8"
"St. Mary Parish","Hanson Memorial School (C)","Kim  Adams ","kadams@hansonmemorial.com","903 Anderson Street","Franklin                 ","LA","70538","3378283487","3378280787","6-12"
"Lafayette Parish","Holy Family Catholic School (C)","Rogers James Griffin ","HFS98@aol.com","200 St. John Street","Lafayette                ","LA","70501","3372350267","3372350558","PK4,K-8"
"Iberia Parish","St. Edward School (C)","Karen  Bonin ","kbonin@saintedwardpandas.com","175 Porter Street","New Iberia               ","LA","70560","3373696764","3373699534","PK3,PK4,K-3"
"Vermilion Parish","Maltrait Memorial School (C)","Renee  Meaux ","renee_meaux@yahoo.com","612 N Hebert Avenue","Kaplan                   ","LA","70548","3376437765","3376437765","PK4,K-8"
"Acadia Parish","Notre Dame High School (C)","Cindy M. Istre ","cistre@ndpios.com","910 N Eastern Avenue","Crowley                  ","LA","70526","3377833519","3377882115","9-12"
"St. Landry Parish","Opelousas Catholic School (C)","Perry  Fontenot ","ocsvikings@yahoo.com","428 East Prudhomme Street","Opelousas                ","LA","70570","3379425404","3379425922","PK3,PK4,K-12"
"Lafayette Parish","Our Lady of Fatima School (C)","Joni  Duos ","jduos@olf.org","2315 Johnston Street","Lafayette                ","LA","70503","3372352464","3372351320","PK4,K-8"
"Acadia Parish","Our Mother of Peace Elementary School (C)","Don  Courville ","dcourville@ompwildcats.com","218 North Rogers Street","Church Point             ","LA","70525","3376845780","3376846983","PK4,K-8"
"Acadia Parish","Rayne Catholic Elementary School (C)","Frederick  Menard ","fredmenard@bellsouth.net","407 South Polk Street","Rayne                    ","LA","70578","3373345657","3373343301","PK4,K-8"
"Acadia Parish","Redemptorist Catholic School (C)","Louis  Cramer ","lcramer@rcsraider.org","606 South Avenue N","Crowley                  ","LA","70526","3377834466","3377880961","PK4,K-8"
"Evangeline Parish","Sacred Heart School (C)","Diane  Fontenot ","dianef@shsvp.com","114 Trojan Lane","Ville Platte             ","LA","70586","3373631475","3373630348","K-12"
"Lafayette Parish","St. Cecilia School (C)","George  Fontenot ","gfontenot@scsbluejays.org","302 West Main","Broussard                ","LA","70518","3378376363","3378373688","PK4,K-8"
"St. Landry Parish","St. Edmund School (C)","James  Wallett ","jwallett@stedmund.com","351 West Magnolia","Eunice                   ","LA","70535","3374572592","3374572510","PK4,K-12"
"Lafayette Parish","Immaculate Heart of Mary School (C)","Sr. Leona  Bruner SSF","srlbruner@ihmlafayette.com","800 Twelfth Street","Lafayette                ","LA","70501","3372357843","3372330070","PK3,PK4,K-8"
"Calcasieu Parish","Our Lady Queen of Heaven School (C)","JoAnn  Wallwork ","jwallwork@olqhs.org","3908 Creole Street","Lake Charles             ","LA","70605","3374777349","3374777384","PK4,K-8"
"Calcasieu Parish","St. Theodore's Holy Family Catholic School (C)","Jennifer  Bellon ","principal@sthfcs.com","785 Sam Houston Jones Parkway","Lake Charles             ","LA","70611","3378559465","3378552809","PK4,K-8"
"Calcasieu Parish","St. Margaret School (C)","Brenda  Dufrene ","bdufrene@stmcs.com","2510 Enterprise Boulevard","Lake Charles             ","LA","70601","3374367959","3374369932","PK4,K-8"
"Calcasieu Parish","Our Lady's School (C)","Trevor  Donnelly ","tdonnelly@ourladysschool.org","1111 Cypress Street","Sulphur                  ","LA","70663","3375277828","3375283778","PK3,PK4,K-8"
"Jefferson Davis Parish","Our Lady Immaculate Catholic School (C)","Nicole Domingue Reeves ","nreeves@olischool.org","600 Roberts Avenue","Jennings                 ","LA","70546","3378241743","3378241752","PK3,PK4,K-8"
"Calcasieu Parish","Immaculate Conception Cathedral School (C)","Dinah  Bradford ","dbradford@iccschool.org","1536 Ryan Street","Lake Charles             ","LA","70601","3374333497","3374335056","PK4,K-8"
"Calcasieu Parish","St. Louis Catholic High School (C)","Deborah  Frank ","dfrank@slchs.org","1620 Bank Street","Lake Charles             ","LA","70601","3374367275","3374366792","9-12"
"Jefferson Parish","St. Elizabeth Ann Seton School (C)","Joan  Kathmann ","elizabeth@archdiocese-no.org","4119 St. Elizabeth Drive","Kenner                   ","LA","70065","5044683524","5044696014","PK4,K-7"
"Orleans Parish","De La Salle Senior High School (C)","Peggy  St. John ","pstjohn@delasallenola.com","5300 St. Charles Avenue","New Orleans              ","LA","70115","5048955717","5048951300","10-12"
"Orleans Parish","Xavier University Prep School (Girls) (C)","Cheryllyn  Branche ","jpeychaud@xavierprep.com","5116 Magazine Street","New Orleans              ","LA","70115","5048996061","5048918766","7-12"
"Jefferson Parish","Visitation of Our Lady School (C)","Carolyn  Levet ","volschool@vol.org","3520 Ames Boulevard","Marrero                  ","LA","70072","5043473377","5043415378","PK3,PK4,K-8"
"Orleans Parish","Ursuline Academy (Girls) (C)","John  Gabriel ","jgabriel@ursulineneworleans.org","2635 State Street","New Orleans              ","LA","70118","5048662725","5048617392","8-12"
"Orleans Parish","Ursuline Elementary Academy (Girls) (C)","Kimberly  Harper ","kharper@ursulineneworleans.org","2635 State Street","New Orleans              ","LA","70118","5048665260","5048665293","PK4,K-7"
"Orleans Parish","St. Stephen School (C)","Peggy  LeBlanc ","ststephen@archdiocese-no.org","1027 Napoleon Avenue","New Orleans              ","LA","70115","5048911927","5048911928","PK3,PK4,K-8"
"Jefferson Parish","St. Matthew the Apostle School (C)","Dennis  Panepinto ","panepintod@smaschool.net","10021 Jefferson Highway","River Ridge              ","LA","70123","5047374604","5047387985","PK4,K-8"
"Jefferson Parish","St. Rita School (C)","Miriam  Daniel ","stritahar@archdiocese-no.org","194 Ravan Avenue","Harahan                  ","LA","70123","5047370744","5047382184","PK4,K-7"
"Jefferson Parish","Archbishop Shaw Junior High School (C)","Julie  Abreo ","arnoshaw@archdiocese-no.org","1000 Barataria Boulevard","Marrero                  ","LA","70072","5043406727","5043407899","8-9"
"Orleans Parish","St. Pius X School (C)","Pamela W. Fulham ","spxsch@archdiocese-no.org","6600 Spanish Fort Blvd.","New Orleans              ","LA","70124","5042822811","5042823043","PK3,PK4,K-7"
"Jefferson Parish","St. Philip Neri School (C)","Carol  Stack PhD","cstack@stphilipneri.org","6600 Kawanee Avenue","Metairie                 ","LA","70003","5048875600","5044566857","PK3,PK4,K-7"
"Orleans Parish","St. Peter Claver School (C)","Vanessa J. Chavis ","school@stpeterclaver.org","1020 North Prieur Street","New Orleans              ","LA","70116","5048228191","5048229251","PK3,PK4,K-8"
"St. John the Baptist Parish","St. Peter School (C)","Paula A. Poche' ","ppoche@archdiocese-no.org","188 West Seventh Street","Reserve                  ","LA","70084","9855364296","9855364305","PK3,PK4,K-8"
"St. Tammany Parish","St. Peter School (C)","Melody M. Barousse ","tmontour@stpetercov.org","130 East Temperance Street","Covington                ","LA","70433","9858921831","9858982185","PK3,PK4,K-7"
"St. Tammany Parish","St. Paul's School (Boys)(C)","Br.Ray  Bulliard,F.S.C. ","stpauls@stpauls.com","P.O. Box 928","Covington                ","LA","70434","9858923200","9858924048","8-12"
"Orleans Parish","St. Michael Special School (C)","Susan  Munster ","stmichspecial@archdiocese-no.org","1522 Chippewa Street","New Orleans              ","LA","70130","5045247285","5045245883","NG"
"Orleans Parish","Holy Rosary High School (C)","Len  Enger ","lenger@holyrosarynola.org","2437 Jena Street","New Orleans              ","LA","70115","5044827173","5044827229","8-12"
"Orleans Parish","Stuart Hall School for Boys (C)","Dr. Bridget  Hagan ","bhagan@stuarthall.org","2032 S Carrollton Avenue","New Orleans              ","LA","70118","5048611954","5048615389","PK3,PK4,K-7"
"Orleans Parish","St. Benedict the Moor (C)","Druescellar  Dumas ","stbenmoor@archdiocese-no.org","5010 Piety Drive","New Orleans              ","LA","70126","5042882745","5042829386","PK4,K-4"
"Orleans Parish","Good Shepherd Nativity Mission School (C)","Emily M. Paul ","epaul@thegoodshepherdschool.org","353 Baronne St.","New Orleans              ","LA","70112","5045989399","5045989346","K-7"
"St. Tammany Parish","Mary, Queen of Peace Catholic School (C)","Sybil W. Skansi ","sskansi@maryqueenofpeace.org","1515 West Causeway Approach","Mandeville               ","LA","70471","9856742466","9856741441","PK3,PK4,K-7"
"Orleans Parish","St. Gerard Majella Alternative School","Sr. Joan  Broussar, O. Carm. ","majellaalt@archdiocese-no.org","1941 Dauphine Street","New Orleans              ","LA","70116","5043099543","5043099542","9-12"
"Orleans Parish","Holy Cross Junior High School (Boys) (C)","Teresa D. Billings ","tbillings@holycrosstigers.com","5500 Paris Avenue","New Orleans              ","LA","70122","5049423100","5042865665","5-7"
"Jefferson Parish","Archbishop Rummel Jr. High School (Boys)(C)","David  Rodriguez ","sross@rummelraiders.com","1901 Severn Avenue","Metairie                 ","LA","70001","5048345592","5048344871","8-9"
"St. Tammany Parish","St. Scholastica Academy","Mary Kathryn Villere ","hklechak@ssacad.com","P.O. Box 1210","Covington                ","LA","70434","9858922540","9858935256","8-12"
"St. Tammany Parish","Archbishop Hannan High School(C)","Rev. Charles  Latour, O.P","cllatour@hannanhigh.org","71324 Hwy 1077","Covington                ","LA","70433","9852496363","9852496370","8-12"
"Orleans Parish","Jesuit Junior High School (Boys) (C)","Andrew  Schiro ","schiroa@jesuitnola.org","4133 Banks Street","New Orleans              ","LA","70119","5044866631","5044833942","8-9"
"Orleans Parish","Brother Martin Sr. High School (Boys) (C)","Gregory M. Rando ","grando@brothermartin.com","4401 Elysian Fields Ave.","New Orleans              ","LA","70122","5042831561","5042868462","10-12"
"Orleans Parish","St. Augustine Jr. High School (Boys) (C)","Eric  Smith ","esmith@purpleknights.com","2600 A.P. Tureaud Avenue","New Orleans              ","LA","70119","5049442424","5049477712","6-9"
"Orleans Parish","St. Rita School (C)","Sr. Anette  Baxley MSC","stritahar@archdiocese-no.org","65 Fontainebleau Drive","New Orleans              ","LA","70125","5048661777","5048618512","PK4,K-8"
"St. Bernard Parish","Our Lady of Prompt Succor School (C)","Sharon B. Coll ","scoll8312@aol.com","2305 Fenelon Street","Chalmette                ","LA","70043","5042712953","5042711490","PK3,PK4,K-8"
"Jefferson Parish","St. Ann School (C)","Susan R. Kropog ","skropog@stannschool.org","4921 Meadowdale Street","Metairie                 ","LA","70006","5044558383","5044559572","PK3,PK4,K-7"
"Jefferson Parish","St. Angela Merici School (C)","Colleen S. Remont ","cremont@stangelaschool.org","835 Melody Drive","Metairie                 ","LA","70002","5048358491","5048354463","PK3,PK4,K-7"
"Orleans Parish","St. Andrew the Apostle School (C)","Nicole G. Alvarez ","nalvarez@sasno.org","3131 Eton Street","New Orleans              ","LA","70131","5043944171","5043913627","PK3,PK4,K-8"
"Orleans Parish","St. Alphonsus School (C)","Sr.Monica  Ellerbusch,RSM ","stalphonsus@archdiocese-no.org","2001 Constance Street","New Orleans              ","LA","70130","5045236594","5045238769","PK4,K-6"
"Jefferson Parish","St. Agnes School (C)","Bridget  Sinibaldi ","stagnes@archdiocese-no.org","3410 Jefferson Highway","Jefferson                ","LA","70121","5048356486","5048354295","PK3,PK4,K-8"
"Orleans Parish","Academy of the Sacred Heart (Girls) (C)","Timothy M. Burns PhD","tburns@ashrosary.org","4521 St. Charles Avenue","New Orleans              ","LA","70115","5048911943","5048919939","PK4,K-12"
"St. Charles Parish","Sacred Heart of Jesus School (C)","Cheryl S. Orillion ","corillion@archdiocese-no.org","453 Spruce Street","Norco                    ","LA","70079","9857649958","9857640041","PK3,PK4,K-8"
"Orleans Parish","Resurrection of Our Lord School (C)","Vickie  Helmstetter ","vhelmstetter@archdiocese-no.org","4861 Rosalia Drive","New Orleans              ","LA","70127","5042432257","5042415532","PK3,PK4,K-8"
"Jefferson Parish","St. Anthony School (C)","Jo Anna  Russo ","jrusso@archdiocese-no.org","900 Franklin Street","Gretna                   ","LA","70053","5043670689","5043610054","PK4,K-8"
"Orleans Parish","St. Mary's Dominican High School (Girls) (C)","Carolyn  Favre ","dhsp01@stmarysdominican.org","7701 Walmsley Avenue","New Orleans              ","LA","70125","5048659401","5048665958","8-12"
"Jefferson Parish","Our Lady of Prompt Succor School (C)","Sr. M. Suzanne Miller, FMA","olpswestwego@archdiocese-no.org","531 Avenue A","Westwego                 ","LA","70094","5043419505","5043419508","PK3,PK4,K-8"
"Jefferson Parish","St. Rosalie School (C)","Mary C. Wenzel ","strosalie@archdiocese-no.org","617 Second Avenue","Harvey                   ","LA","70058","5043414342","5043470271","PK3,PK4,K-8"
"Jefferson Parish","Our Lady of Perpetual Help School (C)","Deborah L. Bradbury ","dbradbury@olphla.org","531 Williams Blvd.","Kenner                   ","LA","70062","5044640531","5044640725","PK4,K-8"
"St. Tammany Parish","Our Lady of Lourdes School (C)","Robert V. Kiefer Jr.","rkiefer@ollourdes.org","345 Westchester Blvd.","Slidell                  ","LA","70458","9856433230","9856450648","PK4,K-8"
"St. John the Baptist Parish","Our Lady of Grace School (C)","Stephenie  Aubert ","olgrace@archdiocese-no.org","780 Hwy. 44","Reserve                  ","LA","70084","9855364291","9855364250","PK3,PK4,K-8"
"Jefferson Parish","Our Lady of Divine Providence School (C)","Elvina  DiBartolo ","oldp@archdiocese-no.org","917 North Atlanta Street","Metairie                 ","LA","70003","5044660591","5044660671","PK3,PK4,K-8"
"St. Tammany Parish","Our Lady of the Lake School (C)","Frank  Smith ","email@ourladyofthelakeschool.org","316 Lafitte Street","Mandeville               ","LA","70448","9856265678","9856264337","PK3,PK4,K-7"
"Orleans Parish","Mount Carmel Academy (Girls) (C)","Camille A. Campbell,O.Carm. ","mca@mcacubs.org","7027 Milne Boulevard","New Orleans              ","LA","70124","5042887626","5042887629","8-12"
"Orleans Parish","Jesuit Senior High School (Boys) (C)","Michael A. Giambelluca ","giambellucam@jesuitnola.org","4133 Banks Street","New Orleans              ","LA","70119","5044833817","5044833942","10-12"
"St. Tammany Parish","Pope John Paul II High School (C)","Martha  Mundine ","mmundine@pjp.org","1901 Jaguar Drive","Slidell                  ","LA","70461","9856490914","9856495494","9-12"
"Plaquemines Parish","Our Lady of Perpetual Help School (C)","Sr.Elizabeth  Hebert SLW","srelizabeth@olphbc.org","8970 Highway 23","Belle Chasse             ","LA","70037","5043940757","5043941627","PK3,PK4,K-8"
"Orleans Parish","St. Mary's Academy (Girls) (C)","Sr.Jennie  Jones, SSF ","smaoffice@archdiocese-no.org","6905 Chef Menteur Highway","New Orleans              ","LA","70126","5042450200","5042450422","PK3,PK4,K-12"
"Jefferson Parish","St. Mary Magdalen School (C)","Kimberly  Downes ","stmarymag@archdiocese-no.org","6421 West Metairie Avenue","Metairie                 ","LA","70003","5047331433","5047360727","PK4,K-8"
"St. Tammany Parish","St. Margaret Mary School (C)","Bobby  Ohler ","bohler@saintmm.org","1050A Robert Blvd.","Slidell                  ","LA","70458","9856434612","9856434659","PK3,PK4,K-8"
"Jefferson Parish","St. Louis King of France School (C)","Pamela  Schott ","stlouiskingfrnc@archdiocese-no.org","1600 Lake Avenue","Metairie                 ","LA","70005","5048338224","5048389938","PK3,PK4,K-7"
"Orleans Parish","Cathedral Academy (St. Louis Cathedral)(C)","Sr. Mary Sheila  Maksim, OP ","caprincipal@archdiocese-no.org","820 Dauphine Street","New Orleans              ","LA","70116","5045253860","5045253193","PK4,K-7"
"Orleans Parish","St. Leo the Great School (C)","Carmel  Mire ","carmel_mire@hotmail.com","1501 Abundance Street","New Orleans              ","LA","70119","5049431482","5049445895","PK4,K-6"
"St. John the Baptist Parish","St. Joan of Arc School (C)","Larry J. Bourgeois Jr.","stjoanlaplace@archdiocese-no.org","412 Fir Street","LaPlace                  ","LA","70068","9856526310","9856526390","PK4,K-8"
"Orleans Parish","St. Joan of Arc School (C)","Dionne L. Frost ","stjoanno@archdiocese-no.org","919 Cambronne Street","New Orleans              ","LA","70118","5048612887","5048669588","PK4,K-8"
"Orleans Parish","St. Anthony of Padua School (C)","Sr.Ruth  Angelette OP","stanthonyofpadua@archdiocese-no.org","4601 Cleveland Avenue","New Orleans              ","LA","70119","5044884426","5044885373","PK3,PK4,K-7"
"Jefferson Parish","St. Edward the Confessor School (C)","Thomas E. Becker, Phd","tbecker@steddy.org","4901 West Metairie Avenue","Metairie                 ","LA","70001","5048886353","5044560960","PK4,K-8"
"Orleans Parish","St. Dominic School (C)","Adrianne M. LeBlanc ","aleblanc@stdominicnola.org","6326 Memphis Street","New Orleans              ","LA","70124","5044824123","5044863870","PK4,K-7"
"Jefferson Parish","St. Cletus School (C)","Jill  Grabert ","jgrabert@stcletuscolts.com","3610 Claire Avenue","Gretna                   ","LA","70053","5043663538","5043660011","PK3,PK4,K-8"
"Jefferson Parish","St. Clement of Rome School (C)","Chad A. Howat ","chowat@scrschool.org","3978 West Esplanade Avenue","Metairie                 ","LA","70002","5048880386","5048858273","PK3,PK4,K-7"
"Jefferson Parish","St. Christopher School (C)","Ruth  Meche ","arnochrist@archdiocese-no.org","3900 Derbigny Street","Metairie                 ","LA","70001","5048376871","5048340522","PK4,K-8"
"St. John the Baptist Parish","St. Charles Catholic High School (C)","Andrew C. Cupit ","acupit@archdiocese-no.org","100 Dominican Drive","LaPlace                  ","LA","70068","9856523809","9856522609","8-12"
"St. Charles Parish","St. Charles Borromeo School (C)","Mary  Schmidt ","mschmidt@scbhumilitas.org","13396 River Rd. Building # 3","Destrehan                ","LA","70047","9857649232","9857643726","PK4,K-8"
"Jefferson Parish","St. Catherine of Siena School (C)","Frances Dee Tarantino ","fdtarantino@scsgators.org","400 Codifer Boulevard","Metairie                 ","LA","70005","5048311166","5048338982","PK3,PK4,K-7"
"Jefferson Parish","St. Benilde School (C)","John V. Downey ","jdowney@arch-no.org","1801 Division Street","Metairie                 ","LA","70001","5048339894","5048344380","PK4,K-7"
"Orleans Parish","St. Augustine Senior High School (C)","Eric  Smith ","esmith@purpleknights.com","2600 A.P. Tureaud Avenue","New Orleans              ","LA","70119","5049442424","5049477712","10-12"
"Jefferson Parish","St. Francis Xavier School (C)","Barbara  Martin ","stfrancisxav@archdiocese-no.org","215 Betz Place","Metairie                 ","LA","70005","5048331471","5048331498","PK4,K-7"
"Orleans Parish","Brother Martin Junior High School (Boys) (C)","Zachary  Fields ","zfields@brothermartin.com","4401 Elysian Fields Ave.","New Orleans              ","LA","70122","5042831561","5042868462","7-9"
"Jefferson Parish","Academy of Our Lady (Girls) (C)","Sr. Michelle  Geiger, FMA","srmgeiger@theacademyofourlady.org","537 Avenue D","Marrero                  ","LA","70072","5043416217","5043416229","8-12"
"Orleans Parish","Holy Name of Jesus School (C)","Courtney  Wolbrette ","hnjschool@hnjschool.org","6325 Cromwell Place","New Orleans              ","LA","70118","5048611466","5048611480","PK4,K-7"
"Orleans Parish","Holy Ghost Elementary School (C)","Sr.Angela Theresa Smith SSF","holyghost@archdiocese-no.org","2035 Toledano Street","New Orleans              ","LA","70115","5048996782","5048996782","PK4,K-8"
"Orleans Parish","Holy Cross Senior High School (Boys) (C)","Joseph H. Murry PhD","jmurry@holycrosstigers.com","5500 Paris Avenue","New Orleans              ","LA","70122","5049423100","5042865665","8-12"
"Orleans Parish","De La Salle Junior High School (C)","Michael  Buras ","mburas@delasallenola.com","5300 St.Charles Avenue","New Orleans              ","LA","70115","5048955717","5048951300","8-9"
"Orleans Parish","Holy Rosary Academy (C)","Sr. Paulette  Tiefenbrunn, S.S.N.D ","ptiefenbrunn@holyrosarynola.org","2437 Jena Street","New Orleans              ","LA","70115","5044827173","5044827229","PK3,PK4,K-7"
"Orleans Parish","Christian Brothers School (Boys) (C)","Joey M. Scaffidi ","school@cbs-no.org","#8 Friederichs Avenue","New Orleans              ","LA","70124","5044866770","5044861053","5-7"
"Orleans Parish","Cabrini High School (Girls) (C)","Yvonne  Hrapmann ","jsimeon@cabrinihigh.com","1400 Moss Street","New Orleans              ","LA","70119","5044821193","5044838671","8-12"
"St. John the Baptist Parish","Ascension of Our Lord School (C)","Tony  Ruiz ","truiz@aolcrusaders.org","1809 Greenwood Drive","LaPlace                  ","LA","70068","9856524532","9856515151","PK4,K-8"
"Jefferson Parish","Archbishop Shaw Sr. High School (C)","Rev. Louis  Konopelski SDB","arnoshaw@archdiocese-no.org","1000 Barataria Boulevard","Marrero                  ","LA","70072","5043406727","5043407899","10-12"
"Jefferson Parish","Archbishop Rummel Sr. High School (Boys) (C)","Michael  Scalco ","ehartman@rummelraiders.com","1901 Severn Avenue","Metairie                 ","LA","70001","5048345592","5048344871","10-12"
"Jefferson Parish","Archbishop Chapelle High School (Girls) (C)","Cathy  Yaeger ","cyaeger@archbishopchapelle.org","8800 Veterans Blvd.","Metairie                 ","LA","70003","5044673105","5044663191","8-12"
"City of Bogalusa","Annunciation School (C)","Veda R. Matthews ","annunciationsch@archdiocese-no.org","511 Avenue C","Bogalusa                 ","LA","70427","9857356643","9857356119","PK3,PK4,K-8"
"Jefferson Parish","Immaculate Conception School (C)","Sr. Helen  Godin, FMA","iconception@archdiocese-no.org","601 Avenue C","Marrero                  ","LA","70072","5043474409","5043412766","PK3,PK4,K-8"
"Jefferson Parish","Christ the King School (C)","Cindy  Ruel ","christkingsch@archdiocese-no.org","2106 Deerfield Road","Terrytown                ","LA","70056","5043673601","5043673679","PK3,PK4,K-8"
"Caddo Parish","First Baptist Church School","James  Gillespie ","krobinson@fbcschool.org","533 Ockley Drive","Shreveport               ","LA","71106","3188692361","3188690125","PK3,PK4,K-8"
"Orleans Parish","Auntie B. Preschool and Kindergarten","Stephen  Uwaezuoke ","steveuwa@cox.net","8001 Lafourche Street","New Orleans              ","LA","70127","5042429299","5042429305","PK3,PK4,K"
"Jefferson Parish","Conquering Word Christian Academy","Carolyn R. Treaudo PhD","conqueringword@hotmail.com","812 Avenue F","Marrero                  ","LA","70072","5043282273","5043282204","PK4,K-12"
"Orleans Parish","Conquering Word Christian Academy Eastbank","Beryl Cook Soniat ","conqueringword@hotmail.com","812 Avenue F","Marrero                  ","LA","70072","5043282273","5043282204","PK3,PK4,K-12"
"Caddo Parish","St. Mark's Cathedral School (E)","Christopher  Carter ","ccarter@stmarksschool.com","2785 Fairfield Avenue","Shreveport               ","LA","71104","3182217454","3182217060","PK3,PK4,K-8"
"Tangipahoa Parish","Gordon-Richardson Christian Academy","Joseph  Richardson ","veronica.richardson@tangischools.org","P.O. Box 246","Amite                    ","LA","70422","9857484907","          ","PK4,K-7"
"Caddo Parish","Southfield School","Jeff Wallace Stokes ","jstokes@southfield-school.org","1100 Southfield Road","Shreveport               ","LA","71106","3188685375","3188690890","PK3,PK4,K-8"
"Calcasieu Parish","Bishop Noland Episcopal Day School","Frances C. Kay ","bkay@episcopaldayschool.org","803 North Division Street","Lake Charles             ","LA","70601","3374335246","3374361248","PK3,PK4,K-8"
"East Baton Rouge Parish","BR Montessori Kids (formerly Maranantha)","Mary Anne Grosch ","info@brmontessorikids.com","12663 Perkins Road","Baton Rouge              ","LA","70810","2257672500","          ","PK4,K"
"Claiborne Parish","Claiborne Academy","Jane  Brown ","jane.brown5552@gmail.com","6741 Hwy. 79","Haynesville              ","LA","71038","3189272747","3189274519","PK4,K-12"
"DeSoto Parish","Central School Corporation","Robert  Peters PhD","centrl@bellsouth.net","P. O. Box 187","Grand Cane               ","LA","71032","3188583319","3188586394","K-12"
"Terrebonne Parish","Messiah Montessori","Dr.Jules  Boquet ","messiahm@harvestcm.org","P.O. Box 20027","Houma                    ","LA","70360","9858578808","9858513116","PK3,PK4,K-9"
"Rapides Parish","Alfred Booker, Jr. Academy","Jamie  Massie ","sheldon.eakins@abja-sda.com","916 Richmond Drive","Alexandria               ","LA","71301","3184423621","3184423622","PK3,PK4,K-8"
"Calcasieu Parish","Eternity Christian Academy & Learning Inst.","Dr. Rose M. Cooks ","pastorcarrier@bellsouth.net","P.O. Box 343","Lake Charles             ","LA","70602","3374334138","3374336800","K-8"
"Central Community","Central Private School","Dr. Jim  Surratt ","cp@centralprivate.org","12801 Centerra Court","Central                  ","LA","70714","2252613341","2252613490","PK3,PK4,K-12"
"East Baton Rouge Parish","Episcopal High School","Hugh M. McIntosh ","mcintoshh@ehsbr.org","3200 Woodland Ridge Blvd.","Baton Rouge              ","LA","70816","2257510808","2257560926","PK4,K-12"
"St. Landry Parish","Family Worship Christian Academy","Alysia M. Richard ","alysia_richard@yahoo.com","P.O. Box 1463","Opelousas                ","LA","70571","3379421563","3379421521","PK4,K-12"
"East Baton Rouge Parish","Baton Rouge Lutheran School","Gordon E. Schamber ","brlutheran@brlutheranschool.org","10925 Florida Boulevard","Baton Rouge              ","LA","70815","2252721288","2252728504","PK4,K-8"
"East Baton Rouge Parish","Runnels School","L. K. Runnels ","k.runnels@runnels.org","17255 S Harrells Ferry Rd.","Baton Rouge              ","LA","70816","2257515712","2257530276","K-12"
"East Baton Rouge Parish","St. James Episcopal Day School","Linda S. Chauviere ","lchauviere@stjamesbr.org","P.O. Box 3011","Baton Rouge              ","LA","70821","2253440805","2253434873","PK4,K-5"
"East Baton Rouge Parish","St. Luke's Episcopal School","Amy J. Whitley ","awhitley@stlukesbrschool.org","8833 Goodwood Boulevard","Baton Rouge              ","LA","70806","2259278601","2259282542","PK3,PK4,K-8"
"East Baton Rouge Parish","Trinity Episcopal Day School","Kim  Jones ","kjones@trinityschoolbr.org","3550 Morning Glory Avenue","Baton Rouge              ","LA","70808","2253870398","2253873145","PK3,PK4,K-5"
"East Carroll Parish","Briarfield Academy","Lance M. Prine ","lprine@briarfieldacademy.com","301 Riddle Lane","Lake Providence          ","LA","71254","3185592360","3185592360","PK4,K-12"
"East Feliciana Parish","Silliman Institute","Ann K. Kent ","tforrester@sillimaninstitute.org","P.O. Box 946","Clinton                  ","LA","70722","2256835383","2256836728","PK4,K-12"
"Franklin Parish","Franklin Academy","Phillip A. Jackson ","k.boquet@facougars.org","2110 Loop Road","Winnsboro                ","LA","71295","3184359520","3184359508","K-12"
"Jefferson Parish","Atonement Lutheran School","Doug  Molin ","schooloffice@alcs.org","6500 Riverside Drive","Metairie                 ","LA","70003","5048870225","5048870225","PK3,PK4,K-8"
"Jefferson Parish","Concordia Lutheran School","Debra M. Sweeden ","TJSRICH@yahoo.com","6700 B Westbank Expressway","Marrero                  ","LA","70072","5043474155","5043489345","PK4,K-8"
"Jefferson Parish","Crescent City Christian School","David  Jochum ","djochum@ccchristian.net","4828 Utica Street","Metairie                 ","LA","70006","5048854700","5048854703","K-12"
"Jefferson Parish","John Curtis Christian School","John T. Curtis Jr.","lbcurtis@johncurtis.com","10125 Jefferson Highway","River Ridge              ","LA","70123","5047374621","5047377326","PK3,PK4,K-12"
"St. Martin Parish","Evangel House Christian Academy","Mark D. Barrentine ","admissions@evangelhouse.com","P. O. Box 139","St. Martinville          ","LA","70582","8009244012","8662236842","6-12"
"Jefferson Parish","Ecole Classique","Sal J. Federico ","david-federico@ecoleclassique.com","5236 Glendale Street","Metairie                 ","LA","70006","5048873507","5048878140","PK4,K-12"
"Jefferson Parish","Faith Lutheran School","Diane K. Oestriecher ","fls-office@att.net","300 Colonial Club Drive","Harahan                  ","LA","70123","5047379554","5047379599","PK4,K-8"
"Jefferson Parish","Heritage Academy","Harry B. DeKay Jr.","HeritageAcad@bellsouth.net","2900 Wytchwood Drive","Metairie                 ","LA","70003","5048877111","5048853006","7-12"
"Jefferson Parish","Kehoe-France School","Janet  Pananos ","carol@kehoe-france.com","720 Elise Avenue","Metairie                 ","LA","70003","5047330472","5047330477","PK3,PK4,K-8"
"Jefferson Parish","Metairie Park Country Day School","Carolyn  Chandler ","carolyn_chandler@mpcds.com","300 Park Road","Metairie                 ","LA","70005","5048375204","5048370015","PK4,K-12"
"Vermilion Parish","Lighthouse Christian Preparatory School","Tiffany  Spraggins ","lchs@cox-internet.com","6526 Chiasson Road","Abbeville                ","LA","70510","3378938740","          ","6-12"
"Jefferson Parish","Ridgewood Preparatory School","Milton J. Montgomery Jr.","acalix@ridgewoodprep.com","201 Pasadena Avenue","Metairie                 ","LA","70001","5048352545","5048371864","PK4,K-12"
"Jefferson Parish","St. Martin's Episcopal School (E)","Merry  Sorrells ","toni.caserta@stmsaints.com","225 Green Acres Road","Metairie                 ","LA","70003","5047330353","5047368800","PK4,K-12"
"East Baton Rouge Parish","Cypress Heights Academy (C)","Sean  Preston PhD","spreston@cypressheights.org","P.O. Box 83675","Baton Rouge              ","LA","70835","2257551558","2257551568","PK4,K-8"
"Franklin Parish","Family Community Christian School","Elizabeth H. Rigdon ","ehrigdon@yahoo.com","2023 Highway 15","Winnsboro                ","LA","71295","3184354791","3184354792","PK3,PK4,K-12"
"Lafayette Parish","Ascension Episcopal School","Dr. David  Rath,Ed.D ","drath@aesgators.com","1030 Johnston Street","Lafayette                ","LA","70501","3372339748","3372699768","PK3,PK4,K-12"
"Lafayette Parish","Gethsemane Christian Academy","Mae C. Winbush ","gethsemaneschool@aol.com","P.O. Box 2906","Lafayette                ","LA","70502","3372332750","3372649289","PK3,PK4,K-8"
"East Baton Rouge Parish","Greater Mt. Olive Christian Academy (B)","Beverly  Wallace ","jdixon@gmombc.org","3155 Victoria Dr.","Baton Rouge              ","LA","70805","2253555155","2253555122","PK4,K-3"
"Lincoln Parish","Bethel Christian School","Nancy I. Stevenson ","nancybcs54@yahoo.com","2901 Winona Drive","Ruston                   ","LA","71270","3182551112","3185131113","PK3,PK4,K-12"
"Lincoln Parish","Cedar Creek School","Andrew  Yepson ","ayepson@cedarcreekschool.org","2400 Cedar Creek Drive","Ruston                   ","LA","71270","3182557707","3182512846","PK4,K-12"
"Madison Parish","Tallulah Academy-Delta Christian School","Donald H. Pennington ","dpennington@tallulahacademy.org","700 Wood Street","Tallulah                 ","LA","71282","3185742606","3185743390","PK3,PK4,K-12"
"Livingston Parish","Amite Christian School","Terry  Booth ","tbooth@amitechurch.org","7100 Amite Church Road","Denham Springs           ","LA","70706","2256652060","          ","K-5"
"Morehouse Parish","Prairie View Academy","Edward D. Bain ","edbain@prairieviewacademy.com","9942 Edwin Street","Bastrop                  ","LA","71220","3182817044","3182814113","K-12"
"East Baton Rouge Parish","Baton Rouge International School","Nathalie  Guyon ","brisla@yahoo.com","5015 Autoplex Drive","Baton Rouge              ","LA","70809","2252934338","2252934307","K-12"
"Jefferson Parish","Arden Cahill Academy","Mary Kevin Cahill ","ardencahill@yahoo.com","3101 Wall Boulevard","Gretna                   ","LA","70056","5043920902","5043923813","PK3,PK4,K-8"
"East Baton Rouge Parish","McKanstry Preparatory School/Little Scholars","Shelia  Simon-McKanstry ","imckanstry@yahoo.com","10022 Greenwell Springs Rd.","Baton Rouge              ","LA","70814","2252720730","2252720730","PK4,K-6"
"Jefferson Parish","Lutheran High School (L)","Lois  Rost ","lrost@lutheranhighschool.net","3864 17th Street","Metairie                 ","LA","70002","5044554062","5044554453","9-12"
"Orleans Parish","The Louise S. McGehee School (GIRLS)","Eileen F. Powers ","eileenp@mcgeheeschool.com","2343 Prytania Street","New Orleans              ","LA","70130","5045611224","5045851786","PK4,K-12"
"Rapides Parish","Cenla Christian Academy","Gerald  Crooks ","gcrooks0710@gmail.com","2900 Donahue Ferry Road","Pineville                ","LA","71360","3186404787","3186400697","7-12"
"Orleans Parish","Isidore Newman School","Thomas J. Locke PhD","rebeccathomason@newmanschool.org","1903 Jefferson Avenue","New Orleans              ","LA","70115","5048966328","5048968597","PK4,K-12"
"Orleans Parish","McMillian's First Steps CCDC","Linda  McMillian ","mcmillianfirst@yahoo.com","2601 South Claiborne Avenue","New Orleans              ","LA","70125","5046504798","          ","PK4,K"
"Beauregard Parish","BeauVer` Christian Academy","Maysia D. Coker ","mdcoker2001@yahoo.com","3132 Highway 190 West","DeRidder                 ","LA","70634","3374636100","3374636101","K-12"
"Orleans Parish","St. George's Episcopal School","Robert E. Eichberger PhD","rob@stgeorges.k12.la.us","923 Napoleon Avenue","New Orleans              ","LA","70115","5048915509","5048951225","PK3,PK4,K-8"
"Orleans Parish","St. John Lutheran School","Bethany  Gonski ","SJLC1@bellsouth.net","3937 Canal Street","New Orleans              ","LA","70119","5044886641","5044822101","PK3,PK4,K-6"
"Orleans Parish","St. Paul Lutheran School (L)","Susann M. Schiller ","sptigers@bellsouth.net","2624 Burgundy Street","New Orleans              ","LA","70117","5049471773","5049453743","K-8"
"Orleans Parish","St. Paul's Episcopal School (E)","Charleen  Schwank ","blyons@stpauls-lakeview.org","6249 Canal Boulevard","New Orleans              ","LA","70124","5044881319","5043048315","PK4,K-8"
"Orleans Parish","Trinity Episcopal School","Rev.Dr.Michael  Kuhn ","mkuhn@trinitynola.com","1315 Jackson Avenue","New Orleans              ","LA","70130","5045258661","5045234837","PK4,K-8"
"Jefferson Parish","Muslim Academy","Nabil  Abukhader ","BAbukhader@aol.com","440 Realty Drive","Gretna                   ","LA","70056","5044331960","5044337875","1-12"
"Ouachita Parish","Ouachita Christian School (CC)","William Robert Stokes ","bstokes@ocs.org","7065 Highway 165 N","Monroe                   ","LA","71203","3183256000","3183877000","PK4,K-12"
"Ouachita Parish","River Oaks School","William Thomas Middleton, Ed.D. ","tmiddleton1@centurytel.net","600 Finks Hideaway Road","Monroe                   ","LA","71203","3183434185","3183431107","K-12"
"City of Monroe","Grace Episcopal School","Beth  Ricks ","bricks@graceepiscopal.org","1400 North Fourth Street","Monroe                   ","LA","71201","3183225837","3183226956","PK4,K-8"
"Vernon Parish","Faith Training Christian Academy High School","Richard J. Reese Sr.","rjreesesr@yahoo.com","603 East Mechanic Street","Leesville                ","LA","71446","3373921569","3372391044","6-12"
"Terrebonne Parish","Covenant Christian Academy","Steve  Folmar ","steve@fbchouma.com","4863 W. Park","Houma                    ","LA","70364","9858517567","          ","K-12"
"Pointe Coupee Parish","False River Academy","Kenneth R. LeBeau ","kenneth.lebeau@falseriveracademy.org","201 Major Parkway","New Roads                ","LA","70760","2256383783","2256388555","PK4,K-12"
"Rapides Parish","Alexandria Country Day School","Nancy  Rials ","nrials@acdsonline.org","5603 Bayou Rapides Road","Alexandria               ","LA","71303","3184481475","3184427924","PK3,PK4,K-8"
"Red River Parish","Riverdale Academy","Jamie  Lawrence ","jlawrence@riverdaleacademy.org","100 Riverdale Road","Coushatta                ","LA","71019","3189325876","3189324355","PK4,K-12"
"Richland Parish","Riverfield Academy","Sherri  Slade ","racademy@riverfieldacademy.net","115 Wood Street","Rayville                 ","LA","71269","3187283281","3187283285","PK3,PK4,K-12"
"St. Bernard Parish","Lynn Oaks School","Troy  Dean ","tdean@lynnoaks.com","#1 Lynn Oaks Drive","Braithwaite              ","LA","70040","5046823171","5046823173","PK3,PK4,K-8"
"St. John the Baptist Parish","Riverside Academy","Perry J. DiCarlo ","pdicarlo@riversideacademy.com","332 Railroad Avenue","Reserve                  ","LA","70084","9855364246","9855362127","K-12"
"Caldwell Parish","Old Bethel Christian Academy","Sandra  Richmond ","srrich1@bellsouth.net","P.O. Box 95","Clarks                   ","LA","71415","3186490281","3186490281","PK4,K-10"
"St. Martin Parish","Episcopal School of Acadiana","Charles Henry Skipper PhD","cskipper@esacadiana.com","P. O. Box 380","Cade                     ","LA","70519","3373651416","3373679841","PK4,K-12"
"St. Mary Parish","Chitimacha Tribal School","Tanya Migues Rosamond ","tanya@chitimacha.gov","3613 Chitimacha Trail","Jeanerette               ","LA","70544","3379239960","3379237346","PK3,PK4,K-8"
"St. Tammany Parish","Kehoe-France Northshore","Brad  Humphreys ","bhumphreys@kehoe-francens.com","25 Patricia Drive","Covington                ","LA","70433","9858924415","9858757636","PK3,PK4,K-7"
"Lincoln Parish","New Living Word School","Jerry L. Baldwin ","jerrybaldwin@nlwm.org","P. O. Box 2052","Ruston                   ","LA","71272","3182550270","3182540081","PK4,K-12"
"Lafayette Parish","John Paul The Great Academy","Kevin D. Roberts PhD","kroberts@jpgacademy.org","1522 Carmel Drive","Lafayette                ","LA","70501","3378895345","3378895347","K-12"
"Tangipahoa Parish","Emmanuel SDA School","Ezrone  Bernard ","principalebernard@gmail.com","702 North Cherry Street","Hammond                  ","LA","70401","9853457713","9853457190","K-8"
"Tangipahoa Parish","Oak Forest Academy","Jason H. Brabham ","brabham@ofajackets.com","600 Walnut Street","Amite                    ","LA","70422","9857484222","9857484320","PK4,K-12"
"East Baton Rouge Parish","Angles Academy","Adrienne  Thomas ","athomas@anglesacademy.com","P. O. Box 2211","Baton Rouge              ","LA","70821","2259249770","2259249770","K-10"
"Tensas Parish","Tensas Academy","Jimmy D. Comeaux ","coachcomeaux@tensasacademy.org","P.O. Box 555","St. Joseph               ","LA","71366","3187664384","3187663559","PK4,K-12"
"Terrebonne Parish","St. Matthew's Episcopal School","Cheryl E. Matherne ","cheryl.matherne@stmattshouma.org","266 Gabasse Street","Houma                    ","LA","70360","9858725573","9858689850","PK4,K-7"
"Washington Parish","Bowling Green School","Beverly  Young ","bgs@franklinton.net","700 Varnado Street","Franklinton              ","LA","70438","9858395317","9858395668","PK4,K-12"
"Webster Parish","Glenbrook School","Darden F. Gladney ","dgladney@glenbrookschool.com","1674 Country Club Circle","Minden                   ","LA","71055","3183772135","3183770578","K-12"
"Caddo Parish","Word Of God Academy","W. Edward Hearron ","ehearron@wogacademy.org","2820 Summer Grove Drive","Shreveport               ","LA","71118","3186879003","3186879607","PK3,PK4,K-8"
"East Baton Rouge Parish","Christian Life Academy","Peter S. Barnes ","Betty.Holstein@gocrusaders.com","2037 Quail Drive","Baton Rouge              ","LA","70808","2257696760","2257698068","PK4,K-12"
"Bossier Parish","Providence Classical Academy","Howard Q. Davis ","office.pca@gmail.com","4525 Old Brownlee Road","Shreveport               ","LA","71111","3188209465","0000000000","PK4,K-9"
"East Baton Rouge Parish","The Dunham School","Robert W. Welch ","bobby.welch@dunhamschool.org","11111 Roy Emerson Drive","Baton Rouge              ","LA","70810","2257677097","2257677056","PK4,K-12"
"East Baton Rouge Parish","Brighton School","Kenneth B. Payne ","kpayne@thebrightonschool.org","12108 Parkmeadow Avenue","Baton Rouge              ","LA","70816","2252912524","          ","K-12"
"East Baton Rouge Parish","Elan Vital Montessori School","Erin  Rice ","erice@elanvitalmontessori.org","5228 Perkins Road","Baton Rouge              ","LA","70808","2257676620","2250000000","PK3,PK4,K-4"
"St. Tammany Parish","Healing Waters Montessori School","Suzanne Rizan Burns ","healingwatersmont@yahoo.com","71642 Keller Street","Abita Springs            ","LA","70420","9858711441","          ","PK3,PK4,K"
"East Baton Rouge Parish","Hosanna Christian Academy (AG)","S. Josh LeSage ","SJL@hcablazers.org","8850 Goodwood Boulevard","Baton Rouge              ","LA","70806","2259264885","2259268458","PK4,K-12"
"St. Tammany Parish","Lakeview Maria Montessori Preschool","Rachel L. Wilcox ","luvsdcalif@yahoo.com","502 North Florida Street","Covington                ","LA","70433","9858935492","          ","PK3,PK4,K"
"East Baton Rouge Parish","Greater Baton Rouge Hope Academy","Linda  Stone ","LStone@HopeAcademyBR.org","15333 Jefferson Highway","Baton Rouge              ","LA","70817","2252930141","2252930442","K-12"
"Ouachita Parish","Prevailing Faith Christian Academy","Kristen B. Pleasant ","pfca1111@yahoo.com","1111 Plaza Boulevard","Monroe                   ","LA","71201","3184101201","3184101000","PK3,PK4,K-5"
"East Baton Rouge Parish","Victory Academy","Janet Sue Cashio ","sue.cashio@victoryacademybr.org","3953 North Flannery Road","Baton Rouge              ","LA","70814","2252728339","2252720674","PK4,K-8"
"Caddo Parish","Living Word Academy","Timothy R. Thomas ","trthomas@bellsouth.net","4710 Linwood Avenue","Shreveport               ","LA","71108","3188615055","3188615059","PK3,PK4,K-2"
"Orleans Parish","Cathedral Montessori School","Jan E. Weiner ","cathedralmontessori@gmail.com","9 Fortress Road","New Orleans              ","LA","70122","5042524871","5042658059","PK3,PK4,K"
"Calcasieu Parish","First Baptist Christian Academy","David A. Rhodes ","dave@mossbluff-fbca.com","282 Old Highway 171","Lake Charles             ","LA","70611","3378559075","3378558484","K-8"
"Livingston Parish","Southland Christian Academy","Kaziah  Williams ","office@southlandsaints.com","7000 Gloryland Way","Denham Springs           ","LA","70726","2256677745","2256678551","9-12"
"Iberia Parish","Epiphany Day School (E)","Kathleen  O'Shaughnessy ","pcounce@eds-ni.com","120 Jefferson Street","New Iberia               ","LA","70560","3373646841","3373658209","PK4,K-5"
"Caddo Parish","Dreamkeepers Academy","Belena  Turner ","belenaturn@aol.com","6703 Melara Street","Shreveport               ","LA","71108","3187791228","3197791267","PK3,PK4,K-5"
"Caddo Parish","Evangel Christian Academy (AG)","Albert  Dean ","kfuller@evangelacademy.com","7425 Broadacres Road","Shreveport               ","LA","71129","3186887061","3186887322","K-12"
"Orleans Parish","Royal Castle Child Development Center","Pearlie B. Harris ","royalcastlekids@aol.com","3800 Eagle Street","New Orleans              ","LA","70118","5044881045","5044881465","PK4"
"St. Tammany Parish","Montessori Christian Academy, LLC","Mary  Collignon ","peggy@montessorichristianacademy.net","4441 Iberville Street","Mandeville               ","LA","70471","9856742720","9856742730","PK3,PK4"
"East Baton Rouge Parish","Jehovah-Jireh Christian Academy","Glenda A. Colbert ","ntjohnson74@gmail.com","1771 North Lobdell Blvd.","Baton Rouge              ","LA","70806","2259322357","2259322360","PK4,K-12"
"East Baton Rouge Parish","Family Christian Academy","Dave  Smith ","heatherc@jsm.org","P. O. Box 262550","Baton Rouge              ","LA","70826","2257683026","2257683213","K-12"
"Jefferson Parish","Memorial Baptist School","E. Jerry  Riggs ","arose@mbcmetairie.org","5701 Veterans Memorial Boulevard","Metairie                 ","LA","70003","5048870533","5048870610","PK4,K-4"
"St. Charles Parish","Boutte Christian Academy (AG)","Linda R. Davis ","bcaelem@yahoo.com","13271 Highway 90","Boutte                   ","LA","70039","9857852447","9857856641","PK4,K-8"
"East Baton Rouge Parish","Gardere Community Christian School","Nancy L. Zito ","nancyzito@gardereschool.com","5261 Highland Road #327","Baton Rouge              ","LA","70808","2253875082","2253875083","K-5"
"Allen Parish","Indian Bible Academy","John A. Cernak ","Indian-Bible@juno.com","152 Indian Church Road","Elton                    ","LA","70532","3375845151","          ","1-12"
"East Baton Rouge Parish","Parkview Baptist School","Dr. Don  Mayes ","don.mayes@parkviewbaptist.com","5750 Parkview Church Road","Baton Rouge              ","LA","70816","2252912500","2252934135","PK3,PK4,K-12"
"St. Tammany Parish","Northlake Christian High School","Monty  Fontenot ","mfontenot@northlakechristian.org","70104 Wolverine Drive","Covington                ","LA","70433","9856350400","9858922632","7-12"
"St. Tammany Parish","Northlake Christian Elementary School","Missie  Arnold ","chaindel@northlakechristian.org","70104 Wolverine Drive","Covington                ","LA","70433","9856350400","9858922632","K-6"
"Livingston Parish","Community Christian Academy","Joyce L. Wilson ","cca@iol27.com","400 River Road North","Denham Springs           ","LA","70726","2256655696","2256653098","PK3,PK4,K-12"
"Rapides Parish","Louisiana College Academy of Accelerated Studies","Dr. Anna  Nguyen ","nguyen@lacollege.edu","1405 Military Highway","Pineville                ","LA","71360","3184877303","3184877188","11-12"
"Iberia Parish","Assembly Christian School (AG)","Rev.Armand  Prentiss III","armand@accni.com","4219 East Admiral Doyle","New Iberia               ","LA","70560","3373644340","3373648310","PK3,PK4,K-12"
"St. Tammany Parish","Christ Episcopal School","John  Morvant ","pam@christepiscopalschool.org","80 Christwood Boulevard","Covington                ","LA","70433","9858929156","9858711626","PK3,PK4,K-12"
"Jefferson Parish","Victory Christian Academy (AG)","Michelle  Nichols ","info@victorychristianacademy.net","5708 Airline Hwy.","Metairie                 ","LA","70003","5047335087","5047343381","PK3,PK4,K-8"
"Orleans Parish","Calvary Baptist School","Carol L. Spears ","cspears@mycalvaryeagles.com","2401 General DeGaulle Drive","New Orleans              ","LA","70114","5043676465","5043676632","PK3,PK4,K-7"
"Caddo Parish","Calvary Baptist Academy","Kenneth N. Kruithof ","rhonea@calvaryshreveport.org","9333 Linwood Avenue","Shreveport               ","LA","71106","3186874923","3186874925","K-12"
"Tangipahoa Parish","Trafton Academy","Susan B. Day ","traftonoffice@i-55.com","P.O. Drawer 2845","Hammond                  ","LA","70404","9855427212","9855427213","PK4,K-8"
"East Baton Rouge Parish","Country Day School of Baton Rouge","Carla K. Schild ","cdsofBR@hotmail.com","4455 North Boulevard","Baton Rouge              ","LA","70806","2259284042","2259284044","K-5"
"St. Landry Parish","Westminster Christian Academy","Merida  Brooks ","tlanclos@wcala.org","186 Westminster Dr.","Opelousas                ","LA","70570","3379488607","3379488983","1-12"
"Lafayette Parish","First Baptist Christian School","Susan  Emerson ","susan.emerson@fbcslafayette.com","201 West Convent","Lafayette                ","LA","70501","3372371546","3372379970","PK3,PK4,K-8"
"Orleans Parish","St. Andrew's Episcopal School","Mason  Lecky ","office@standrewsepiscopalschool.org","8012 Oak Street","New Orleans              ","LA","70118","5048613743","5048613973","PK4,K-8"
"Calcasieu Parish","Hamilton Christian Academy","Ray  Shawa Jr.","tsensley@hcawarriors.org","1415 Eighth Street","Lake Charles             ","LA","70601","3374391178","3374941928","PK4,K-12"
"City of Baker","Bethany Christian School","Carolyn  DeSalvo ","carolyn.desalvo@bethany.com","13855 Plank Road","Baker                    ","LA","70714","2257740133","2257740163","K-12"
"Claiborne Parish","Mt. Olive Christian School (B)","Linda Lee Gantt ","ganttatmountolivechristianschool@yahoo.com","15349 Hwy. 9","Athens                   ","LA","71003","3182585661","3182585662","PK4,K-12"
"St. Tammany Parish","Cedarwood School","Kathryn  Leblanc ","kleblanc@cedarwoodschool.com","607 Heavens Drive","Mandeville               ","LA","70471","9858457111","9858450669","PK3,PK4,K-7"
"Orleans Parish","Bishop McManus School","Toni-Lynn O. Tyson PhD","ttyson@citychurchno.com","13123 I-10 Service Road","New Orleans              ","LA","70128","5042465121","5042465564","PK3,PK4,K-12"
"Ouachita Parish","Northeast Baptist School","Anita E. Watson ","awatson@mynbs.org","5225 I-20 Service Rd.","West Monroe              ","LA","71292","3183252077","3189980193","PK3,PK4,K-12"
"Jefferson Parish","Torah Academy (J)","David  Kaufmann PhD","Dybkaufmann@gmail.com","5210 W Esplanade Avenue","Metairie                 ","LA","70006","5044566429","5048887558","PK4,K-8"
"Rapides Parish","Grace Christian School (P)","Kay  Blackburn ","kay4949@aol.com","4900 Jackson Street","Alexandria               ","LA","71303","3184458735","3184431034","PK4,K-12"
"Ouachita Parish","Claiborne Christian School (CG)","Amy  Brooks ","fullydevotedfamily@yahoo.com","320 Laird Street","West Monroe              ","LA","71291","3183967968","3183970567","PK4,K-12"
"Jefferson Parish","Community Day School","Robert J. Berk PhD","bberk@nojds.com","3747 West Esplanade Avenue","Metairie                 ","LA","70002","5048874091","5047805691","K-5"
"Iberia Parish","Highland Baptist Christian School","Janie C. Lamothe ","jlamothe@hbcsni.org","708 Angers Street","New Iberia               ","LA","70563","3373642273","3373696303","PK4,K-12"
"Orleans Parish","New Orleans Adventist Academy","Sydney  Peart ","sydneypeart@yahoo.com","4500 Gawain Drive","New Orleans              ","LA","70127","5042402227","5042402692","K-8"
"East Baton Rouge Parish","Louisiana New School Academy","Valeria T. Thompson ","valisetinsel@yahoo.com","1900 North Blvd., Suite C","Baton Rouge              ","LA","70806","2253817238","2253818408","4-12"
"City of Monroe","Quest School","Donna P. Underwood ","dpu@olympi.com","2401 Oliver Road","Monroe                   ","LA","71201","3183226000","3183231200","2-8"
"East Baton Rouge Parish","Brighter Horizon School of Baton Rouge","Nabila S. Qasem ","principal@brighterhorizon.net","1896 Wooddale Boulevard","Baton Rouge              ","LA","70806","2259272521","2255907786","PK3,PK4,K-12"
"Acadia Parish","Northside Christian School (AG)","Randell James Trahan ","northsidechristian@cox-internet.com","809 East Northern Avenue","Crowley                  ","LA","70526","3377833620","3377883461","8-12"
"Terrebonne Parish","Houma Christian School","James  Champagne ","hcs@triparish.net","109 Valhi Blvd.","Houma                    ","LA","70360","9858517423","9858724958","K-12"
"Jefferson Davis Parish","Bethel Christian School (B)","Patricia  Landers ","pglanders55@gmail.com","15147 Highway 102","Jennings                 ","LA","70546","3378240020","3378240579","1-12"
"Orleans Parish","The Chartwell Center","Alice Gwynne Bowman ","chartwell@chartwellcenter.org","4239 Camp Street","New Orleans              ","LA","70115","5048992478","5048992416","NG"
"Orleans Parish","Life of Christ Christian Academy/Alternative","Cheryl Leufroy Frilot ","lccasoaringeagles@yahoo.com","1851 North Dorgenois St.","New Orleans              ","LA","70119","5049455778","5049455778","PK4,K-12"
"Ascension Parish","Faith Academy","Carol  Vaughn ","cvaughn@faithacademycrusaders.com","10473 Airline Highway","Gonzales                 ","LA","70737","2256443110","2256472368","PK4,K-8"
"Ascension Parish","Ascension Christian High School","Mark S. Pellegrin ","mpellegrin@achslions.com","14408 EA Academy Road","Gonzales                 ","LA","70737","2256222800","2256222875","8-12"
"St. Tammany Parish","First Baptist Christian School","Mona  Nelson ","mona.nelson@fbcslidell.org","4141 Pontchartrain Dr.","Slidell                  ","LA","70458","9856433725","9856419205","1-12"
"Orleans Parish","The Upperroom Bible Church Academy","Dr. Eric Jones ","upper9060@aol.com","8600 Lake Forest Blvd.","New Orleans              ","LA","70127","5042459060","5042463071","PK4,K-8"
"St. Tammany Parish","The Upperroom Bible Church Preschool & Academy","Kevin  Wingate ","upper9060@aol.com","8600 Lake Forest Boulevard","New Orleans              ","LA","70127","9856439060","9856439101","PK4,K-2"
"City of Bogalusa","Ben's Ford Christian School (B)","Donna  Blackwell ","donnablackwell@gotsky.com","59253 Mt. Pleasant Road #2","Bogalusa                 ","LA","70427","9857350387","9857350382","PK4,K-12"
"Caddo Parish","Montessori School for Shreveport","Heidi  Cooper ","mssadmit@comcast.net","2605 C.E. Galloway Blvd","Shreveport               ","LA","71104","3188616777","3188655793","PK3,PK4,K-8"
"St. Landry Parish","Good Shepherd Montessori School","Karleen J. Wyble ","goodshepherdmont@bellsouth.net","P.O. Box 547","Port Barre               ","LA","70577","3375859914","3375859913","PK4,K"
"East Baton Rouge Parish","La Printaniere Montessori","Suzanne D. Bassett ","laprintanieremon@bellsouth.net","5064 Perkins Road","Baton Rouge              ","LA","70808","2257692255","2257692255","PK3,PK4,K-5"
"Rapides Parish","Montessori Educational Center","Joelle  Flaherty ","joelle_flaherty@suddenlinkmail.com","4209 N Bolton Avenue","Alexandria               ","LA","71303","3184450138","3184450165","PK3,PK4,K-6"
"East Baton Rouge Parish","Montessori School of Baton Rouge","Molly  Williams ","montessorischoolofbr@gmail.com","8227 Wimbledon Avenue","Baton Rouge              ","LA","70810","2257669942","          ","PK4,K"
"Calcasieu Parish","Little Learners Montessori School","Angela G. Dupuis ","angie@llmontessori.com","73 Center Circle","Sulphur                  ","LA","70663","3376259357","3376259357","PK4,K"
"Lincoln Parish","Wildflower Montessori School","Angie  Borden ","wildflowermontes@bellsouth.net","700 W Woodward Avenue","Ruston                   ","LA","71270","3182511590","          ","PK3,PK4,K-8"
"Orleans Parish","University Montessori School","Teddi  Locke ","umsno@bellsouth.net","7508 Burthe Street","New Orleans              ","LA","70118","5048651659","5048659194","PK4"
"St. Tammany Parish","Covington Montessori School","Dr.  Carter ","covingtonmontessori@gmail.com","116 N Monroe Street","Covington                ","LA","70433","9858930676","0000000000","PK3,PK4,K"
"Tangipahoa Parish","Oaks Montessori School","Teri S. Bickham ","teri@montessori.net","43283 South Range Road","Hammond                  ","LA","70403","9853458088","9854190588","PK3,PK4,K-6"
"Jefferson Parish","Stepping Stones Montessori School","Amber A. Trepagnier ","ssmnav36@aol.com","552 Terry Parkway","Gretna                   ","LA","70056","5043620513","          ","PK3,PK4,K"
"St. Tammany Parish","Northminster Montessori Preschool (P)","Sue  Dorion ","northminster@att.net","63140 N Military Road","Pearl River              ","LA","70452","9858630800","9858630160","PK3,PK4,K"
"Lafayette Parish","Lafayette Christian Academy","Dan  Savoie ","dsavoie@lafayettechristianacademy.com","220 Portland Avenue","Lafayette                ","LA","70507","3372349860","3372333555","8-12"
"East Baton Rouge Parish","Riverdale Christian Academy","Todd  Whirley ","Todd@riverdalechristianacademy.org","2791 Oneal Lane","Baton Rouge              ","LA","70816","2257536722","2257514341","6-12"
"Orleans Parish","Light City Christian Academy","Zella T. Markey ","zmbrain@yahoo.com","6117 St. Claude Avenue","New Orleans              ","LA","70117","5042776828","5042770036","K-12"
"Zachary Community","Trinity Christian Academy","Veronica  Watson ","watson@trinitychristianacademy-zachary.com","4315D Church Street","Zachary                  ","LA","70791","2256544964","2256544942","4-12"
"Union Parish","Union Christian Academy","Bill  Ritz ","kay.hicks@unionchristianacademy.org","110 West Hill Street","Farmerville              ","LA","71241","3183688890","3183682920","PK3,PK4,K-12"
"Jefferson Parish","Knights Academy and High School","Shouna  Catanese ","knightsacademy@cox.net","2059 Bonn Street","Harvey                   ","LA","70058","5043288223","5043288466","1-12"
"Orleans Parish","Ecole Bilingue de la Nouvelle-Orleans","Pauline  Dides ","info@ebnola.com","821 General Pershing Street","New Orleans              ","LA","70115","5048964500","5048969610","PK4,K-7"
"Jefferson Parish","Islamic School of Greater New Orleans","Fouzia  Khan ","adminisgno2008@gmail.com","2420 Illinois Avenue","Kenner                   ","LA","70062","5044664055","5044664830","PK3,PK4,K-8"
"East Baton Rouge Parish","Shiloh Baptist Early Learning Academy","Eula  Smith ","evercher@bellsouth.net","185 Eddie Robinson Drive","Baton Rouge              ","LA","70802","2253434734","2253468065","PK3,PK4,K-1"
"Jefferson Parish","Faith Christian Academy","Mary  Jackson ","faithchristianacademy504@yahoo.com","6216 Sixth Avenue","Marrero                  ","LA","70072","5043402894","5043400920","PK4,K-6"
"Orleans Parish","Odyssey House Academy","Jerry  Estopinal ","jestopinal@ohlinc.org","4730 Washington Avenue","New Orleans              ","LA","70125","5043248288","5043249765","6-12"
"Rapides Parish","Youth Challenge Program-Camp Beauregard","CPT Kenneth  Paul ","kenneth.paul1@us.army.mil","505 F Street, Camp Beauregard","Pineville                ","LA","71360","3186415805","3186413313","11"
"Iberville Parish","Youth Challenge Program-Gillis Long","Louis  Joseph ","louis.joseph@us.army.mil","5445 Point Clair Road Bldg 19","Carville                 ","LA","70721","2253194624","2253194645","11"
"Webster Parish","Youth Challenge Program-Camp Minden","Myron  Turner CW3","starla.d.townsend@us.army.mil","200 Louisiana Blvd","Minden                   ","LA","71055","3183824101","3183824129","11"
"Rapides Parish","Red River Academy","Elvin  McCann ","principal@redriveracademy.net","P.O. Box 1255","Lecompte                 ","LA","71346","3187765655","3187765654","7-12"
