" School Name","Principal","Email","Address","City","State","Zip","Phone"
"Academy of the Holy Cross","Ann Nichols","anichols@academyoftheholycross.org","4920 Strathmore Avenue","Kensington","MD ","20895","(301) 942-2100"
"Academy Primary School","Debbie Sullivan","academyhills@comcast.net","10107 Darnestown Rd","Rockville","MD ","20850","(301) 424-9475"
"Alef Bet Montessori School","Ellie Lichtash","ellie@alefbetmontessori.org","11418 Old Georgetown Road","North Bethesda","MD ","20852","(301) 881-9010"
"Apple Montessori School","Sandra Gaddy","applemontessori@aol.com","7210 Hidden Creek Road","Bethesda","MD ","20817","(301) 320-8832"
"The Avalon School","Richard B. McPherson"," rmcpherson@avalonschools.org","200 W. Diamond Avenue","Gaithersburg","MD ","20877","(301) 963-8022"
"Beginnings Montessori School","Ted Higson","beginningsm@gmail.com","16 Howard Street","Cumberland","MD ","21502","(301) 722-2220"
"Bishop Walsh School","Shelby Webb","swebb@bishopwalsh.org","700 Bishop Walsh Road","Cumberland","MD ","21502","(301) 724-5360"
"Aleph-Bet Jewish Day School","Nan Jarashow","info@alephbet.org","1125 Spa Road","Annapolis","MD ","21403","(410) 263-9044"
"Annapolis Area Christian School","Rick Slenk","admissions@aacsonline.org","716 Bestgate Road","Annapolis ","MD ","21401","(410) 519-5300"
"Annapolis Area Christian School","Nancy Pavlischek","admissions@aacsonline.org","109 Burns Crossing Road","Severn","MD ","21144","(410) 519-5300"
"Archbishop Spalding High School","Van Wambeke","vanwambekel@archbishopspalding.org","8080 New Cut Road","Severn","MD ","21144","(410) 969-9105"
"Chesapeake Montessori School","Deborah Bricker ","cms@chesapeake-montessori.com","30 Old Mill Bottom Road","Annapolis","MD ","21409","410-757-4740"
"Community Christian Pre-School and Kindergarten","Vickie Whitley","v.whitley@asburychristianpreschool.org","8680 Fort Smallwood Road","Pasadena","MD ","21122","410-757-7113"
"Creative Garden Learning Center",,"glenburnie@creativegardenschools.com","717 East Ordnance Road","Baltimore","MD ","21226","(410) 761-7600"
"Creative Garden School",,"crofton@creativegardenschools.com","1560 Crofton Parkway","Crofton ","MD ","21114","(410) 721-7711"
"Eagle Cove School","Laura Kang","lkang@eaglecoveschool.org","5191 Mountain Road","Pasadena ","MD ","21122","(410) 255-5370"
"Indian Creek School","Gerard J.P. Connolly","gconnolly@indiancreekschool.org","680 Evergreen Road","Crownsville ","MD ","21032","(410) 923-3660"
"Key School, The","Marcella Yedid","communications@keyschool.org","534 Hillsmere Drive","Annapolis ","MD ","21403","(410) 263-9231"
"Montessori International Children's House","Elizabeth Whitaker","ewhitaker@montessoriinternational.org","1641 N. Winchester Road","Annapolis ","MD ","21409","(410) 757-7789"
"Severn School","Gina Limon","g.limon@severnschool.com","201 Water Street","Severna Park","MD ","21146","(410) 647-7700"
"St. Andrew's United Methodist Day School","Leslie Redwine","lredwine@standrewsum.org","4 B Wallace Manor Road","Edgewater ","MD ","21037","(410) 266-0952"
"St. Anne's School of Annapolis","Lisa Nagel","lnagel@st.annesschool.org","3112 Arundel on the Bay Road","Annapolis","MD ","21403","(410) 263-8650"
"St. Margaret's Day School","Sarah Lamming","sarah@st-margarets.org","1605 Pleasant Plains Road","Annapolis ","MD ","21409","(410) 757-2333"
"St. Martin's-in-the-Field Episcopal School","Frank Sawyer","info@stmartinsdayschool.org","375-A Benfield Road","Severna Park","MD ","21146","(410) 647-7055"
"St. Mary's High School","Richard A. Bayhan","rbayhan@stmarysannapolis.org","113 Duke of Gloucester Street ","Annapolis","MD ","21401","(410) 263-3294"
"Wee Lad & Lassie Early Learning Center","Lisa B. Herbst","weeladandlassie@verizon.net","1281 Baltimore-Annapolis Boulevard","Arnold ","MD ","21012","(410) 647-2178"
"Weems Creek Nursery School & Kindergarten","Maggie Riith","mtriith@weemscreeknurseryschool.com","238 Kirkley Road ","Annapolis","MD ","21401","(410) 266-5522"
"Archbishop Curley High School","Philip Piercy","ppiercy@archbishopcurley.org","3701 Sinclair Lane","Baltimore ","MD ","21213","(410) 485-5000"
"Baltimore Youth Initiative High School","Geri Lynn Peak","geripeak@byihs.org","4701 Yellowwood Avenue","Baltimore ","MD ","21209","(410) 709-8427"
"Bnos Yisroel of Baltimore","Christopher J. Post","CPost@boyslatinmd.com","822 West Lake Avenue","Baltimore ","MD ","21210","(410) 377-5192"
"Bryn Mawr School, The","Amanda Macomber","alumnae@brynmawrschool.org","109 West Melrose Avenue","Baltimore ","MD ","21210","(410) 323-8800"
"Calvary Lutheran School","Deborah Heilman","principal@calvarylutheranschoolmd.org","2625 East Northern Parkway","Baltimore ","MD ","21214","(410) 426-4302"
"Calvert School","Matt Buck","mbuck@calvertschoolmd.org","105 Tuscany Road","Baltimore ","MD ","21210","(410) 243-6054"
"Catholic High School of Baltimore, The","Marsha Meyd","mmeyd@thecatholichighschool.org","2800 Edison Highway","Baltimore ","MD ","21213","(410) 732-6200"
"Church of the Redeemer Parish Day School","Nancy C. Baker","nbaker@redeemerpds.org","5603 North Charles Street","Baltimore ","MD ","21210","(410) 435-9510"
"Cristo Rey Jesuit High School","Jessica Favret","jfavret@cristoreybalt.org","420 South Chester Street","Baltimore ","MD ","21231","(410) 727-3255"
"Gilman School","Peter Kwiterovich","pkwiterovich@gilman.edu","5407 Roland Avenue","Baltimore ","MD ","21210","(410) 323-3800"
"GreenMount School, The","Stephen Warner","swarner@greenmountschool.org","501 West 30th Street","Baltimore","MD ","21211","(410) 235-6295"
"New Hope Academy & Preschool","Joy Morrow","office@newhopeacademy.org","7009 Varnum Street","Landover Hills","MD ","20784","(301) 459-7311"
"Institute of Notre Dame","Karen Kane","kkane@indofmd.org","901 Aisquith Street","Baltimore","MD ","21202","(410) 522-7800"
"International Connections Academy","Steven Guttentag","NaCAadvisor@connectionseducation.com","1001 Fleet Street","Baltimore","MD ","21202","(877) 804-6222"
"Mercy High School","Pegeen D'Agostino","pdagostino@mercyhighschool.com","1300 East Northern Parkway","Baltimore","MD ","21239","(410) 433-8880"
"Mount St. Joseph High School","George Andrews","gandrews@admin.msjnet.edu","4403 Frederick Avenue","Baltimore","MD ","21229","(410) 644-3300"
"Roland Park Country School","Jean Waller Brune","brunej@rpcs.org","5204 Roland Avenue","Baltimore","MD ","21210","(410) 323-5500"
"Saint David's Day School","Lucy W. Zouck","stdavidsdayschool@verizon.net","4700 Roland Avenue","Baltimore","MD ","21210","(410) 366-2133"
"Saint Frances Academy","Curtis Turner","curtis.turner@sfacademy.org","501 East Chase Street","Baltimore","MD ","21202","(410) 539-5794"
"Seton Keough High School, The","Angela Calamari ","acalamari@setonkeough.com","1201 South Caton Avenue","Baltimore","MD ","21227","(410) 646-4444"
"St. Ignatius Loyola Academy","Teresa Scott","teresa.scott@saintignatius.org","740 North Calvert Street","Baltimore","MD ","21202","(410) 539-8268"
"Waldorf School of Baltimore, The","Pat Whitehead","pwhitehead@twsb.org","4801 Tamarind Rd.","Baltimore","MD ","21209","(410) 367-6808"
"A Small World, Inc.",,"aswpreschool@hotmail.com","4506 Painters Mill Road","Owings Mills","MD ","21117","(410) 356-9290"
"All About Children Learning Center at Shelbourne","Kim Michael","aaclcltd@gmail.com ","1201 Maple Avenue","Arbutus ","MD ","21227","(410) 242-6009"
"Apple Ridge Montessori School","Fred Eustis","fred.eustis@comcast.net","200 Ingleside Avenue","Baltimore ","MD ","21228","(410) 818-2000"
"Apple Tree Children's Center","Kelly Clark","kelly@appletreecenter.com","221 Old Padonia Road","Cockeysville ","MD ","21030","(410) 560-0611"
"Ascension Lutheran Church Nursery School and Kindergarten","Ann Hays","schooldirector@ascensiontowson.org","7601 York Road","Baltimore ","MD ","21204","(410) 825-1725"
"Auburn School - Baltimore","Towanda Cofield"," info@camparistotle.org ","1710 Dulaney Valley Road","Lutherville ","MD ","21093","(410) 321-4799"
"Bais Hamedrash and Mesivta of Baltimore","Reena Roshgadol","rroshgadol@cjebaltimore.org","6823 Old Pimlico Road","Baltimore ","MD ","21209","(410) 486-0006"
"Baltimore Actors' Theatre Conservatory, The",,"batpro@baltimoreactorstheatre.org","300 Dumbarton Road","Baltimore ","MD ","21212","(410) 337-8519"
"Baltimore Hebrew Congregation Day School","Jo Ann Windman","jwindman@bhcong.org","7401 Park Heights Avenue","Baltimore ","MD ","21208","(410) 764-1867"
"Baltimore Lutheran Middle and Upper School","Paul Schildwachter","pschildwachter@baltimorelutheran.org","1145 Concordia Drive","Towson ","MD ","21286","(410) 825-2323"
"Calvert Hall College High School","Chuck Stembler","StemblerC@calverthall.com","8102 LaSalle Road","Baltimore ","MD ","21286","(410) 825-4266"
"Cambridge School","John Blumenstein","jblumenstein@cambridgeschool.org","110 Sudbrook Lane","Pikesville ","MD ","21208","(410) 486-3686"
"Compass Academy",,"info@compassacademymd.org","4601 Maple Avenue","Halethorpe ","MD ","21227","(410) 501-3571"
"Emmanuel Lutheran School","Susan Miller","principal@emmanuelbaltimore.org","929 Ingleside Avenue","Baltimore ","MD ","21228","(410) 744-0015"
"Free State Montessori School","Anya SB Karp","fsms@freestatemontessori.org","12536 Harford Road","Fork ","MD ","21051","(410) 592-3324"
"Garrison Forest School","Elizabeth Andrews ","zibbyandrews@gfs.org","300 Garrison Forest Road","Owings Mills","MD ","21117","(410) 363-1500"
"Greenspring Montessori School","Tamara Sheesley Balis","ignite@greenspringmontessori.org","10807 Tony Drive","Lutherville ","MD ","21093","(410) 321-8555"
"Jemicy School","Ben Shifrin","bshifrin@jemicyschool.org","11202 Garrison Forest Road","Owings Mills","MD ","21117","(410) 653-2700"
"Jewish Community Center Early Childhood Department","Ilene Meister","imeister@jcc.org","3506 Gwynnbrook Avenue","Owings Mills","MD ","21117","(410) 559-3554"
"Krieger Schechter Day School of Chizuk Amuno Congregation","Bil Zarch","bzarch@ksds.edu","8100 Stevenson Road","Baltimore ","MD ","21208","(410) 486-8640"
"Maryvale Preparatory School","Melissa Beljous ","beljousm@maryvale.com","11300 Falls Road","Brooklandville ","MD ","21022","(410) 252-3366"
"McDonogh School, Inc.","Charles W. Britton","cbritton@mcdonogh.org","8600 McDonogh Road","Owings Mills","MD ","21117","(410) 363-0600"
"Montessori Manor","Cheri Isles","cheri@montessorimanor.com","3526 Sweet Air Road","Phoenix ","MD ","21131","(410) 683-1771"
"Mount Providence Child Development Center","Brenda E. Cherry","MPCDC@oblatesisters.com","701 Gun Road","Baltimore ","MD ","21227","(410) 247-0449"
"Notre Dame Preparatory School","Cami Colarossi","colarossic@notredameprep.com","815 Hampton Lane","Towson ","MD ","21286","(410) 825-6202"
"Odyssey School, The","Martha H. Sweeney","msweeney@theodysseyschool.org","3257 Bridle Ridge Lane","Stevenson ","MD ","21153","(410) 580-5551"
"Oldfields School","Parnell P. Hagerman","hagermanp@oldfieldsschool.org","1500 Glencoe Road","Sparks Glencoe","MD ","21152","(410) 472-4800"
"Our Lady of Mount Carmel School","Christopher Ashby","cashby@olmcmd.org","1706 Old Eastern Avenue","Baltimore ","MD ","21221","(410) 686-1023"
"Park School, The","Roger Seidenman","rseidenman@parkschool.net","2425 Old Court Road","Baltimore ","MD ","21208","(410) 339-7070"
"Perry Hall Christian School","Jennie Cocoros Kegel"," saintdemetrios@comcast.net","2504 Cub Hill Road","Baltimore ","MD ","21234","(410) 661-1090"
"St. James Academy","Karl Adler","kadler@saintjamesacademy.org","3100 Monkton Road","Monkton ","MD ","21111","(410) 771-4816"
"St. John's Lutheran School","Jan Watson","director@stjohnslcms.org","13300 Manor Road","Glen Arm","MD ","21057","(410) 592-8019"
"St. Paul's School","David Faus","dfaus@stpaulsschool.org","11152 Falls Road","Brooklandville ","MD ","21022","(410) 825-4400"
"St. Paul's School for Girls","Randy S. Stevens","admis@stt.org","8400 Greenspring Avenue","Stevenson ","MD ","21153","(410) 486-7400"
"Sterling East--Chesapeake Campus",,"info@sterlinged.org","6712 Dogwood Road","Baltimore ","MD ","21207","(410) 944-2990"
"Talmudical Academy of Baltimore, Inc.","Ben Dermin","TA@Talmudicalacademy.org","4445 Old Court Road","Baltimore ","MD ","21208","(410) 484-6600"
"Watson Hall School","Andrea Pyatt-Johnson","admissions@watsonhall.org","5820 Edmondson Avenue","Baltimore ","MD ","21228","(443) 708-2926"
"Windsor Christian Academy",,"wca@windsorchristianacademymd.org","7710 WINDSOR MILL ROAD","BALTIMORE ","MD ","21244","(410) 496-8270"
"Calverton School, The","Spencer Taintor","staintor@calvertonschool.org","300 Calverton School Road","Huntingtown ","MD ","20639","(410) 535-0216"
"Tidewater School, The","Grace Yannakakis    ","tidewaterschool@thetidewaterschool.org","120 Cox Road","Huntingtown ","MD ","20639","(410) 257-0533"
"Carroll Lutheran School","Karen E. Ganjon ","kganjon@carrolllutheranschool.org","1738 Old Taneytown Road","Westminster ","MD ","21158","(410) 848-1050"
"Christian Preschool and Kindergarten Program","Brenda Morse","christian.preschool1@verizon.net","65 Washington Road","Westminster ","MD ","21157","(410) 857-4389"
"Faith Christian School","Susanna F. Oliver","soliver@hilltopaog.org","30 North Cranberry Road","Westminster ","MD ","21157","(410) 848-8875"
"Montessori School of Westminster, The","Michele Box","office@montessorischoolofwestminster.org","1055 Montessori Drive","Westminster","MD ","21158","(410) 848-6283"
"North Carroll Community School","Diane L. Havighurst ","d.havighurst@nccschool.info","531 Old Westminster Pike, Suite 100","Westminster ","MD ","21157","(410) 386-0655"
"Elijah School, The","Richard Starr","theelijahschool@gmail.com","245 Old Zion Road","North East","MD ","21901","(410) 658-2244"
"Tome School, The","Sally Pont","s.pont@tomeschool.org","581 South Maryland Avenue","North East","MD ","21901","(410) 287-2050"
"West Nottingham Academy","Stephen Brotschul","sbrotschul@wna.org","1079 Firetower Road","Colora","MD ","21917","(410) 658-5556"
"Charles",,,,,"MD "
"Banner School, The","Lauren Webb","lwebb@bannerschool.org","1730-A North Market Street","Frederick ","MD ","21701","(301) 695-9320"
"Calvary United Methodist Church Weekday School","Anne Marie Whang","laura@calvaryweekdayschool.com","133 West Second Street","Frederick ","MD ","21701","(301) 662-6783"
"Frederick Country Day","Catherine Nehring","frederickmontessori@gmail.com","1601 Wheyfield Drive","Frederick ","MD ","21701","(301) 694-7000"
"Friends Meeting School","Wilford X. Graham","info@friendsmeetingschool.org","3232 Green Valley Road","Ijamsville ","MD ","21754","(301) 798-0288"
"Lucy School",,"director@lucyschool.com","9117 Frostown Road","Middletown ","MD ","21769","(301) 293-1163"
"Meadows Montessori","Anne Lee","kim@meadowscenter.com","185 THOMAS JOHNSON DRIVE","Frederick ","MD ","21702","(301) 662-8910"
"St. John's Literary Institution at Prospect Hall"," Michael Schultz","mschultz@saintjohnsprep.org","3989 Buckeystown Road","Buckeystown ","MD ","21717","(301) 662-4210"
"St. Thomas More Academy","Irene Wunderlich","wunderlichi@stmamd.org","103 Prospect Street","Middletown ","MD ","21769","(301) 874-9014"
"Trinity School of Frederick","Rebecca Layman","rlayman@trinityschooloffrederick.org","6040 New Design Road","Frederick ","MD ","21703","(301) 228-2333"
"Advent Lutheran Elementary School","Karen DeMey","schooloffice@adventelementary.org","2230 Rock Spring Road","Forest Hil","MD ","21050","(410) 838-4892"
"Awakening Child Montessori School","Gaye Novak","Awakeningchild@aol.com","2529 Conowingo Road","Bel Air","MD ","21015","(410) 836-0833"
"Baltimore Lutheran School","Monique Nunes","mnunes@baltimorelutheran.org","1145 Concordia Drive","Towson","MD ","21286","(410) 825-2323"
"Bel Forest Christian Academy","Philip Puntanen","pnp825@gmail.com","603 Vale Road","Bel Air","MD ","21014","(410) 838-6074"
"Children's Center of North Harford, The","Christine Halliwell","ccnh707@zoominternet.net","708 Highland Road","Street ","MD ","21154","(410) 836-0444"
"Harford Friends School","Clare Pitz","headofschool@harfordfriends.org","2230 Rock Spring Road","Forest Hill","MD ","21050","(443) 640-6300"
"Highlands School, The","Patricia Bonney","pbonney@highlandsschool.net","2409 Creswell Road","Bel Air","MD ","21015","(410) 836-1415"
"John Carroll School, Inc., The","Madelyn Ball","mball@johncarroll.org","703 Churchville Road","Bel Air","MD ","21014","(410) 879-2480"
"Free State Montessori School","Claire J. Salkowski","fsms@freestatemontessori.org","12536 Harford Road,","Fork ","MD ","21051","(410) 592-3324"
"Good Shepherd Catholic School","Scott Nicodemus","gscs@goodshephrd.net","800 Aiken Avenue","Perryville","MD ","21903","(410) 642-6265"
"Harford Christian School","Bryan M. Wilson","bmwilson4@hotmail.com","1736 Whiteford Road","Darlington","MD ","21034","(410) 457-5103 "
"Harford Day School","Molly Cain","mollycain@harfordday.org","715 Moores Mill Road","Bel Air","MD ","21014","(410) 838-4848 "
"Harford Friends School","Jonathan Huxtable","headofschool@harfordfriends.org","708 Highland Road","Street","MD ","21154","(410) 452-5507 "
"Harford Lutheran School","Daniel Cluver","Dcluver@harfordlutheran.org","1515 Emmorton Road","Bel Air","MD ","21014","(410) 399-9646 "
"The Highlands School","Patricia A. Bonney","info@highlandsschool.net","2409 Creswell Road","Bel Air","MD ","21015","(410) 836-1415"
"St. James Academy","Elizabeth Legenhausen","admissions@saintjamesacademy.org","3100 Monkton Road","Monkton","MD ","21111","(410) 329-3292"
"James Run Christian Academy","Dawn Groff","dgroff@jamesrunchristianacademy.com","603 Vale Road","Bel Air","MD ","21014","(410) 877-1576"
"St. Joan of Arc School","Jane Towery","school@stjoanarc.org","230 South Law Street","Aberdeen","MD ","21001","(410) 272-1387"
"The John Carroll School","Kim Brueggemann","kbrueggemann@johncarroll.org","703 East Churchville Road","Bel Air","MD ","21014","(410) 879-2480"
"St. Margaret School","Jane A. Dean","jdean@archbalt.org","1716-A Churchville Road","Bel Air","MD ","21015","(410) 877-9660"
"Monarch Montessori School","Mary Ellen Kelly","monarchmontessorischool@verizon.net","6 Asbury Road","Churchville","MD ","21028","(410) 836-9560"
"Mountain Christian School","Deborah Imhoff","debbieimhoff@mountainchristian.org","1824 Mountain Road","Joppa","MD ","21085","(410) 877-7333"
"New Covenant Christian School","Jason Van Bemmel","nccs@ncpres.org","128 St. Mary’s Roa","Abingdon","MD ","21009","(443) 512-0771"
"St. Stephen School","Mary Patrick","sssch@archbalt.org","8028 Bradshaw Road","Bradshaw","MD ","21087","(410) 592-7617"
"The Tome School","F. Darcy Williams","d.williams@tomeschool.org","581 South Maryland Avenue","North East","MD ","21901","(410) 287-2050"
"Trinity Lutheran School and Child Care Center","Bev Reed","bevreed@tlsonline.org","1100 Philadelphia Road","Joppa","MD ","21085","(410) 679-4000"
"West Nottingham Academy","Jesse Roberts","admissions@wna.org","1079 Firetower Road","Colora","MD ","21917","(410) 658-5556"
"Bryant Woods Montessori Children's House, Inc.","Zahra Baig","DirectorBWMCH@comcast.net","10449 Green Mountain Circle","Columbia ","MD ","21044","(410) 730-7525"
"Columbia Montessori School","Maria E. Garcia","cms4kids@verizon.net","10508 Marble Faun Court","Columbia ","MD ","21044","(410) 772-8353"
"Cornerstone Academy","Martha Zeher","mzeher@cornerstone-academy.org","17455 Old Frederick Road","Mt. Airy","MD ","21771","(301) 829-4730"
"Global Children Montessori School","Padma Venkatraman","v4padma@comcast.net","8995 Lambskin Lane","Columbia ","MD ","21043","(410) 241-5771"
"St. John's Parish Day School","Stephen Harrison","sharrison@stjohnspds.org","9130 Frederick Road","Ellicott City","MD ","21042","(410) 465-7644"
"Trinity School","Catherine Phelps","cphelps@trinityschoolmd.org","4985 Ilchester Road","Ellicott City","MD ","21043","(410) 744-1524"
"Kent School","Christopher Gorycki","cgorycki@kentschool.org","6788 Wilkins Lane","Chestertown ","MD ","21620","(410) 778-4100"
"Radcliffe Creek School","Molly Judge","info@radcliffecreekschool.org","201 Talbot Boulevard","Chestertown ","MD ","21620","(410) 778-8150"
"Barrie School -- Lower School, The","Hilary Gleen","hgreen@barrie.org","13500 Layhill Road","Silver Spring","MD ","20906","(301) 576-2800"
"Bethesda Country Day School","Ingrid Ibanez","Ingrid.Ibanez@nlcinc.com","5615 Beech Avenue","Bethesda ","MD ","20814","(301) 530-6999"
"Bethesda Montessori School, The","Kristie Galic","admissions@bethesdamontessori.com","7611 Clarendon Road","Bethesda ","MD ","20814","(301) 986-1260"
"Brookewood School","Joseph W. McPherson","jwmcpherson@avalonschools.org","10401 Armory Avenue","Kensington ","MD ","20895","(301) 320-0668"
"Butler Montessori","Laura L. Manack","admin@butlerschool.org","15951 Germantown Road","Darnestown ","MD ","20874","(301) 977-6600"
"Charles E. Smith Jewish Day School -- Lower School","Rabbi Mitchel Malkus","cesjds@cesjds.org","1901 East Jefferson Street","Rockville ","MD ","20852","(301) 881-1400"
"Concord Hill School, Inc.","Denise Gershowitz","dgershowitz@concordhill.org","6050 Wisconsin Avenue","Chevy Chase","MD ","20815","(301) 654-2626"
"Diener School, The",,"info@thedienerschool.org","11510 Falls Road","Potomac ","MD ","20854","(301) 299-4602"
"Don Bosco Cristo Rey High School","Larry Savoy","savoyl@dbcr.org","1010 Larch Avenue","Takoma Park","MD ","20912","(301) 891-4750"
"Echelon Academy","Kelly Mazzeo","highflyers@echelonacademy.com","900 Olney-Sandy Spring Road","Sandy Spring","MD ","20860","(301) 570-0999"
"Epworth Preschool and Kindergarten","Jennifer Fenner","Jennifer.Fenner@eumc-md.org","9008 Rosemont Drive","Gaithersburg ","MD ","20877","(301) 977-3421"
"Evergreen School","John DeMarchi","jdemarchi@evergreenschool.com","10700 Georgia Avenue","Wheaton ","MD ","20902","(301) 942-5979"
"Franklin Country Day Montessori School","Pamela W. Trumble","pamela.montessori@hers.com","10500 Darnestown Road","Rockville ","MD ","20850","(301) 279-2799"
"Gaithersburg Presbyterian Preschool and Kindergarten","Jessica Coughlin","jessica@gppk.com","610 South Frederick Avenue","Gaithersburg ","MD ","20877","(301) 977-5787"
"Georgetown Preparatory School, Inc.","Jeffrey Jones","jjones@gprep.org","10900 Rockville Pike","North Bethesda","MD ","20852","(301) 493-5000"
"Green Acres School","Brenda Robinson","brendar@greenacres.org","11701 Danville Drive","Rockville ","MD ","20852","(301) 881-4100"
"Griggs International Academy","La Ronda Curtis-Forsey","laronda@andrews.edu","12501 Old Columbia Pike","Silver Spring ","MD ","20904","(301) 680-6590"
"Heights School, The","Alvaro de Vicente","adevicente@heights.edu","10400 Seven Locks Road","Potomac ","MD ","20854","(301) 365-4300"
"Jamon Montessori Day School",,"jamon.montessori@gmail.com","52 Randolph Road","Silver Spring","MD ","20904","(301) 384-3131"
"John Nevins Andrews School","Cavel Melbourne","Cmelb@jna.org","117 Elm Avenue","Takoma Park","MD ","20912","(301) 270-1400"
"Archbishop Carroll High School ","Mary Elizabeth Blaufuss","mblaufuss@achsdc.org","4300 Harewood Road","Washington","MD ","20017","202-529-0900"
"The National Cathedral Elementary School","Amy P. Vorenberg","avorenberg@cathedral.org","3500 Woodley Road","Washington","MD ","20016","(202) 537-6485 "
"Edmund Burke School ","Jennifer Rawlings","jennifer.rawlings@burkeschool.org","4101 Connecticut Avenue","Washington","MD ","20008","202-362-8882"
"Gonzaga College High School","Stephen Planning","splanning@gonzaga.org","19 Eye Street NW","Washington","MD ","20001","202.336.7100"
"Lowell School","Debbie Gibbs"," dgibbs@lowellschool.org","1640 Kalmia Road","Washington","MD ","20012","(202) 577 - 200"
"National Cathedral School ","Kathleen O'Neill Jamieson","ncsalumnaeoffice@cathedral.org","3612 Woodley Rd. NW","Washington","MD ","20016","202.537.6300 "
"Saint Anselm's Abbey School - Upper","Alexander Morse","amorse@saintanselms.org","4501 South Dakota Avenue","Washington","MD ","20017","202-269-2350"
"Saint Anselm's Abbey School - Middle","Thomas Mehigan","tmehigan@saintanselms.org","4501 South Dakota Avenue","Washington","MD ","20017","202-269-2300"
"Sheridan School","Rendy Plummer","rplummer@sheridanschool.org","4400 Thirty-Sixth Street","Washington","MD ","20008","(202) 362-7900"
"Washington International School ","CLAYTON W. LEWIS","lewis@wis.edu","1690 36th Street","Washington","MD ","20007","(202) 243-1700"
"Aidan Montessorri School","Kathleen M. Minardi","kathyminardi@aidanschool.org","2700 27 Street","Washington","MD ","20008","(202) 387 1777"
"Parkmont School","Ron McClain"," rmcclain@parkmont.org","4842 16th Street","Washington","MD ","20011","202.726.0740"
"The River School","Nancy Mellon"," nmellon@riverschool.net","4880 MacArthur Blvd","Washington","MD ","20007","202-337-3554"
"Washington Jesuit Academy","Marcus Washington","mwashington@wjacademy.org","900 Varnum Street","Washington","MD ","20017","202-832-7679"
"The Kingsbury Center","John Couric","center@kingsbury.org","5000 14th Street","Washington","MD ","20011"
"Sidwell Friends School","Barbara Conte","conteb@sidwell.edu","3825 Wisconsin Ave","Washington","MD ","20016","202-537-8100"
"Maret School","Marjo Talbott","mtalbott@maret.org","3000 Cathedral Ave","Washington","MD ","20008","202.939.8800"
"St. Albans School","Vance Wilson","vwilson@cathedral.org","Mount St. Alban","Washington","MD ","20016","202-537-6435"
"St. Patrick School","Peter A. Barrett","barretta@stpatsdc.org","4700 Whiteheaven Parkway","Washington","MD ","20007","202-342-7001"
