"Schools Name","Address","Address2 ","City","City 2","Zip","Zip 2","Area","Title","Principal","First","Last","Email","Phone","Fax","Grades"
"Academy of Sacred Heart","1250 KENSINGTON RD","1250 KENSINGTON RD","BLOOMFIELD HILLS","BLOOMFIELD HILLS","48304-3029","48304-3029","Bloomfield Hills","Sr.","Bridget Bearss","Bridget","Bearss","ddecker@ashmi.org","2486468900",,"KG-Part, 1-12, GenEd, PK"
"Ada Christian School","6206 ADA DR SE","6206 ADA DR SE","ADA","ADA","49301-7400","49301-7400","Forest Hills","Ms.","Melissa Brower","Melissa","Brower","mbrower@adachristian.org","6166761289","6166769216","KG-Part, 1-8, GenEd, PK"
"Adams Christian School","5539 BYRON CENTER AVE SW","5539 BYRON CENTER AVE SW","WYOMING","WYOMING","49519-9603","49519-9603","Grandville","Mr.","Rick Mingerink","Rick","Mingerink","adamsprcs@comcast.net","6165310748","6165315172","KG-Part, 1-9, GenEd,PK,SpecEd"
"Adelphian Junior Academy","PO Box 208, 740 Academy Road","740 ACADEMY RD","Holly","HOLLY","48442-0208","48442-1544","Holly","Ms.","Nancy Danelson","Nancy","Danelson","bdavis@misda.org","2486349481","5173161559","KG-Part, 1-10, GenEd, PK"
"Aim High School","11648 N MAIN ST","11648 N Main St","WHITMORE LAKE","Whitmore Lake","48189-9117","48189-9117","Whitmore Lake","Mr.","Michael Earls","Michael","Earls","mearls@aimhighschool.com","7345509595","7345509590","9-11, GenEd"
"Akiva Hebrew Day School","21100 WEST 12 MILE RD","21100 WEST 12 MILE RD","SOUTHFIELD","SOUTHFIELD","48076-2393","48076-2393","Southfield","Rabbi","Tzvi Klugerman","Tzvi","Klugerman","marymonica43@hotmail.com","2483861625","2483861632","KG-Part, 1-12, GenEd, PK"
"Algoma Christian School","PO Box 220","14471 SPARTA AVE","Kent City","KENT CITY","49330-0220","49330-9728","Kent City","Mr.","Terrence Yoder","Terrence","Yoder","tyoder@algomachristian.net","6166787480","6166787484","KG-Part, 1-12, GenEd, PK"
"All Saints Academy Elementary","2233 DIAMOND AVE NE","2233 DIAMOND AVE NE","GRAND RAPIDS","GRAND RAPIDS","49505-4313","49505-4313","Grand Rapids","Mrs.","Anne Harpold","Anne","Harpold","aharpold@asagr.org","6163637725","6163633086","KG-Part,1-8, GenEd, PK"
"All Saints Academy Middle","1110 4 MILE RD NE","1110 4 MILE RD NE","GRAND RAPIDS","GRAND RAPIDS","49525-2653","49525-2653","Grand Rapids","Mrs.","Anne Harpold","Anne","Harpold","aharpold@asagr.org","6163637725","6163633086","5-8, GenEd"
"All Saints Catholic Academy","106 SOUTH MARQUETTE ST","106 SOUTH MARQUETTE ST","IRONWOOD","IRONWOOD","49938-2060","49938-2060","Ironwood","Mr.","Mark Salisbury","Mark","Salisbury","msalisbury@dioceseofmarquette.org","9069323200","9069321019","KG-Part, 1-6, GenEd, PK"
"All Saints Catholic School","500 NORTH SECOND AVE","500 NORTH SECOND AVE","ALPENA","ALPENA","49707-2340","49707-2340","Alpena","Ms.","Nicole Hatch","Nicole","Hatch","allsaints@speednetllc.com","9893544911","9893543918","KG-Part, 1-6, GenEd, PK"
"All Saints Catholic School","48735 WARREN RD","48735 WARREN RD","CANTON","CANTON","48187-1216","48187-1216","Plymouth-Canton","Ms.","Kristen Strausbaugh","Kristen","Strausbaugh","ascs9@hotmail.com","7344592490","7344590981","KG-Part, 1-8, GenEd, PK, SpecEd"
"All Saints Central School","217 SOUTH MONROE ST","217 SOUTH MONROE ST","BAY CITY","BAY CITY","48708-7208","48708-7208","Bay City","Mr.","Brian Campbell","Brian","Campbell","asccampbell@bacschools.org","9898922533","9898927188","6-12, GenEd"
"Allendale Christian School","11050 64TH AVE","11050 64TH AVE","ALLENDALE","ALLENDALE","49401-8429","49401-8429","Allendale","Ms.","Alice Spaanstra","Alice","Spaanstra","skuperus@altelco.net","6168955108",,"KG-Part, 1-8, GenEd, PK"
"Alpena SDA Elementary School","4029 US HIGHWAY 23 S","4029 US HIGHWAY 23 S","ALPENA","ALPENA","49707-5135","49707-5135","Alpena","Ms.","Sarah Taylor","Sarah","Taylor","bdavis@misda.org","9893562932","5173161559","1-8, GenEd"
"AnchorPoint Christian School","601 36th Street, SW","601 36th Street, SW","Wyoming","Wyoming","49509","49509","Wyoming","Ms.","Lael Mulder","Lael","Mulder","lmulder@anchorpointchristian.org","6166084006","6164552211","KG-Part,1-6, GenEd, SpecEd"
"Ann Arbor Academy","111 EAST MOSLEY ST","111 EAST MOSLEY ST","ANN ARBOR","ANN ARBOR","48104-2927","48104-2927","Ann Arbor","Ms.","Meredith Schindler","Meredith","Schindler","annarboracademy@gmail.com","7347476641","7347479994","5-12, GenEd"
"Ann Arbor Adventist Elementary School","2796 PACKARD ST","2796 PACKARD ST","ANN ARBOR","ANN ARBOR","48108-3257","48108-3257","Ann Arbor","Ms.","Sally Smith","Sally","Smith","bdavis@misda.org","7349715570","5173161559","1-8, GenEd"
"Ann Arbor Christian School","5500 WHITMORE LAKE RD","5500 WHITMORE LAKE RD","ANN ARBOR","ANN ARBOR","48105-9277","48105-9277","Ann Arbor","Mr.","Thom Ritzema","Thom","Ritzema","office@annarborchristian.org","7347414948","7349296629","KG-Part, 1-8, GenEd, PK"
"Ann Arbor Hills Child Dev. Ctr.","2775 BEDFORD RD","2775 BEDFORD RD","ANN ARBOR","ANN ARBOR","48104-4011","48104-4011","Ann Arbor","Ms.","Ramelle Alexander","Ramelle","Alexander","admin@aahcdc.com","7349713080",,"KG-Part, 1-2, GenEd, PK"
"Assumption BVM","6393 BELMONT AVE NE","6393 BELMONT AVE NE","BELMONT","BELMONT","49306-9701","49306-9701","Rockford","Mr.","Mike Micele","Mike","Micele","schoolprincipal@assumptionbvm.com","6163615483","6163612553","KG-Part, 1-8, GenEd, PK"
"Auburn Area Catholic School","114 WEST MIDLAND RD","114 WEST MIDLAND RD","AUBURN","AUBURN","48611-9492","48611-9492","Bay City","Mrs.","Terri Duch","Terri","Duch","tduch@auburnac.org","9896626431","9896623391","KG-Part, 1-5, GenEd, PK"
"Auburn Hills Christian School","3655 NORTH SQUIRREL RD","3655 NORTH SQUIRREL RD","AUBURN HILLS","AUBURN HILLS","48326-3940","48326-3940","Pontiac","Mr.","Scott Wickson","Scott","Wickson","ahcsswickson@hotmail.com","2483733399",,"KG-Part, 1-12, GenEd, PK"
"Austin Catholic Academy","24125 26 Mile Road","24125 26 Mile Road","Ray Township","Ray Township","48096","48096","New Haven","Fr.","David Brecht","David","Brecht","dbrecht@stclarem.org","5867497900","5867495217","9-12, GenEd"
"Baldwin Road Church Academy","PO Box 210580","1750 BALDWIN AVE","Auburn Hills","PONTIAC","48321-0580","48340-1116","Pontiac","Mr.","D. Mcgowan","D.","Mcgowan","ffwb@sbcglobal.net","2483356011","2483358911","1-12, GenEd"
"Baptist Park School","12505 TELEGRAPH RD","12505 TELEGRAPH RD","TAYLOR","TAYLOR","48180-4019","48180-4019","Taylor","Mr.","Roger Cook","Roger","Cook","baptistparkschool@yahoo.com","7342872720","7342872720","KG-Part, 1-12, GenEd"
"Barry County Christian School","2999 MCKEOWN RD","2999 MCKEOWN RD","HASTINGS","HASTINGS","49058-9140","49058-9140","Hastings","Mr.","Ken Oosterhouse","Ken","Oosterhouse","office@bccsk12.com","2699482151","2699482795","KG-Part, 1-12, GenEd, PK, SpecEd"
"Battle Creek Academy","480 PARKWAY DR","480 PARKWAY DR","BATTLE CREEK","BATTLE CREEK","49037-2134","49037-2134","Battle Creek","Mr.","Elvis Agard","Elvis","Agard","bdavis@misda.org","2699651278","5173161559","KG-Part, 1-12, GenEd, PK"
"Battle Creek Christian School","1035 WAGNER DR","1035 WAGNER DR","BATTLE CREEK","BATTLE CREEK","49017-5419","49017-5419","Pennfield","Mr.","Marc Daly","Marc","Daly","mdaly@bcchristian.org","2699630649","2699637936","KG-Part, 1-8, GenEd, PK"
"Beaverdam Christian School","5181 64TH AVE","5181 64TH AVE","HUDSONVILLE","HUDSONVILLE","49426-9502","49426-9502","Zeeland","Ms.","Stephanie Miedema","Stephanie","Miedema","beaverdamchristian@yahoo.com","6168758340","6168753777","KG-Part, 1-8, GenEd, PK"
"Bedford Bible Church School","21964 BEDFORD RD N","21964 BEDFORD RD N","BATTLE CREEK","BATTLE CREEK","49017-8806","49017-8806","Battle Creek","Mr.","Kevin McCarty","Kevin","McCarty","bedfordbible@juno.com","2699643238",,"KG-Part, 1-12, GenEd, PK"
"Berean Baptist Academy","751 WEST MAUMEE ST","751 WEST MAUMEE ST","ADRIAN","ADRIAN","49221-2031","49221-2031","Adrian","Pastor","Doug Rogers","Doug","Rogers","jennifer.varnum@gmail.com","5172635050","5172634312","KG-Part, 1-12, GenEd, PK"
"Beth Haven Baptist Academy","1158 WEST CARSON CITY RD","1158 WEST CARSON CITY RD","SHERIDAN","SHERIDAN","48884-9205","48884-9205","Central Montcalm","Pastor","Kevin Crowell","Kevin","Crowell","mavery@ionia.k12.mi.us","9892910555","9895273122","KG-Part, 1-12, GenEd, PK"
"Beth Jacob School","14390 WEST 10 MILE RD","14390 WEST 10 MILE RD","OAK PARK","OAK PARK","48237-1437","48237-1437","Berkley","Mrs.","Esther Gendelman","Esther","Gendelman","beth_jacob@ameritech.net","2485449070","2485444662","1-12, GenEd"
"Bethany Christian School","2601 JOHN R RD","2601 JOHN R RD","TROY","TROY","48083-2365","48083-2365","Troy","Mr.","Philip Fitzgerald","Philip","Fitzgerald","fitz@fbctroy.org","2486894821","2486893441","KG-Part, 1-12, GenEd"
"Bethel Baptist Christian School","118 EAST ELK ST","118 EAST ELK ST","MANISTIQUE","MANISTIQUE","49854-1208","49854-1208","Manistique","Rev.","Joseph Crowder","Joseph","Crowder","jcrowder@uplogon.com","9063416335",,"KG,1-11, GenEd"
"Bethel Christian Academy","P.O. Box 183","945 CHIPPEWA ST","Buchanan","BUCHANAN","49107-0183","49107-1122","Buchanan","Ms.","Joyce Stough","Joyce","Stough","bca2009@sbcglobal.net","2696953356","2696954345","2-12, GenEd"
"Bethel Lutheran School","749 N PINE STREET RD","749 NORTH PINE STREET RD","BAY CITY","BAY CITY","48708","48708","Bay City","Mr.","Douglas Dast","Douglas","Dast","djdast@chartermi.net","9898924508","9898925668","KG-Part, 1-8, GenEd, PK"
"Bethlehem Lutheran School","2777 HERMANSAU RD","2777 HERMANSAU RD","SAGINAW","SAGINAW","48604-2417","48604-2417","Carrollton","Mr.","Ronald Dressler","Ronald","Dressler","bethlehemsaginaw@yahoo.com","9897551146","9897553969","KG-Part, 1-8, GenEd, PK"
"Bible Baptist Church School","3338 MAIN ST","3338 MAIN ST","LUPTON","LUPTON","48635-9520","48635-9520","West Branch-Rose City","Dr.","Paul Heaton","Paul","Heaton","biblebaptist@m33access.com","9894733151",,"1-12, GenEd"
"Bishop Baraga Catholic School","623 WEST LINCOLN AVE","623 WEST LINCOLN AVE","CHEBOYGAN","CHEBOYGAN","49721-1862","49721-1862","Cheboygan","Mrs.","Kitty LaBlance","Kitty","LaBlance","principal@nmo.net","2316275608","2316276048","KG-Part, 1-6, GenEd, PK"
"Bishop Baraga Catholic School","406 WEST B ST","406 WEST B ST","IRON MOUNTAIN","IRON MOUNTAIN","49801-3340","49801-3340","Iron Mountain","Mr.","Richard Krainz","Richard","Krainz","rkrainz@baragaup.com","9067742277","9067748704","KG-Part, 1-8, GenEd, PK"
"Bishop Foley Catholic High School","32000 CAMPBELL RD","32000 CAMPBELL RD","MADISON HEIGHTS","MADISON HEIGHTS","48071-1014","48071-1014","Lamphere","Ms.","Patricia Domagala","Patricia","Domagala","domagala@bishopfoley.org","2485851210","2485282753","9-12, GenEd"
"Bishop Kelley Memorial School","926 WEST NEPESSING ST","926 WEST NEPESSING ST","LAPEER","LAPEER","48446-1871","48446-1871","Lapeer","Ms.","Anne Estelle","Anne","Estelle","aestelle@bishopkelleylapeer.org","8106645011",,"KG,1-8, GenEd, PK"
"Blessed Sacrament School","3109 SWEDE AVE","3109 SWEDE AVE","MIDLAND","MIDLAND","48642-3842","48642-3842","Midland","Mrs.","Leeann Berg","Leeann","Berg","leeannb@blessed-midland.org","9898356777","9898352421","KG-Part, 1-5, GenEd, PK"
"Borculo Christian School","6830 96TH AVE","6830 96TH AVE","ZEELAND","ZEELAND","49464-9741","49464-9741","Zeeland","Mr.","Robert Vander Zwaag","Robert","Vander Zwaag","bcsadmin@borculochrschool.org","6168758152","6168758153","KG-Part, 1-8, GenEd, PK"
"Bowen Creek Amish School","654 CLARENDON RD","715 NORTH BRIGGS RD","QUINCY","QUINCY","49082-9477","49082-9492","Quincy","Ms.","Catherine Steury","Catherine","Steury","none@none.com","0000000000",,"1-8, GenEd"
"Bridgeport Baptist Academy","PO Box 249","2400 KING RD","Bridgeport","BRIDGEPORT","48722-0249","48722","Bridgeport-Spaulding","Mr.","John Howell","John","Howell","bridgeportbaptist@sbcglobal.net","9897776811","9897777376","KG-Part, 1-12, GenEd"
"Broadway Baptist School","2892 OAK LN","2892 OAK LN","MUSKEGON","MUSKEGON","49444-2522","49444-2522","Fruitport","Mr.","David Jacobs","David","Jacobs","kjj55@aol.com","2317399450",,"2-12, GenEd"
"Brockway Christian Academy","10951 3 MILE RD","10951 3 MILE RD","MORLEY","MORLEY","49336-9766","49336-9766","Lakeview (Montcalm)","Rev.","David Hansen","David","Hansen","bca@pathwaynet.com","9893527719","9893521365","KG-Part, 1-12, GenEd"
"Brookfield Academy","2965 WALNUT LAKE RD","2965 WALNUT LAKE RD","WEST BLOOMFIELD","WEST BLOOMFIELD","48323-3757","48323-3757","Birmingham","Mrs.","Kelly Randazzo","Kelly","Randazzo","brookfield.wb@brighthorizons.com","2486266665","2486263690","KG-Part, 1-5, GenEd, PK"
"Brookfield Academy","1263 SOUTH ADAMS RD","1263 SOUTH ADAMS RD","ROCHESTER HILLS","ROCHESTER HILLS","48309-2806","48309-2806","Rochester","Mrs.","Dawn McComb","Dawn","McComb","dawnmccomb@brighthorizons.com","2483751700","2483751020","KG-Part, 1-5, GenEd, PK"
"Brookfield Academy - Troy","3950 LIVERNOIS RD","3950 LIVERNOIS RD","TROY","TROY","48083-5036","48083-5036","Troy","Mrs.","Lisa Luther","Lisa","Luther","lluther@brookfieldacademy.net","2486899565","2486893335","KG-Part, 1-5, GenEd, PK"
"Brookview School","501 ZOLLAR DR","501 ZOLLAR DR","BENTON HARBOR","BENTON HARBOR","49022-6429","49022-6429","Benton Harbor","Ms.","Sue Dunbar","Sue","Dunbar","sdubar@brookviewschool.org","2699253544","2699253525","KG-Part, 1-8, GenEd, PK"
"Brother Rice High School","7101 LAHSER RD","7101 LAHSER RD","BLOOMFIELD HILLS","BLOOMFIELD HILLS","48301-4045","48301-4045","Birmingham","Br.","Michael Segvich","Michael","Segvich","segvich@brrice.edu","2486472526","2486478170","9-12, GenEd"
"Byron Center Christian School","8840 BYRON CENTER AVE SW","8840 BYRON CENTER AVE SW","BYRON CENTER","BYRON CENTER","49315-9200","49315-9200","Byron Center","Mr.","Glen Hendricks","Glen","Hendricks","walters@bccs.org","6168783378","6168780019","KG-Part, 1-8, GenEd, PK"
"Cabrini High School","15305 WICK RD","15305 WICK RD","ALLEN PARK","ALLEN PARK","48101-1554","48101-1554","Allen Park","Ms.","Cheryl Szczodrowski","Cheryl","Szczodrowski","csvolleychs@yahoo.com","3133880110",,"9-12, GenEd"
"Cadillac Heritage Christian","1706 WRIGHT ST","1706 WRIGHT ST","CADILLAC","CADILLAC","49601-8815","49601-8815","Cadillac","Mr.","William Goodwill","William","Goodwill","wdgoodwill@yahoo.com","2317754272","2317757193","KG-Part, 1-12, GenEd, PK"
"Calhoun Christian School","20 WOODROW AVE S","20 WOODROW AVE S","BATTLE CREEK","BATTLE CREEK","49015-2922","49015-2922","Lakeview (Calhoun)","Mr.","William Spicer","William","Spicer","bspicer@calhounchristian.org","2699655560","2699658038","KG-Part, 1-12, GenEd, PK"
"Calvary Baptist Academy","6100 PERRINE RD","6100 PERRINE RD","MIDLAND","MIDLAND","48640-2175","48640-2175","Midland","Mr.","Michael Reece","Michael","Reece","mreece@cbamidland.org","9898323341",,"1-12, GenEd"
"Calvary Bible Academy","P.O. Box 56","27032 MARCELLUS HWY","Dowagiac","DOWAGIAC","49047-0056","49047-8718","Dowagiac Union",,"Robert Vickroy","Robert","Vickroy","calvarybible1@verizon.net","2697827296",,"1-11, GenEd"
"Calvary Christian Academy","29788 FORT RD","29788 FORT RD","ROCKWOOD","ROCKWOOD","48173-9781","48173-9781","Gibraltar","Rev.","K Richey","K","Richey","cag74@juno.com","7343794914",,"KG,1-11, GenEd"
"Calvary Christian Academy","1007 ECORSE RD","1007 ECORSE RD","YPSILANTI","YPSILANTI","48198-5820","48198-5820","Ypsilanti",,"M. Cathy White","M. Cathy","White","mgetchell@cbcypsi.org","7344821990","7344821923","KG-Part, 1-12, GenEd"
"Calvary Christian School","2203 EAST 11 MILE RD","2203 EAST 11 MILE RD","ROYAL OAK","ROYAL OAK","48067-2335","48067-2335","Royal Oak","Mr.","Robert Steenbergh","Robert","Steenbergh","bksteen@aol.com","2485414598","2485414598","KG-Part, 1-8, GenEd, PK"
"Calvary Christian School","5873 KENDRA RD","5873 KENDRA RD","FRUITPORT","FRUITPORT","49415-9207","49415-9207","Fruitport","Mr.","Thomas Kapanka","Thomas","Kapanka","tom.kapanka@calvarymuskegon.com","2318652141",,"KG-Part, 1-12, GenEd"
"Calvary Schools of Holland","518 PLASMAN AVE","518 PLASMAN AVE","HOLLAND","HOLLAND","49423-4041","49423-4041","Holland","Mr.","Kevin Alderink","Kevin","Alderink","kevin.alderink@cshk12.org","6163964494","6163960326","KG-Part,1-6, GenEd, PK"
"Calvary Schools of Holland","518 PLASMAN AVE","6047 147TH AVE","HOLLAND","HOLLAND","49423-4041","49423-8948","Holland","Mr.","Kevin Alderink","Kevin","Alderink","kevin.alderink@cshk12.org","6163964494","6163960326","7-12, GenEd"
"Calvin Center SDA School","19088 BROWNSVILLE RD","19088 BROWNSVILLE RD","CASSOPOLIS","CASSOPOLIS","49031-9583","49031-9583","Cassopolis","Mr.","Norman Usher","Norman","Usher","nusherus@yahoo.com","2694762218",,"1-9, GenEd"
"Calvin Christian High School","3750 IVANREST AVE SW","3750 IVANREST AVE SW","GRANDVILLE","GRANDVILLE","49418-2089","49418-2089","Grandville","Ms.","Barbara Engbers","Barbara","Engbers","bengbers@calvinchr.org","6165380990","6165389930","9-12, GenEd"
"Calvin Christian Middle School","3740 IVANREST AVE SW","3740 IVANREST AVE SW","GRANDVILLE","GRANDVILLE","49418-2087","49418-2087","Grandville","Mr.","John Kramer","John","Kramer","jkramer@calvinchr.org","6165322373","6165317402","7-8, GenEd"
"Capitol City Baptist School","5100 WILLOUGHBY RD","5100 WILLOUGHBY RD","HOLT","HOLT","48842-1059","48842-1059","Holt","Mr.","Bryan Ogle","Bryan","Ogle","bryan.ogle@capitolcitybaptistministries.org","5176941216","5176943344","KG-Part, 1-12, GenEd, PK, SpecEd"
"Cardinal Mooney Catholic School","660 SOUTH WATER ST","660 SOUTH WATER ST","MARINE CITY","MARINE CITY","48039-3601","48039-3601","East China","Ms.","Celeste Conflitti","Celeste","Conflitti","principal@cardinalmooney.org","8107658825","8107657164","9-12, GenEd"
"Catholic Central High School","319 SHELDON BLVD SE","319 SHELDON BLVD SE","GRAND RAPIDS","GRAND RAPIDS","49503-4515","49503-4515","Grand Rapids","Mr.","Greg Deja","Greg","Deja","gregdeja@grcss.org","6162335899","6168938480","9-12, GenEd"
"Cedar Creek Christian School","9213 CEDAR CREEK RD","9213 CEDAR CREEK RD","DELTON","DELTON","49046-8666","49046-8666","Delton-Kellogg","Mr.","Robert Norton","Robert","Norton","pastornorton@mei.net","2696235543",,"KG-Part,1-12, GenEd, PK"
"Cedar Crest Academy","8970 DIXIE HWY","8970 DIXIE HWY","CLARKSTON","CLARKSTON","48348-4239","48348-4239","Clarkston","Ms.","Bette Moen","Bette","Moen","tmoen@cedarcrestacademy.com","2486257270","2486251091","KG-Part, 1-8, GenEd, PK"
"Cedar Lake SDA Elementary School","PO Box 218, 7195 Academy Road","7195 ACADEMY RD","Cedar Lake","CEDAR LAKE","48812-0218","48812","Montabella","Ms.","Miriam Troup","Miriam","Troup","bdavis@misda.org","9894275614","5173161559","KG-Part, 1-8, GenEd"
"Chapman Academy","28117 MILFORD RD","28117 MILFORD RD","NEW HUDSON","NEW HUDSON","48165-8519","48165-8519","South Lyon","Ms.","Theresa Fader","Theresa","Fader","chapmanacademy@aol.com","2484860492","2484864817","KG-Part, 1-8, GenEd"
"Charlotte Mason Community School","3816 TOLEDO ST","3816 TOLEDO ST","DETROIT","DETROIT","48216-1059","48216-1059","Detroit","Mr.","David Stone","David","Stone","david.stone@charlottemasoncs.org","3138416848","3138416848","KG-Part,1-8, Alt, GenEd"
"Charlotte SDA School","1510 SOUTH COCHRAN RD","1510 SOUTH COCHRAN RD","CHARLOTTE","CHARLOTTE","48813-9124","48813-9124","Charlotte","Ms.","Amanda Hasty","Amanda","Hasty","bdavis@misda.org","5175439491","5173161559","KG,KG-Part,1-8, GenEd, PK"
"Children's Place Montessori of Grosse Ile","9393 Church Rd","9393 Church Rd","Grosse Ile","Grosse Ile","48138","48138","Grosse Ile","Ms.","Marie Liburdi","Marie","Liburdi","lmari04@rogers.com","7346710577","7346710577","KG, GenEd"
"Christ Ev. Lutheran School","16070 WEST BRADY RD","16070 WEST BRADY RD","OAKLEY","OAKLEY","48649-9761","48649-9761","Chesaning Union","Mr.","Alan Schaffer","Alan","Schaffer","a.schaffer@centurytel.net","9898452611","9898456711","KG-Part,1-8, GenEd, PK"
"Christ Lutheran School","4333 CLEVELAND AVE","4333 CLEVELAND AVE","STEVENSVILLE","STEVENSVILLE","49127-9595","49127-9595","Lakeshore (Berrien)","Mr.","Charles Strohacker","Charles","Strohacker","cnschmaltz45@yahoo.com","2694297111","2694293788","KG-Part, 1-8, GenEd, PK"
"Christ the King Lutheran School","15600 TRENTON RD","15600 TRENTON RD","SOUTHGATE","SOUTHGATE","48195-2063","48195-2063","Southgate","Mr.","Michael Rosin","Michael","Rosin","mike@ctk-church.org","7342859697",,"KG-Part, 1-8, GenEd, PK"
"Christ the King Lutheran-Sebewaing","612 EAST BAY ST","612 EAST BAY ST","SEBEWAING","SEBEWAING","48759-1644","48759-1644","Unionville-Sebewaing","Mr.","David Kumm","David","Kumm","dkumm@ctkl.org","9898833730","9898839171","3-8, GenEd, PK"
"Christ the King Lutheran-Unionville","6351 CENTER ST","6351 CENTER ST","UNIONVILLE","UNIONVILLE","48767-9784","48767-9784","Unionville-Sebewaing","Mr.","David Kumm","David","Kumm","dkumm@ctkl.org","9898833730","9898839171","KG-Part, 1-2, GenEd, PK"
"Christ the King School","16800 TRINITY ST","16800 TRINITY ST","DETROIT","DETROIT","48219-3968","48219-3968","Detroit",,"Rosanne Jodway","Rosanne","Jodway","nsoisson@aol.com","3135321213","3135321050","KG-Part, 1-8, GenEd, PK"
"Christian Leadership Academy","3668 LIVERNOIS RD STE B","3668 LIVERNOIS RD STE B","TROY","TROY","48083-5083","48083-5083","Troy","Mrs.","robin Schmidt","robin","Schmidt","rschmidt@cla-edu.org","2484571510","2484571520","KG-Part, 1-12, GenEd"
"Christian Montessori School","5225 JACKSON RD","5225 JACKSON RD","ANN ARBOR","ANN ARBOR","48103-1857","48103-1857","Ann Arbor","Ms.","Tara Schmitt","Tara","Schmitt","tschmitt@cmsaa.org","7343329600",,"KG, KG-Part, 1-9, GenEd, PK"
"City Mission Academy","20405 Schoolcraft","20405 SCHOOLCRAFT","Detroit","DETROIT","48223","48223-2743","Detroit","Mrs.","Dana Adams","Dana","Adams","dana.adams@city-mission.org","3135413531","3135410242","KG-Part,1-6, GenEd, PK"
"Clonlara School","1289 JEWETT ST","1289 JEWETT ST","ANN ARBOR","ANN ARBOR","48104-6201","48104-6201","Ann Arbor","Ms.","Chandra Nicol","Chandra","Nicol","mkoppecs@yahoo.com","7347694511","7347699629","KG-Part,1-12, GenEd"
"Community Christian School","PO Box 67","4395 20 MILE RD","Barryton","BARRYTON","49305-0067","49305-9734","Chippewa Hills","Mr.","James Elenbaas","James","Elenbaas","sfour@wtdschools.org","9893827896",,"KG-Part, 1-12, GenEd"
"Concordia Lutheran North","20805 MIDDLEBELT RD","20805 MIDDLEBELT RD","FARMINGTON HILLS","FARMINGTON HILLS","48336-5545","48336-5545","Clarenceville","Mr.","David Kusch","David","Kusch","dkusch@concordials.org","2484742488","2484741945","KG-Part, 1-4, GenEd"
"Concordia Lutheran South","9600 Leverne","9600 LEVERNE","Redford","REDFORD","48239-2293","48239-2239","South Redford","Mr.","David Kusch","David","Kusch","dkusch@concordials.org","3139372233","3139372173","5-8, GenEd"
"Copper Country Christian School","56172 CALUMET AVE","56172 CALUMET AVE","CALUMET","CALUMET","49913-2358","49913-2358","Houghton-Portage","Mr.","Dean Franz","Dean","Franz","dlfranz@chartermi.net","9064871718",,"KG-Part,1-12, GenEd, PK"
"Cornerstone Christian Academy","405 WEST 44TH ST","405 WEST 44TH ST","FREMONT","FREMONT","49412-1166","49412-1166","Fremont","Ms.","Sandra Anderson","Sandra","Anderson","ccacademyfremont@att.net","2319244705","2319244751","KG-Part, 1-8, GenEd"
"Cornerstone Christian School","9455 HILTON RD","9455 HILTON RD","BRIGHTON","BRIGHTON","48114-7509","48114-7509","Brighton","Dr.","Arthur Hunt","Arthur","Hunt","ahunt@cornerstoneforlife.com","8104944040","8104944041","KG-Part,1-8, GenEd, PK"
"Cornerstone Christian School","900 SOUTH WESTERN AVE","900 SOUTH WESTERN AVE","CHEBOYGAN","CHEBOYGAN","49721-1849","49721-1849","Cheboygan","Mrs.","Sally Agee","Sally","Agee","cornerstonechristian@straitsarea.com","2316272160","2316271192","KG-Part,1-8, GenEd, PK"
"Cornerstone Leadership & Business High School","6861 E. Nevada","6861 E Nevada St","Detroit","Detroit","48234","48234-2968","Detroit","Ms.","Ernestine Sanders","Ernestine","Sanders","ernestine.sanders@cornerstoneschools.org","3138921860","3138921861","9, GenEd"
"Cornerstone Nevada Middle","6861 EAST NEVADA ST","6861 EAST NEVADA ST","DETROIT","DETROIT","48234-2968","48234-2968","Detroit","Ms.","Ernestine Sanders","Ernestine","Sanders","ernestine.sanders@cornerstoneschools.org","3138921860",,"6-8, GenEd, SpecEd"
"Cornerstone School--Nevada Primary","6861 EAST NEVADA ST","6861 EAST NEVADA ST","DETROIT","DETROIT","48234-2968","48234-2968","Detroit","Ms.","Ernestine Sanders","Ernestine","Sanders","ernestine.sanders@cornerstoneschools.org","3138921860",,"KG-Part, 1-5, GenEd, PK, SpecEd"
"Corpus Christi Catholic School","12100 QUINCY ST","12100 QUINCY ST","HOLLAND","HOLLAND","49424-8003","49424-8003","West Ottawa","Ms.","Joanne Jones","Joanne","Jones","jswanjones@corpuschristischool.us","6169949864","6169949870","KG-Part, 1-8, GenEd, PK"
"Country Meadows Montessori","8622 DIXIE HWY","8622 DIXIE HWY","FAIR HAVEN","FAIR HAVEN","48023-2466","48023-2466","Algonac","Ms.","Jeanette Bostick","Jeanette","Bostick","email@country-meadows-montessori.com","5867252042",,"KG-Part, 1, GenEd, PK"
"Covenant Christian High School","1401 FERNDALE AVE SW","1401 FERNDALE AVE SW","GRAND RAPIDS","GRAND RAPIDS","49534-6509","49534-6509","Grandville","Mr.","Richard Noorman","Richard","Noorman","rnoorman@altelco.net","6164535048","6164534277","10-12, GenEd"
"Covenant Christian School","243 NORTH STILES RD","243 NORTH STILES RD","LUDINGTON","LUDINGTON","49431-9102","49431-9102","Mason Co. Central",,"Richard Ambrose","Richard","Ambrose","rambrose@charterinternet.com","2318459183","2318359085","KG-Part, 1-8, GenEd, PK"
"Cowden Lake Bible Academy","4931 NORTH BAILEY RD","4931 NORTH BAILEY RD","CORAL","CORAL","49322-9701","49322-9701","Lakeview (Montcalm)","Dr.","Larry Rolston","Larry","Rolston","clba81@yahoo.com","2313540024","2313540024","KG-Part, 1-12, GenEd"
"Cranbrook  School","P.O. Box 801, 39221 Woodward","39221 WOODWARD AVE","Bloomfield Hills","BLOOMFIELD HILLS","48303-0801","48303-0801","Bloomfield Hills","Mr.","Kurt Godfryd","Kurt","Godfryd","kgodfryd@cranbrook.edu","2486453625",,"KG-Part, 1-12, Boarding, GenEd, PK"
"Crescent Academy International","40440 PALMER RD","40440 PALMER RD","CANTON","CANTON","48188-2034","48188-2034","Plymouth-Canton","Ms.","Wahllia Abdallah","Wahllia","Abdallah","wabdallah@crescentacademy.org","7347291000","7347291004","KG,1-8, GenEd, PK"
"Cross Lutheran School","200 RUPPERT ST","200 RUPPERT ST","PIGEON","PIGEON","48755-5160","48755-5160","Elkton-Pigeon-Bay Port Laker","Ms.","Gwynne Barry","Gwynne","Barry","gwynne@crosslutheranschool.org","9894533331","9894533331","KG-Part, 1-8, GenEd, PK"
"Cross of Glory Lutheran School","61095 CAMPGROUND RD","61095 CAMPGROUND RD","WASHINGTON","WASHINGTON","48094-1403","48094-1403","Romeo","Mr.","Douglas Fillner","Douglas","Fillner","dsfill52@yahoo.com","5867819870",,"KG-Part, 1-8, GenEd"
"Crossroads Christian Academy","219 SILVER CREEK RD","219 SILVER CREEK RD","MARQUETTE","MARQUETTE","49855-9339","49855-9339","Marquette","Ms.","Willa Vallin","Willa","Vallin","willa@ccaschool.org","9062492030","9062495562","KG,KG-Part,1-8, GenEd, PK"
"Crown of Life Lutheran School","25065 EUREKA DR","25065 EUREKA DR","WARREN","WARREN","48091-5010","48091-5010","Center Line","Mr.","Daniel Nolte","Daniel","Nolte","noltedc@hotmail.com","5864276579","5864276579","KG,1-8, Faith, GenEd, PK"
"Daycroft Montessori School","1095 NORTH ZEEB RD","1095 NORTH ZEEB RD","ANN ARBOR","ANN ARBOR","48103-1472","48103-1472","Dexter","Ms.","Diane Mukkala","Diane","Mukkala","dianem@daycroft.org","7346623335","7346623360","KG-Part, 1-6, GenEd, PK"
"Daystar Christian Academy","3976 80TH AVE","3976 80TH AVE","EVART","EVART","49631-8750","49631-8750","Evart Public Schools","Ms.","Linda Derscheid","Linda","Derscheid","ebmcdca@copper.net","2317343771","2317343771","KG-Part, 1-12, GenEd, PK"
"Dearborn Christian School","21360 DONALDSON ST","21360 DONALDSON ST","DEARBORN","DEARBORN","48124-3037","48124-3037","Dearborn","Mr.","Robert De Roo","Robert","De Roo","dearbornchristian@gmail.com","3135631240","3135634348","KG-Part, 1-8, GenEd, PK"
"Dearborn Heights Montessori Center","466 NORTH JOHN DALY RD","466 NORTH JOHN DALY RD","DEARBORN HEIGHTS","DEARBORN HEIGHTS","48127-3703","48127-3703","Wayne-Westland","Ms.","M. Kay Neff","M. Kay","Neff","kayneff@aol.com","3133593000","3133593003","KG-Part, 1-8, GenEd, PK"
"Deford Christian Academy","P.O. Box 247, 1392 Kingston Rd.","1392 KINGSTON RD","Deford","DEFORD","48729-0247","48729","Cass City","Mr.","Jeff Willis","Jeff","Willis","dccdca@tband.net","9898724055","9898725112","KG-Part, 1-12, GenEd"
"DeLaSalle Collegiate High School","14600 COMMON RD","14600 COMMON RD","WARREN","WARREN","48088-3387","48088-3387","Warren Woods","Mr.","Patrick Adams","Patrick","Adams","padams@delasallehs.com","5867782207","5867786016","9-12, GenEd"
"Detroit Catholic Central High School","27225 WIXOM RD","27225 WIXOM RD","NOVI","NOVI","48374-1119","48374-1119","Novi","Fr.","Jon Huber","Jon","Huber","smartin@catholiccentral.net","2485963872","2485963811","9-12, GenEd"
"Detroit Country Day Jr. School","3600 BRADWAY BLVD","3600 BRADWAY BLVD","BLOOMFIELD HILLS","BLOOMFIELD HILLS","48301-2412","48301-2412","Birmingham","Mr.","Glen Shilling","Glen","Shilling","mwelsh@dcds.edu","2486467717","2486462458","3-5, GenEd"
"Detroit Country Day Lower School","3003 WEST MAPLE RD","3003 WEST MAPLE RD","BLOOMFIELD HILLS","BLOOMFIELD HILLS","48301-3468","48301-3468","Birmingham","Mr.","Glen Shilling","Glen","Shilling","mwelsh@dcds.edu","2486467717","2486462458","KG-Part, 1-2, GenEd, PK"
"Detroit Country Day Middle School","22400 HILLVIEW LN","22400 HILLVIEW LN","BEVERLY HILLS","BEVERLY HILLS","48025-4824","48025-4824","Birmingham","Mr.","Glen Shilling","Glen","Shilling","mwelsh@dcds.edu","2486467717","2486462458","6-8, GenEd"
"Detroit Country Day Upper School","22305 WEST 13 MILE RD","22305 WEST 13 MILE RD","BEVERLY HILLS","BEVERLY HILLS","48025-4435","48025-4435","Birmingham","Mr.","Glen Shilling","Glen","Shilling","mwelsh@dcds.edu","2486467717","2486462458","9-12, GenEd"
"Detroit Cristo Rey High School","5679 W VERNOR HWY","5679 WEST VERNOR HWY","DETROIT","DETROIT","48209-2157","48209-2157","Detroit","Ms.","Susan Rowe","Susan","Rowe","srowe@detroitcristorey.org","3138432747","3138432750","9-12, GenEd"
"Divine Child Elementary School","25001 HERBERT WEIER DR","25001 HERBERT WEIER DR","DEARBORN","DEARBORN","48128-1045","48128-1045","Dearborn","Sr.","M. Cecilia Bondy","M. Cecilia","Bondy","dccbondy@yahoo.com","3135621090","3135645455","1-8, GenEd"
"Divine Child High School","1001 NORTH SILVERY LN","1001 NORTH SILVERY LN","DEARBORN","DEARBORN","48128-1544","48128-1544","Dearborn","Mrs.","Margaret Knuth","Margaret","Knuth","knuth@divinechild.pvt.k12.mi.us","3135621990","3135629361","9-12, GenEd"
"Divine Grace Lutheran School","3000 SOUTH LAPEER RD","3000 SOUTH LAPEER RD","LAKE ORION","LAKE ORION","48359-1317","48359-1317","Lake Orion","Mr.","Paul Hoffman","Paul","Hoffman","divgrace@123.net","2483911131",,"KG-Part, 1-8, GenEd, PK"
"Dutton Christian School","6729 HANNA LAKE AVE SE","6729 HANNA LAKE AVE SE","CALEDONIA","CALEDONIA","49316-9078","49316-9078","Caledonia","Mr.","Daniel Netz","Daniel","Netz","dnetz@duttonchristianschool.org","6166988660","6166982281","6-8, GenEd"
"Dutton Christian School","6980 Hanna Lake","6980 Hanna Lake","Caledonia","Caledonia","48316","49316","Caledonia","Mr.","Daniel Netz","Daniel","Netz","dnetz@duttonchristianschool.org","6166988660","6166982281","KG-Part,1-5, GenEd,PK"
"Eagle Creek Education Fund","3739 KERN RD","3739 KERN RD","OAKLAND","OAKLAND","48363-2635","48363-2635","Rochester","Ms.","Catherine Rondeau","Catherine","Rondeau","lori@eaglecreekacademy.com","2484759999",,"KG-Part, 1-8, GenEd, PK"
"Early Impressions","25000 WEST 10 MILE RD","25000 WEST 10 MILE RD","SOUTHFIELD","SOUTHFIELD","48033-4858","48033-4858","Southfield","Ms.","Nancy Sallen","Nancy","Sallen","earlyimpress@aol.com","2483571740",,"KG,1-2, GenEd"
"East Martin Christian School","516 118TH AVE","516 118TH AVE","MARTIN","MARTIN","49070-9756","49070-9756","Martin","Mr.","Keith Fennema","Keith","Fennema","emcs@accn.org","2696725722",,"KG-Part, 1-8, GenEd"
"Eastside Christian School","2792 MICHIGAN ST NE","2792 MICHIGAN ST NE","GRAND RAPIDS","GRAND RAPIDS","49506-1241","49506-1241","Grand Rapids","Ms.","Judie Feenstra","Judie","Feenstra","eastside@eastside-christian.org","6169422939","6169421310","KG-Part, 1-9, GenEd, PK"
"Eau Claire SDA School","6562 NAOMI RD","6562 NAOMI RD","EAU CLAIRE","EAU CLAIRE","49111-9674","49111-9674","Eau Claire","Mr.","James Gray","James","Gray","bdavis@misda.org","2699444132","5173161559","KG,1-8, GenEd"
"Ebenezer Christian School","9541 White St, PO Box 158","9541 WHITE ST","Ellsworth","ELLSWORTH","49729-0158","49729-9600","Ellsworth","Ms.","Sarah Essenberg","Sarah","Essenberg","ebenezer@torchlake.com","2315887106","2315889922","KG-Part, 1-8, GenEd, PK"
"Emanuel First Lutheran School","1001 NORTH CAPITOL AVE","1001 NORTH CAPITOL AVE","LANSING","LANSING","48906-4824","48906-4824","Lansing","Mr.","Daniel Hosbach","Daniel","Hosbach","prinhosbach@comcast.net","5174854547",,"KG-Part, 1-8, GenEd, PK"
"Emanuel Lutheran School","216 NORTH ST W","216 NORTH ST W","TAWAS CITY","TAWAS CITY","48763-9159","48763-9159","Tawas","Mr.","Dennis Friske","Dennis","Friske","emanueltawas@gmail.com","9893623622",,"KG-Part, 1-8, GenEd, PK"
"Emanuel Redeemer Lutheran School","11089 YALE RD","11089 YALE RD","BROCKWAY","BROCKWAY","48097-2966","48097-2966","Yale","Pastor","Joel Neumann","Joel","Neumann","erls@millenicom.com","8103872906",,"1-8, GenEd"
"Emerson School","5425 SCIO CHURCH RD","5425 SCIO CHURCH RD","ANN ARBOR","ANN ARBOR","48103-9287","48103-9287","Ann Arbor","Mr.","Jerry Loewen","Jerry","Loewen","jlowen@emerson-school.org","7346659005",,"KG-Part, 1-8, GenEd"
"Emmanuel Lutheran School","22425 MORLEY AVE","22425 MORLEY AVE","DEARBORN","DEARBORN","48124-2103","48124-2103","Dearborn","Rev.","Joel Baseley","Joel","Baseley","j_baseley@hotmail.com","3135616265",,"KG-Part,1-6, GenEd, PK"
"Escanaba SDA Elementary School","PO Box 594","210 SOUTH LINCOLN RD","Escanaba","ESCANABA","49829-0594","49829-1340","Escanaba","Mrs.","Janaice Tirzmalis","Janaice","Tirzmalis","bdavis@misda.org","9067863039","5173161559","KG,1-8, GenEd"
"Eton Academy","1755 EAST MELTON RD","1755 EAST MELTON RD","BIRMINGHAM","BIRMINGHAM","48009-7277","48009-7277","Birmingham","Mr.","Pete Pullen","Pete","Pullen","ppullen@etonacademy.org","2486421150",,"1-12, GenEd"
"Everest Academy","5935 CLARKSTON RD","5935 CLARKSTON RD","CLARKSTON","CLARKSTON","48348-4711","48348-4711","Clarkston","Mr.","Gregory Reichert","Gregory","Reichert","greichert@everestacademy.org","2482419064","2486203942","KG,KG-Part,1-11, GenEd, PK"
"Evergreen Lutheran School","8680 EVERGREEN AVE","8680 EVERGREEN AVE","DETROIT","DETROIT","48228-2922","48228-2922","Detroit","Rev.","William Danowski","William","Danowski","william20418@yahoo.com","3135840450",,"KG-Part,1-8, GenEd"
"Factoryville Christian School","33650 FACTORYVILLE RD","33650 FACTORYVILLE RD","ATHENS","ATHENS","49011-9507","49011-9507","Colon","Mr.","Seth Wilson","Seth","Wilson","sethwilson15@hotmail.com","2697294203","2697294182","KG-Part,1-12, GenEd, PK"
"Fairhaven SDA School","G-1379 WEST LOUIS AVE","G-1379 WEST LOUIS AVE","FLINT","FLINT","48505","48505","Beecher","Mr.","John Adeogun","John","Adeogun","fairschool@sbcglobal.net","8107854024","8107856207","1-2,4-8, GenEd"
"Faith Baptist School","7306 EAST ATHERTON RD","7306 EAST ATHERTON RD","DAVISON","DAVISON","48423-2408","48423-2408","Davison","Mr.","Lawrence Nagengast","Lawrence","Nagengast","the7nags@aol.com","8106539661",,"KG-Part, 1-12, GenEd, PK"
"Faith Christian School","7455 WOODLAND RD","7455 WOODLAND RD","LAKE ODESSA","LAKE ODESSA","48849-9434","48849-9434","Lakewood",,"Bruce Barker","Bruce","Barker","fbcfcs@alldial.net","2693674621",,"KG-Part, 1-12, GenEd, PK"
"Faith Christian Schools","23130 REMICK DR","23130 REMICK DR","CLINTON TOWNSHIP","CLINTON TOWNSHIP","48036-2735","48036-2735","Mount Clemens","Mr.","Andrew Tomaskewsky","Andrew","Tomaskewsky","atomashewski@gmail.com","5867839630","5867839628","KG-Part, 1-12, GenEd, PK"
"Faith Community Christian School","9614 FISK RD","9614 FISK RD","BELDING","BELDING","48809-9424","48809-9424","Belding","Mrs.","Tricia McGovern","Tricia","McGovern","trish@fccsnet.org","6167943451","6167942469","KG-Part, 1-6, GenEd"
"Faith Lutheran School","3033 WILDER RD","3033 WILDER RD","BAY CITY","BAY CITY","48706-2360","48706-2360","Bangor Twp (Bay)","Mr.","Andrew Tomaskewsky","Andrew","Tomaskewsky","office@faithbaycity.org","9896843448","9896843545","KG-Part, 1-8, GenEd, PK"
"Faithway Christian School","1225 SOUTH CENTER RD","1225 SOUTH CENTER RD","BURTON","BURTON","48509-1723","48509-1723","Atherton","Mr.","Domenic Centofanti","Domenic","Centofanti","dcentofanti@faithwired.net","8107430055","8107430033","KG-Part, 1-12, GenEd, PK"
"Fellowship Baptist Academy","8070 SOUTH BLOOMER ST","8070 SOUTH BLOOMER ST","CARSON CITY","CARSON CITY","48811-8506","48811-8506","Carson City-Crystal","Mr.","Kevin McAlvey","Kevin","McAlvey","fbafalcons@cmsinter.net","9895846430","9895843700","KG-Part, 1-12, GenEd, PK"
"First Flint SDA School","G4285 BEECHER RD","G4285 BEECHER RD","FLINT","FLINT","48532-2711","48532-2711","Carman-Ainsworth","Mrs.","Gayle Stevens","Gayle","Stevens","bdavis@misda.org","8107320230","5173161559","1-8, GenEd"
"Fish Creek School","7217 SOUTH GARLOCK RD","7217 SOUTH GARLOCK RD","CARSON CITY","CARSON CITY","48811-8528","48811-8528","Carson City-Crystal","Mr.","Raymond Kuipers","Raymond","Kuipers","rkuipers@fishcreekschool.org","9895846006",,"KG-Part, 1-12, GenEd, PK"
"Fr. Gabriel Richard High School","4333 WHITEHALL DR","4333 WHITEHALL DR","ANN ARBOR","ANN ARBOR","48105-9395","48105-9395","Ann Arbor","Mr.","Brian Wolcott","Brian","Wolcott","bwolcott@fgrhsaa.org","7346620496","7346624133","9-12, GenEd"
"Fr. Luke M. Powers High School","G2040 WEST CARPENTER RD","G2040 WEST CARPENTER RD","FLINT","FLINT","48505-1028","48505-1028","Flint","Mr.","Thomas Furnas","Thomas","Furnas","tfurnas@powerscatholic.org","8105914741","8105910383","9-12, GenEd"
"Fr. Marquette Catholic School","500 SOUTH 4TH ST","500 SOUTH 4TH ST","MARQUETTE","MARQUETTE","49855-4706","49855-4706","Marquette","Ms.","Jackie Wright","Jackie","Wright","jwright@fathermarquette.org","9062251129","9062251987","KG-Part, 1-4, GenEd, PK, SpecEd"
"Fr. Marquette Middle School","414 WEST COLLEGE AVE","414 WEST COLLEGE AVE","MARQUETTE","MARQUETTE","49855-2704","49855-2704","Marquette","Ms.","Maryann Ferns","Maryann","Ferns","mferns@fathermarquette.org","9062267912","9062259962","5-8, GenEd, SpecEd"
"Frankel Jewish Academy","6600 WEST MAPLE RD","6600 WEST MAPLE RD","WEST BLOOMFIELD","WEST BLOOMFIELD","48322-3003","48322-3003","Walled Lake","Dr.","Renee Wohl","Renee","Wohl","rwohl@frankelja.org","2485925263","2485920022","9-12, GenEd"
"Franklin Road Christian School","40800 WEST 13 MILE RD","40800 WEST 13 MILE RD","NOVI","NOVI","48377-2327","48377-2327","Walled Lake","Rev.","Timothy Gambino","Timothy","Gambino","tgambino@brightmoorcc.org","2486687100","2486687100","KG-Part, 1-12, GenEd"
"Freedom Christian Schools","6340 AUTUMN DR","6340 AUTUMN DR","HUDSONVILLE","HUDSONVILLE","49426-9309","49426-9309","Hudsonville","Mr.","Greg Scheck","Greg","Scheck","gscheck@freedomchristianschools.net","6166692270","6166692410","KG-Part, 1-12, GenEd"
"Fremont Christian School","208 HILLCREST AVE","208 HILLCREST AVE","FREMONT","FREMONT","49412-1350","49412-1350","Fremont","Mr.","Joseph Fox","Joseph","Fox","fcs@ncats.net","2319242740","2319241240","KG-Part, 1-8, GenEd, PK"
"Friends School in Detroit","1100 SAINT AUBIN ST","1100 ST AUBIN BLVD","DETROIT","DETROIT","48207-2824","48207","Detroit","Mr.","Ed Harris","Ed","Harris","eharris@friendsschool.org","3132596722","3132598066","KG-Part, 1-8, Alt, GenEd, PK"
"Gabriel Richard Catholic High School","15325 PENNSYLVANIA RD","15325 PENNSYLVANIA RD","RIVERVIEW","RIVERVIEW","48193-8001","48193-8001","Riverview","Mr.","Joseph Whalen","Joseph","Whalen","whalenj@grriverview.org","7342841875",,"9-12, GenEd"
"Gagie School","615 FAIRVIEW AVE","615 FAIRVIEW AVE","KALAMAZOO","KALAMAZOO","49008-2420","49008-2420","Kalamazoo","Dr.","Sandra Gagie","Sandra","Gagie","gagieschool@sbcglobal.net","2693428008",,"KG-Part, 1-8, GenEd"
"Genesee Academy","9447 CORUNNA RD","9447 CORUNNA RD","SWARTZ CREEK","SWARTZ CREEK","48473-9714","48473-9714","Swartz Creek","Mr.","Imad Tibi","Imad","Tibi","principal@gaflint.org","8102507557","8106353687","KG-Part,1-10, GenEd, PK"
"Genesee Christian School","1223 SOUTH BELSAY RD","1223 SOUTH BELSAY RD","BURTON","BURTON","48509-1917","48509-1917","Bentley","Mr.","Robert Buchalski","Robert","Buchalski","mail@geneseechristianschool.com","8107433108","8107433109","KG-Part, 1-12, GenEd, PK"
"Gesu Elementary School","17139 OAK DR","17139 OAK DR","DETROIT","DETROIT","48221-3023","48221-3023","Detroit","Mr.","John Champion","John","Champion","champ565@gmail.com","3138634677","3138624395","KG-Part, 1-8, GenEd, PK"
"Gethsemane Lutheran School","3412 CRESTMONT DR","3412 CRESTMONT DR","SAGINAW","SAGINAW","48603-3204","48603-3204","Saginaw Township",,"Daniel Barthels","Daniel","Barthels","barthelsdaniel@sbcglobal.net","9897923607",,"KG-Part, 1-8, GenEd, PK"
"Giving Tree Montessori School","4351 MARSEILLES ST","4351 MARSEILLES ST","DETROIT","DETROIT","48224-1481","48224-1481","Detroit","Ms.","Carol Miller","Carol","Miller","cr4miller@yahoo.com","3138812255","3138812316","KG-Part,1-5, GenEd, PK, SpecEd"
"Go Like The Wind Montessori School","3540 DIXBORO LN","3540 DIXBORO LN","ANN ARBOR","ANN ARBOR","48105-9715","48105-9715","Ann Arbor",,"Doug Collier","Doug","Collier","doug@golikethewind.com","7347474722",,"KG-Part,1-9, GenEd, PK"
"Gobles Junior Academy","32110 6TH AVE","32110 6TH AVE","GOBLES","GOBLES","49055-9078","49055-9078","Gobles","Mr.","Thomas Coffee","Thomas","Coffee","bdavis@misda.org","2696282704","5173161559","KG, KG-Part, 1-10, GenEd"
"Good Shepherd Early Childhood Center","7400 Begole Road","7400 Begole Road","Alma","Alma","48801","48801","Alma","Pastor","John Eich","John","Eich","pastorjeich@gmail.com","9894633056","9894638513","KG,1-3, GenEd, PK"
"Good Shepherd Ev. Lutheran School","907 MATTES DR","907 MATTES DR","MIDLAND","MIDLAND","48642-3708","48642-3708","Midland","Pastor","Jonathan Quinn","Jonathan","Quinn","midpsecs@aol.com","9898354181","9898354181","KG-Part, 1-8, GenEd, PK"
"Good Shepherd Lutheran School","5496 LIPPINCOTT BLVD","5496 LIPPINCOTT BLVD","BURTON","BURTON","48519-1250","48519-1250","Bentley","Mr.","David Backus","David","Backus","good_shepherd5@yahoo.com","8107421131","8107429907","KG-Part, 1-8, GenEd, PK"
"Grace Baptist Christian School","P.O. Box 177","232 SOUTH TOWNLINE RD","Gaylord","GAYLORD","49735-0177","49735-8928","Gaylord","Mr.","Patrick Childers","Patrick","Childers","gracebaptistcrusaders@yahoo.com","9897325676","9897311122","KG-Part, 1-12, GenEd"
"Grace Christian School","325 NORTH M 140","325 NORTH M 140","WATERVLIET","WATERVLIET","49098-8545","49098-8545","Watervliet","Mr.","John Davis","John","Davis","jkohns@gcspatriots.com","2694635545",,"KG-Part, 1-12, GenEd, PK"
"Grace Christian School","4619 MACKINAW RD","4619 MACKINAW RD","SAGINAW","SAGINAW","48603-2103","48603-2103","Saginaw Township","Mrs.","Sharon Gamber","Sharon","Gamber","sdgforschool@yahoo.com","9897932129","9897932125","KG-Part, 1-12, GenEd, PK"
"Grace Lutheran School","303 RUTH ST","303 RUTH ST","AUBURN","AUBURN","48611-9463","48611-9463","Bay City","Ms.","Annette Rudick","Annette","Rudick","miss_rudick@graceauburn.org","9896624791","9896624791","KG-Part, 1-8, GenEd"
"Grand Haven Christian School","1102 GRANT AVE","1102 GRANT AVE","GRAND HAVEN","GRAND HAVEN","49417-1920","49417-1920","Grand Haven",,"Rick Geertsma","Rick","Geertsma","lbareham@grandhavenchristian.org","6168425420","6164029791","KG-Part, 1-8, GenEd, PK"
"Grand Rapids Adventist Academy","1151 OAKLEIGH RD NW","1151 OAKLEIGH RD NW","GRAND RAPIDS","GRAND RAPIDS","49504-3716","49504-3716","Grand Rapids","Ms.","Debra Barr","Debra","Barr","bdavis@misda.org","6167919797","5173161559","KG-Part, 1-12, GenEd"
"Grand Rapids Christian Elementary School","1050 Iroquois, SE","1050 Iroquois, SE","Grand Rapids","Grand Rapids","49506","49506","Grand Rapids","Mr.","Mark Krommendyk","Mark","Krommendyk","mkrommendyk@grcs.org","6165746500","6165746510","KG,KG-Part,1-5, GenEd, PK"
"Grand Rapids Christian High School","2300 PLYMOUTH AVE SE","2300 PLYMOUTH AVE SE","GRAND RAPIDS","GRAND RAPIDS","49506-5225","49506-5225","Grand Rapids","Mr.","Jim Primus","Jim","Primus","jprimus@grcs.org","6165745523","6165745518","9-12, GenEd"
"Grand Rapids Christian Middle School","1875 ROSEWOOD AVE SE","1875 ROSEWOOD AVE SE","GRAND RAPIDS","GRAND RAPIDS","49506-4463","49506-4463","Grand Rapids","Mr.","Ashanti Bryant","Ashanti","Bryant","abryant@grcs.org","6165746350","6165746316","5-8, Alt, GenEd"
"Grandville Christian School","3934 WILSON AVE SW","3934 WILSON AVE SW","GRANDVILLE","GRANDVILLE","49418-2345","49418-2345","Grandville","Mr.","Timothy Steenstra","Timothy","Steenstra","tsteenstra@grandvillechristian.org","6165389710",,"RetK,RetK-Part,KG,KG-Part,1-6, GenEd, PK"
"Grant Christian School","12931 POPLAR AVE G","12931 POPLAR AVE # G","GRANT","GRANT","49327-9323","49327-9323","Grant","Mr.","Ivan Kraker","Ivan","Kraker","ikraker@grantchristianschool.org","2318348445","2318348445","KG-Part, 1-8, GenEd, PK"
"Grayling SDA School","2468 CAMP AUSABLE RD","2468 CAMP AUSABLE RD","GRAYLING","GRAYLING","49738-6785","49738-6785","Crawford AuSable","Mr.","Ben Zork","Ben","Zork","bdavis@misda.org","9893482501","5173161559","1-8, GenEd"
"Great Lakes Adventist Academy","PO Box 68","7477 ACADEMY RD","Cedar Lake","CEDAR LAKE","48812-0068","48812","Montabella","Mr.","Raymond Davis","Raymond","Davis","bdavis@misda.org","9894275181","5173161559","9-12, Boarding, GenEd"
"Greater Lansing Adventist School","5330 WEST ST JOE HWY","5330 WEST ST JOE HWY","LANSING","LANSING","48917-4060","48917-4060","Waverly","Ms.","Judy Shull","Judy","Shull","bdavis@misda.org","5173215565","5173161559","KG-Part, 1-10, GenEd, PK"
"Greenhills School","850 GREENHILLS DR","850 GREENHILLS DR","ANN ARBOR","ANN ARBOR","48105-2720","48105-2720","Ann Arbor","Mr.","Peter Fayroian","Peter","Fayroian","pfayroian@greenhillsschool.org","7347694010","7342054089","6-12, GenEd"
"Grosse Pointe Academy","171 LAKE SHORE RD","171 LAKE SHORE RD","GROSSE POINTE FARMS","GROSSE POINTE FARMS","48236-3760","48236-3760","Grosse Pointe","Mr.","James Murdock","James","Murdock","jmurdock@gpacademy.org","3138861221","3138868050","KG-Part, 1-8, GenEd, PK"
"GSLS Academy of Fine Arts & Science","1950 SOUTH BALDWIN RD","1950 SOUTH BALDWIN RD","LAKE ORION","LAKE ORION","48360-1016","48360-1016","Lake Orion","Ms.","Marilyn Campbell","Marilyn","Campbell","mcampbell@gsls.org","2483917244","2483910558","KG,KG-Part,1-8, GenEd, PK"
"GTB Life Long Learning Center","845 BUSINESS PARK DR","845 BUSINESS PARK DR","TRAVERSE CITY","TRAVERSE CITY","49686-8683","49686-8683","Traverse City","Mr.","William Martell","William","Martell","william.martell@gtbindians.com","2319353602","2315347773","9-12, GenEd"
"Guardian Angels School","521 EAST 14 MILE RD","521 EAST 14 MILE RD","CLAWSON","CLAWSON","48017-2175","48017-2175","Clawson","Ms.","Sharon Hammerschmidt","Sharon","Hammerschmidt","sharonh@guardiana.com","2485885545","2485897356","KG-Part, 1-8, GenEd, PK"
"Guardian Lutheran School","24544 CHERRY HILL ST","24544 CHERRY HILL ST","DEARBORN","DEARBORN","48124-1369","48124-1369","Dearborn","Mr.","Walter Krone","Walter","Krone","lckronew@cuaa.edu","3132743665","3132741414","KG-Part, 1-8, GenEd, PK"
"Hackett Catholic Central High School","1000 WEST KILGORE RD","1000 WEST KILGORE RD","KALAMAZOO","KALAMAZOO","49008-3616","49008-3616","Kalamazoo","Mr.","Timothy Eastman","Timothy","Eastman","teastman@hackettcc.org","2693812646","2693813919","9-12, GenEd"
"Harbor Light Christian School","8333 CLAYTON RD","8333 CLAYTON RD","HARBOR SPRINGS","HARBOR SPRINGS","49740-9571","49740-9571","Harbor Springs","Mr.","Gary Urman","Gary","Urman","gurman@harborlight.org","2313477859","2313477703","KG-Part, 1-12, GenEd, PK"
"Hastings SDA School","888 TERRY LN","888 TERRY LN","HASTINGS","HASTINGS","49058-9350","49058-9350","Hastings","Ms.","Ann Barrett","Ann","Barrett","bdavis@misda.org","2699453896","5173161559","1-8, GenEd"
"Havenwyck School","1525 UNIVERSITY DR","1525 UNIVERSITY DR","AUBURN HILLS","AUBURN HILLS","48326-2673","48326-2673","Pontiac","Mr.","Joe Rheault","Joe","Rheault","jrheault@psysolutions.com","2483738626","2483776776","3-12, GenEd"
"Hebrew Day School of Ann Arbor","2937 BIRCH HOLLOW DR","2937 BIRCH HOLLOW DR","ANN ARBOR","ANN ARBOR","48108-2301","48108-2301","Ann Arbor","Ms.","Dina Shtull-Leber","Dina","Shtull-Leber","office@hdsaa.org","7349714633","7349716204","KG-Part, 1-5, GenEd"
"Heritage Christian Academy","6312 QUAIL RUN DR","6312 QUAIL RUN DR","KALAMAZOO","KALAMAZOO","49009-2811","49009-2811","Kalamazoo","Mr.","Robert Barnes","Robert","Barnes","bbarnes@hcaeagles.org","2693721400","2693726018","KG-Part, 1-12, GenEd, PK"
"Heritage Christian School","4900 40TH AVE","4900 40TH AVE","HUDSONVILLE","HUDSONVILLE","49426-9480","49426-9480","Hudsonville","Mr.","Brian Kuiper","Brian","Kuiper","bkuiper@hchr.org","6166691773",,"KG-Part, 1-9, GenEd"
"Heritage Christian School","2024 PONTIAC RD","2024 PONTIAC RD","AUBURN HILLS","AUBURN HILLS","48326-2453","48326-2453","Pontiac","Pastor","John Fields","John","Fields","office@theheritagebaptistchurch.com","2483731450",,"KG-Part, 1-12, GenEd, PK"
"Holland Christian High School","950 OTTAWA AVE","950 OTTAWA AVE","HOLLAND","HOLLAND","49423-4628","49423-4628","Holland","Mr.","Troy Stahl","Troy","Stahl","tstahl@hollandchristian.org","6168202901",,"9-12, GenEd"
"Holland SDA School","11385 OTTOGAN ST","11385 OTTOGAN ST","HOLLAND","HOLLAND","49423-9043","49423-9043","Holland","Ms.","Gabriel Mendez","Gabriel","Mendez","bdavis@misda.org","6163965941","5173161559","KG,1-8, GenEd, PK"
"Holt Lutheran Schools","2418 AURELIUS RD","2418 AURELIUS RD","HOLT","HOLT","48842-2118","48842-2118","Holt","Mr.","Daniel Burk","Daniel","Burk","Principal@HoltLutheran.org","5176943182","5176946371","KG, 1-12, GenEd, PK"
"Holy Angels Elementary School","130 EAST TENTH ST","130 EAST TENTH ST","TRAVERSE CITY","TRAVERSE CITY","49684-3206","49684-3206","Traverse City","Mrs.","Janet Troppman","Janet","Troppman","jtropp@gtacs.org","2319465961","2319461878","KG-Part, 1-2, GenEd, PK"
"Holy Cross Catholic School","618 SOUTH WATER ST","618 SOUTH WATER ST","MARINE CITY","MARINE CITY","48039-3601","48039-3601","East China","Ms.","Marilynn Pavlov","Marilynn","Pavlov","principal@holycrossonline.net","8107653591","8107659074","KG-Part,1-8, GenEd, PK"
"Holy Cross Lutheran School","610 COURT ST","610 COURT ST","SAGINAW","SAGINAW","48602-4249","48602-4249","Saginaw","Mr.","Roger Wolter","Roger","Wolter","roger.wolter@hcls.org","9897939795","9897937441","KG-Part, 1-8, GenEd, PK"
"Holy Family Regional School","2633 JOHN R RD","2633 JOHN R RD","ROCHESTER HILLS","ROCHESTER HILLS","48307-4652","48307-4652","Rochester","Mr.","Jon Myers","Jon","Myers","jonmyers64@comcast.net","2482993798","2486700320","KG,KG-Part,1-8, GenEd, PK"
"Holy Family School","411 WILKINSON ST","411 WILKINSON ST","EAST TAWAS","EAST TAWAS","48730-1130","48730-1130","Tawas","Ms.","Linda Howe","Linda","Howe","howel@charterinternet.com","9893625651","9893629077","KG-Part, 1-6, GenEd, PK"
"Holy Family School","215 ORCHARD ST","215 ORCHARD ST","GRAND BLANC","GRAND BLANC","48439-1374","48439-1374","Grand Blanc","Ms.","Michele Jahn","Michele","Jahn","mjahn@hfsgb.org","8106949072","8106949405","KG-Part, 1-8, GenEd, PK"
"Holy Ghost Lutheran School","3563 HEISS RD","3563 HEISS RD","MONROE","MONROE","48162-9458","48162-9458","Monroe","Mr.","Eric Heins","Eric","Heins","eheins@charter.net","7342420509","7342422701","KG-Part, 1-8, GenEd, PK"
"Holy Name School","680 HARMON ST","680 HARMON ST","BIRMINGHAM","BIRMINGHAM","48009-1328","48009-1328","Birmingham","Mrs.","Mary Ann Grady","Mary Ann","Grady","annice@hnchurch.org","2486442722","2486441191","KG-Part, 1-8, GenEd, PK"
"Holy Name School","409 SOUTH 22ND ST","409 SOUTH 22ND ST","ESCANABA","ESCANABA","49829-2242","49829-2242","Escanaba","Mr.","Joseph Carlson","Joseph","Carlson","JCARLSON@HOLYNAMECRUSADERS.COM","9067867550","9067867582","KG-Part, 1-8, GenEd, PK"
"Holy Redeemer Elementary School","1711 JUNCTION ST","1711 JUNCTION ST","DETROIT","DETROIT","48209-2109","48209-2109","Detroit","Mr.","John Kiley","John","Kiley","john_kiley06@yahoo.com","3138415230",,"KG-Part, 1-8, GenEd"
"Holy Rosary School","5191 RICHFIELD RD","5191 RICHFIELD RD","FLINT","FLINT","48506-2114","48506-2114","Kearsley","Mrs.","Deborah Hodges","Deborah","Hodges","ddhodge81@comcast.net","8107364220","8107369129","KG-Part, 1-8, GenEd"
"Holy Spirit Central School","201 SAGINAW ST","201 SAGINAW ST","NORWAY","NORWAY","49870-1135","49870-1135","Norway-Vulcan","Ms.","Elizabeth Stack","Elizabeth","Stack","ebieannstack@yahoo.com","9065638817","9065638854","KG-Part, 1-8, GenEd, PK"
"Holy Spirit Roman Catholic School","9565 MUSCH RD","9565 MUSCH RD","BRIGHTON","BRIGHTON","48116-8841","48116-8841","Brighton","Ms.","Anna Piccirillo","Anna","Piccirillo","piccira@holyspiritbrighton.com","8102319199","8102316129","KG-Part, 1-8, GenEd, PK"
"Holy Spirit School","2222 LAKE MICHIGAN DR NW","2222 LAKE MICHIGAN DR NW","GRAND RAPIDS","GRAND RAPIDS","49504-5965","49504-5965","Grand Rapids","Ms.","Sharon Grant","Sharon","Grant","s_grant@hsparish.com","6164532772","6164530018","KG-Part, 1-8, GenEd, PK"
"Holy Trinity Catholic School","1304 ALPINE CHURCH RD NW","1304 ALPINE CHURCH RD NW","COMSTOCK PARK","COMSTOCK PARK","49321-9703","49321-9703","Kenowa Hills","Mrs.","Kathy Rand","Kathy","Rand","holytrinitycp@comcast.net","6167840696","6167102116","KG-Part, 1-8, GenEd, PK"
"Holy Trinity Ev Lutheran School","4201 BURLINGAME AVE SW","4201 BURLINGAME AVE SW","WYOMING","WYOMING","49509-3726","49509-3726","Wyoming","Mr.","Larry Sellnow","Larry","Sellnow","lsellnow@juno.com","6165381122","6165381122","KG-Part, 1-8, GenEd, PK"
"Holy Trinity School","1004 SOUTH WENONA ST","1004 SOUTH WENONA ST","BAY CITY","BAY CITY","48706-5072","48706-5072","Bay City","Ms.","Terrie De Waele","Terrie","De Waele","tdewaele@bacschools.org","9898923018","9898920793","KG-Part, 1-5, GenEd, PK"
"Hope Protestant Reformed Christian School","1545 WILSON AVE SW","1545 WILSON AVE SW","GRAND RAPIDS","GRAND RAPIDS","49534-6522","49534-6522","Grandville","Mr.","Ronald Koole","Ronald","Koole","hopeprcs@juno.com","6164539717","6164539907","KG-Part, 1-9, GenEd"
"Howardsville Christian School","53441 BENT RD","53441 BENT RD","MARCELLUS","MARCELLUS","49067-9447","49067-9447","Three Rivers","Mr.","Kenneth Ric Gilson","Kenneth Ric","Gilson","rgilson@hcseagles.com","2696469367","2696467006","KG-Part, 1-12, GenEd, PK"
"Huda School and Montessori","32220 FRANKLIN RD","32220 FRANKLIN RD","FRANKLIN","FRANKLIN","48025-1131","48025-1131","Birmingham","Mrs.","Azra Ali","Azra","Ali","hudaschool@yahoo.com","2486260900","2486267146","KG-Part, 1-8, GenEd, PK"
"Hudsonville Christian School","3435 OAK ST","3435 OAK ST","HUDSONVILLE","HUDSONVILLE","49426-1005","49426-1005","Hudsonville","Mr.","Dan Pott","Dan","Pott","dpott@4hcs.org","6166696689","6165813454","KG-Part, 1-8, GenEd, PK"
"Huron Valley Catholic School","1300 NORTH PROSPECT RD","1300 NORTH PROSPECT RD","YPSILANTI","YPSILANTI","48198-3093","48198-3093","Ypsilanti","Mr.","Timothy Kotyuk","Timothy","Kotyuk","tkotyuk@huronvalleyschool.org","7344830366","7344830366","KG-Part, 1-8, GenEd, PK"
"Huron Valley Lutheran High School","33740 COWAN RD","33740 COWAN RD","WESTLAND","WESTLAND","48185-2374","48185-2374","Wayne-Westland","Mr.","Dan Schultz","Dan","Schultz","hvlhs@hotmail.com","7345250160","7345256717","9-12, GenEd"
"Imlay City Christian School","7197 EAST IMLAY CITY RD","7197 EAST IMLAY CITY RD","IMLAY CITY","IMLAY CITY","48444-9446","48444-9446","Imlay City","Ms.","Karen Hibbler","Karen","Hibbler","iccsmrshibbler@yahoo.com","8107245695","8107245355","KG-Part, 1-8, GenEd, PK"
"Immaculate Conception Elementary School","218 VINE ST","218 VINE ST","TRAVERSE CITY","TRAVERSE CITY","49684-2264","49684-2264","Traverse City","Mr.","Matt Bauman","Matt","Bauman","mbauma@gtacs.org","2319471252","2319472508","3-5, GenEd"
"Immaculate Conception School","7043 CHURCH RD","7043 CHURCH RD","IRA","IRA","48023-2301","48023-2301","Anchor Bay","Mrs.","Kathleen Steele","Kathleen","Steele","icprincipal@comcast.net","5867250078",,"KG-Part, 1-8, GenEd, PK"
"Immaculate Conception School","601 SOUTH DOUGLAS AVE","601 SOUTH DOUGLAS AVE","THREE RIVERS","THREE RIVERS","49093-2044","49093-2044","Three Rivers","Ms.","Mariah Mandeville","Mariah","Mandeville","mmandeville@iccatholicschool.com","2692732085","2692732114","KG-Part,1-8, GenEd, PK"
"Immaculate Conception Ukranian School","29500 WESTBROOK AVE","29500 WESTBROOK AVE","WARREN","WARREN","48092-5427","48092-5427","Warren Consolidated","Ms.","Dianne Karpinsky","Dianne","Karpinsky","diannekarpinsky@yahoo.com","5865742480","5865743497","KG-Part, 1-8, GenEd, PK"
"Immaculate Heart of Mary School","1951 Plymouth SE","1951 PLYMOUTH SE","Grand Rapids","GRAND RAPIDS","49506-4495","49506","Grand Rapids","Ms.","Stacey Slomski","Stacey","Slomski","principal@ihmschoolgr.com","6162414633",,"KG-Part,1-8, GenEd, PK"
"Immaculate Heart of Mary-St. Casimir","3830 ROSEMONT ST","3830 ROSEMONT ST","LANSING","LANSING","48910-4525","48910-4525","Lansing","Mrs.","Angela Johnston","Angela","Johnston","johnstona@ihmlansing.org","5178826631","5173930855","KG-Part, 1-8, GenEd"
"Immanuel - St. James Lutheran School","2066 OAKWOOD AVE NE","2066 OAKWOOD AVE NE","GRAND RAPIDS","GRAND RAPIDS","49505-4170","49505-4170","Grand Rapids","Ms.","Lisa Singleton","Lisa","Singleton","isjluth@iserv.net","6163630505",,"KG-Part, 1-8, GenEd, PK"
"Immanuel Lutheran School","615 Washington Way","615 WASHINGTON WAY","Sault Ste. Marie","SAULT SAINTE MARIE","49783-2657","49783-2657","Sault Ste. Marie","Mr.","Justin Groth","Justin","Groth","grothje@gmail.com","9066322640","9066323640","KG-Part, 1-8, GenEd"
"Immanuel Lutheran School","355 WILSON ST","355 WILSON ST","ALPENA","ALPENA","49707-1423","49707-1423","Alpena","Mrs.","Pamela White","Pamela","White","ilsalpena@deepnet.net","9893544805","9893581102","KG-Part, 1-8, GenEd, PK"
"Immanuel Lutheran School","247 NORTH LINCOLN ST","247 NORTH LINCOLN ST","BAY CITY","BAY CITY","48708-6648","48708-6648","Bay City","Mrs.","Pat Hambaum","Pat","Hambaum","path@immanuelbaycity.com","9898938521","9898934172","KG-Part, 1-8, GenEd, PK"
"Immanuel Lutheran School","8220 EAST HOLLAND RD","8220 EAST HOLLAND RD","SAGINAW","SAGINAW","48601-9479","48601-9479","Frankenmuth","Mr.","Dennis Neumeyer","Dennis","Neumeyer","school@frankentrost.org","9897544285","9897540454","KG-Part, 1-8, GenEd, PK"
"Inter City Baptist School","4700 ALLEN RD","4700 ALLEN RD","ALLEN PARK","ALLEN PARK","48101-2768","48101-2768","Melvindale-N. Allen Park","Mr.","James Hubbard","James","Hubbard","jhubbard@intercity.org","3139286900",,"KG-Part, 1-12, GenEd"
"Interlochen Arts Academy","4000 M-137 Hwy S., PO Box 199","4000 M 137","Interlochen","Interlochen","49643-0199","49643-8427","Traverse City","Mr.","Edward Farraday","Edward","Farraday","farradayec@interlochen.org","2312767374","2312767885","9-12, Boarding, GenEd"
"Ionia SDA School","721 ELMWOOD DR","721 ELMWOOD DR","IONIA","IONIA","48846-1042","48846-1042","Ionia Twp #2","Mr.","Jeff Thompson","Jeff","Thompson","bdavis@misda.org","6165211971","5173161559","1-8, GenEd"
"Ithaca SDA School","935 NORTH PINE RIVER ST","935 NORTH PINE RIVER ST","ITHACA","ITHACA","48847-1119","48847-1119","Ithaca","Ms.","Rebecca White","Rebecca","White","bdavis@misda.org","9898754961","5173161559","KG-Part, 1-8, GenEd"
"Jackson Catholic Middle School","915 COOPER ST","915 COOPER ST","JACKSON","JACKSON","49202-3325","49202-3325","Jackson","Mr.","Anthony Shaughnessy","Anthony","Shaughnessy","tonyshaughnessy@hotmail.com","5177843385","5177842316","7-8, GenEd"
"Jackson Christian School","4200 LOWE RD","4200 LOWE RD","JACKSON","JACKSON","49203-5528","49203-5528","Jackson","Mr.","Jimmy Dolson","Jimmy","Dolson","jdolson@jacksonchristianschool.org","5177832658","5177834235","KG-Part, 1-12, GenEd, PK"
"Japhet School","31201 DORCHESTER AVE","31201 DORCHESTER AVE","MADISON HEIGHTS","MADISON HEIGHTS","48071-1075","48071-1075","Lamphere","Ms.","Catherine Mohan","Catherine","Mohan","frontoffice@japhet.org","2485859150","2485854495","KG-Part, 1-8, GenEd, PK"
"Jenison Christian School","7726 GRACELAND DR","7726 GRACELAND DR","JENISON","JENISON","49428-7755","49428-7755","Jenison","Mr.","Tim Paauw","Tim","Paauw","tpaauw@jenisonchristian.org","6164573301",,"KG-Part, 1-8, GenEd, PK"
"John Paul II Catholic School","1590 RIVERBANK ST","1590 RIVERBANK ST","LINCOLN PARK","LINCOLN PARK","48146-3867","48146-3867","Lincoln Park","Mrs.","Mariann Lupinacci","Mariann","Lupinacci","principal@christgoodshepherd.org","3133860633","3139281326","KG,1-8, GenEd, PK"
"Kalamazoo Christian High School","2121 STADIUM DR","2121 STADIUM DR","KALAMAZOO","KALAMAZOO","49008-1644","49008-1644","Kalamazoo","Ms.","Linda Dahnke","Linda","Dahnke","ldahnke@kcsa.org","2693812250","2693810319","9-12, GenEd"
"Kalamazoo Christian Middle School","3333 SOUTH WESTNEDGE AVE","3333 SOUTH WESTNEDGE AVE","KALAMAZOO","KALAMAZOO","49008-4902","49008-4902","Kalamazoo","Mr.","David Koning","David","Koning","dakoning@kcsa.org","2693433645","2693434649","6-8, GenEd"
"Kalamazoo Christian W. Elem. School","3800 SOUTH 12TH ST","3800 SOUTH 12TH ST","KALAMAZOO","KALAMAZOO","49009-9516","49009-9516","Kalamazoo","Mr.","Marc Verkaik","Marc","Verkaik","mverkaik@kcsa.org","2695442332","2695442391","KG-Part, 1-5, GenEd, PK"
"Kalamazoo Country Day","4221 EAST MILHAM AVE","4221 EAST MILHAM AVE","PORTAGE","PORTAGE","49002-9390","49002-9390","Portage","Mr.","Nicholas Edgerton","Nicholas","Edgerton","nedgerton@kalamazoocountryday.org","2693290116","2693291850","KG-Part, 1-8, GenEd, PK"
"Kalamazoo SDA School","1601 NICHOLS RD","1601 NICHOLS RD","KALAMAZOO","KALAMAZOO","49006-2007","49006-2007","Kalamazoo","Mr.","William Crawford","William","Crawford","bdavis@misda.org","2693428943","5173161559","KG-Part,1-10, GenEd"
"Kazoo School","1401 CHERRY ST","1401 CHERRY ST","KALAMAZOO","KALAMAZOO","49008-1824","49008-1824","Kalamazoo","Ms.","Christine Morgan","Christine","Morgan","cmorgan@kresanet.org","2693453239",,"KG-Part, 1-8, GenEd, PK"
"Kingdom Academy","PO Box 310528","728 EAST STEWART AVE","Flint","FLINT","48531-0528","48505-5352","Flint","Ms.","Tamiko Mason","Tamiko","Mason","mrstamikoisrich@gmail.com","8107325880",,"KG-Part,1-6, GenEd, PK"
"Kingsbury School","5000 HOSNER RD","5000 HOSNER RD","OXFORD","OXFORD","48370-1000","48370-1000","Oxford","Mr.","Thomas Mecsey","Thomas","Mecsey","tmecsey@kingsburyschool.org","2486282571","2486283612","KG-Part, 1-8, GenEd, PK"
"Ladywood High School--Detroit","14680 NEWBURGH RD","14680 NEWBURGH RD","LIVONIA","LIVONIA","48154-5034","48154-5034","Livonia","Ms.","Joan Fitzgerald","Joan","Fitzgerald","jfitzgerald@ladywood.org","7345911544","7345914214","9-12, GenEd"
"Laingsburg Christian School","P.O. Box 250, 901 E. Grand River","901 EAST GRAND RIVER RD","Laingsburg","LAINGSBURG","48848-0250","48848","Laingsburg","Ms.","Barbara Vincent","Barbara","Vincent","vincentbarbarac@gmail.com","5176512081",,"KG-Part,1-12, GenEd, PK"
"Lake Area Christian School","63590 BORGERT RD","63590 BORGERT RD","STURGIS","STURGIS","49091-9362","49091-9362","Centreville",,"Ruby Miller","Ruby","Miller","lakearea@peoplepc.com","2696515135",,"KG-Part, 1-12, GenEd, PK"
"Lake Michigan Academy","2428 BURTON ST SE","2428 BURTON ST SE","GRAND RAPIDS","GRAND RAPIDS","49546-4806","49546-4806","Grand Rapids","Ms.","Rebecca Rop","Rebecca","Rop","rrop@mylma.org","6164643330","6162851935","2-12, GenEd"
"Lake Michigan Catholic MS/HS","915 PLEASANT ST","915 PLEASANT ST","SAINT JOSEPH","SAINT JOSEPH","49085-1245","49085-1245","St. Joseph","Mr.","John Berlin","John","Berlin","jberlin@lmclakers.com","2699832511",,"6-12, GenEd"
"Lake Michigan Catholic School","3165 WASHINGTON AVE","3165 WASHINGTON AVE","SAINT JOSEPH","SAINT JOSEPH","49085-3400","49085-3400","St. Joseph","Ms.","Jody Maher","Jody","Maher","catholicprincipal@yahoo.com","2694290227","2698762646","KG-Part, 1-5, GenEd, PK"
"Lake Orion Baptist School","255 EAST SCRIPPS RD","255 EAST SCRIPPS RD","LAKE ORION","LAKE ORION","48360-2245","48360-2245","Lake Orion","Mr.","Tony Bryson","Tony","Bryson","tbryson@fbclo.org","2486936203","2486936177","KG-Part, 1-12, GenEd"
"Lakes Area Montessori School","8605 RICHARDSON RD","8605 RICHARDSON RD","COMMERCE TOWNSHIP","COMMERCE TOWNSHIP","48390-1362","48390-1362","Walled Lake","Ms.","Usha Mangrulkar","Usha","Mangrulkar","mangrulkar@comcast.net","2483600500","2487379516","KG-Part,1-5, GenEd, PK"
"Lakeshore Christian Academy","13664 LAKESHORE DR","13664 LAKESHORE DR","GRAND HAVEN","GRAND HAVEN","49417-9443","49417-9443","Grand Haven","Mr.","Mark Green","Mark","Green","mgreen@contactica.com","6168428290","6168428290","KG-Part, 1-12, GenEd, PK"
"Lamont Christian School","5260 LEONARD ST","5260 LEONARD ST","COOPERSVILLE","COOPERSVILLE","49404-8714","49404-8714","Coopersville","Ms.","Bev Breen","Bev","Breen","bbreen@lamontcs.org","6166771757","6166772935","KG-Part, 1-8, GenEd, PK"
"Lansing Baptist School","1902 EAST CAVANAUGH RD","1902 EAST CAVANAUGH RD","LANSING","LANSING","48910-3694","48910-3694","Lansing","Mr.","Steve Green","Steve","Green","lbspacers1@gmail.com","5178822385",,"KG-Part,1-12, GenEd"
"Lansing Catholic Central High School","501 MARSHALL ST","501 MARSHALL ST","LANSING","LANSING","48912-2306","48912-2306","Lansing","Mr.","Thomas Maloney","Thomas","Maloney","maloney@lansingcatholic.org","5172672100","5172672135","9-12, GenEd"
"Lansing Christian School","3405 Belle Chase Way","3405 BELLE CHASE WAY","Lansing","LANSING","48911-4252","48911-4252","Holt","Mrs.","Pamela Campbell","Pamela","Campbell","olowe@lansingchristianschool.org","5178825779","5178825849","KG-Part, 1-12, GenEd, PK"
"Leelanau School","1 OLD HOMESTEAD RD","1 OLD HOMESTEAD RD","GLEN ARBOR","GLEN ARBOR","49636-9720","49636-9720","Glen Lake","Mr.","Richard Odell","Richard","Odell","info@leelanau.org","2313345827","2313345899","9-12, Boarding, GenEd"
"Legacy Christian School","67 68TH ST SW","67 68TH ST SW","GRAND RAPIDS","GRAND RAPIDS","49548-7111","49548-7111","Kentwood","Mr.","Vincent Bonnema","Vincent","Bonnema","vbonnema@legacycs.org","6164553860","6164551960","KG-Part, 1-8, GenEd, PK"
"Lenawee Christian School","111 WOLF CREEK HWY","111 WOLF CREEK HWY","ADRIAN","ADRIAN","49221-9487","49221-9487","Adrian","Mr.","Ronald Evans","Ronald","Evans","revans@lenawee.org","5172637590","5172656558","KG-Part, 1-12, GenEd, PK"
"Living Stones Academy","1250 Sigsbee Street, SE","1250 Sigsbee Street, SE","Grand Rapids","Grand Rapids","49506","49506","Grand Rapids","Ms.","Karyn Farrar-Perkins","Karyn","Farrar-Perkins","karynfp@livingstonesgr.org","6168191902",,"KG,1-5, GenEd, PK"
"Living Word Lutheran School","3838 NORTH ROCHESTER RD","3838 NORTH ROCHESTER RD","ROCHESTER","ROCHESTER","48306-1052","48306-1052","Rochester","Ms.","Stacy Hoeft","Stacy","Hoeft","livingwordschool@livword.net","2486519474","2486518349","KG-Part, 1-8, GenEd, PK"
"Livingston Christian Schools","550 EAST HAMBURG ST","550 EAST HAMBURG ST","PINCKNEY","PINCKNEY","48169-9105","48169-9105","Pinckney","Mr.","Ted Nast","Ted","Nast","admin.hncs@comcast.net","7348789818","7348789830","KG-Part, 1-12, GenEd, PK"
"Loyola High School","15325 PINEHURST ST","15325 PINEHURST ST","DETROIT","DETROIT","48238-1633","48238-1633","Detroit",,"DeLisa Jones","DeLisa","Jones","djones@loyolahsdetroit.org","3138612407",,"9-12, GenEd"
"Ludington Area Catholic School","700 EAST BRYANT RD","700 EAST BRYANT RD","LUDINGTON","LUDINGTON","49431-1572","49431-1572","Ludington","Mr.","Collin Thompson","Collin","Thompson","cthompson@lacschool.com","2318433188","2318432052","KG-Part,1-7, GenEd, PK"
"Lumen Christi High School","3483 SPRING ARBOR RD","3483 SPRING ARBOR RD","JACKSON","JACKSON","49203-3637","49203-3637","Jackson","Mr.","Patrick Kalahar","Patrick","Kalahar","pkalahar@hotmail.com","5177870630","5177871066","9-12, GenEd"
"Lutheran High School NW","1000 BAGLEY DR","1000 BAGLEY DR","ROCHESTER HILLS","ROCHESTER HILLS","48309-3846","48309-3846","Avondale","Mr.","Paul Looker","Paul","Looker","plooker@lhnw.lhsa.com","2488526677","2488522667","9-12, GenEd"
"Lutheran High School South","8210 NORTH TELEGRAPH RD","8210 NORTH TELEGRAPH RD","NEWPORT","NEWPORT","48166-8913","48166-8913","Airport","Mr.","Steven Garrabrant","Steven","Garrabrant","sgarrabrant@lutheranhighsouth.com","7345868832","7346378551","9-12, GenEd"
"Lutheran High School-North","16825 24 MILE RD","16825 24 MILE RD","MACOMB","MACOMB","48042-2901","48042-2901","Utica","Mr.","John Reincke","John","Reincke","jreincke@lhsa.com","5867819151","5867819151","9-12, GenEd"
"Lutheran High School-Westland","33300 COWAN RD","33300 COWAN RD","WESTLAND","WESTLAND","48185-2375","48185-2375","Wayne-Westland","Mr.","Steven Schwecke","Steven","Schwecke","sschwecke@lhsa.com","7344222090","7344228566","9-12, GenEd"
"Macomb Christian Schools","28501 LORRAINE AVE","28501 LORRAINE AVE","WARREN","WARREN","48093-8202","48093-8202","Warren Consolidated","Ms.","Kristen Nelson","Kristen","Nelson","knelson@macombchristianschools.org","5867518980","5867517946","KG-Part, 1-12, GenEd, PK"
"Manistee Catholic Central Schools","1200 US HIGHWAY 31 S","1200 US HIGHWAY 31 S","MANISTEE","MANISTEE","49660-2267","49660-2267","Manistee","Mrs.","Jan Bigalke","Jan","Bigalke","bigalkej@manistee.org","2317232529","2317230669","KG-Part, 1-12, GenEd, PK"
"Mapletree Montessori Academy","2944 SOUTH OLD US HIGHWAY 23","2944 SOUTH OLD US HIGHWAY 23","BRIGHTON","BRIGHTON","48114-8601","48114-8601","Brighton","Ms.","Patricia Cherry","Patricia","Cherry","pscherry@sbcglobal.net","8102258321","8102257258","KG-Part,1-6, GenEd, PK"
"Maplewood Baptist Academy","3255 WEST M 80","3255 WEST M 80","KINROSS","KINROSS","49752-9150","49752-9150","Rudyard","Dr.","Tim Rader","Tim","Rader","maplewood_blackbears@hotmail.com","9064951572","9064957433","KG-Part, 1-12, GenEd, PK"
"Marian High School","7225 LAHSER RD","7225 LAHSER RD","BLOOMFIELD HILLS","BLOOMFIELD HILLS","48301-4047","48301-4047","Birmingham","Sr.","Lenore Pochelski","Lenore","Pochelski","lenoreihm@marian-hs.org","2486441750","2486446107","9-12, GenEd"
"Meadow Montessori School","1670 SOUTH RAISINVILLE RD","1670 SOUTH RAISINVILLE RD","MONROE","MONROE","48161-9045","48161-9045","Ida","Ms.","Catharine Calder","Catharine","Calder","ccalder@meadowmontessori.org","7342419496","7342410829","KG-Part, 1-12, GenEd, PK"
"Memorial Lutheran School","2070 EAST SHERWOOD RD","2070 EAST SHERWOOD RD","WILLIAMSTON","WILLIAMSTON","48895-9605","48895-9605","Williamston","Mr.","Joshua Pederson","Joshua","Pederson","jpedersons79@gmail.com","5176551402","5176551402","KG-Part, 1-8, GenEd"
"Menominee Catholic Central","1406 10TH AVE","1406 10TH AVE","MENOMINEE","MENOMINEE","49858-2604","49858-2604","Menominee","Mr.","Daniel Paul","Daniel","Paul","danpaul@catholiccentral.us","9068633190","9068633990","KG-Part, 1-8, GenEd, PK"
"Mercy High School","29300 WEST 11 MILE RD","29300 WEST 11 MILE RD","FARMINGTON HILLS","FARMINGTON HILLS","48336-1409","48336-1409","Farmington","Ms.","Carolyn Witte","Carolyn","Witte","crwitte@mhsmi.org","2484768020","2484763691","9-12, GenEd"
"Mesivta of Toledo","4200 Walnut Lake Rd.","4200 Walnut Lake Rd","West Bloomfield","West Bloomfield","48075","48323-2772","West Bloomfield","Mr.","Pinchus Neuberger","Pinchus","Neuberger","neubergerp@gmail.com","2484705655","2487387235","9-12, GenEd"
"Metro Baptist School","PO Box 562","47100 I94 SERVICE DR","Belleville","BELLEVILLE","48112-0562","48112","Van Buren","Mr.","John Vaprezsan","John","Vaprezsan","jillapainter@gmail.com","7346974065",,"KG-Part, 1-12, GenEd"
"Metropolitan SDA Jr. Academy","15585 NORTH HAGGERTY RD","15585 NORTH HAGGERTY RD","PLYMOUTH","PLYMOUTH","48170-4864","48170-4864","Plymouth-Canton","Mr.","Craig Morgan","Craig","Morgan","bdavis@misda.org","7344204044","5173161559","KG, KG-Part, 1-10, GenEd"
"Michigan Islamic Academy","2301 PLYMOUTH RD","2301 PLYMOUTH RD","ANN ARBOR","ANN ARBOR","48105-2192","48105-2192","Ann Arbor","Principal","Fayzeh Madani","Fayzeh","Madani","principal@mia-aa.org","7346658882","7346659058","KG-Part, 1-12, GenEd, PK"
"Michigan Lutheran High School","615 EAST MARQUETTE WOODS RD","615 EAST MARQUETTE WOODS RD","SAINT JOSEPH","SAINT JOSEPH","49085-9391","49085-9391","St. Joseph","Mr.","Ronald Briney","Ronald","Briney","rbriney@michiganlutheran.org","2694297861","2694294428","9-12, GenEd"
"Michigan Lutheran Seminary","2777 HARDIN ST","2777 HARDIN ST","SAGINAW","SAGINAW","48602-3710","48602-3710","Saginaw","Dr.","William Zeiger","William","Zeiger","wez@mlsem.org","9897931041","9897934213","9-12, Boarding, GenEd"
"Michigan Montessori International Ctr.","2745 MOUNT HOPE RD","2745 MOUNT HOPE RD","OKEMOS","OKEMOS","48864-2418","48864-2418","Okemos","Mrs.","Susan Hyatt","Susan","Hyatt","shyatt@okemosmontessori.org","5173513655",,"KG-Part,1-6, GenEd, PK"
"Midland Christian School","4417 WEST WACKERLY ST","4417 WEST WACKERLY ST","MIDLAND","MIDLAND","48640-2186","48640-2186","Midland","Mr.","Eric VanDerhoof","Eric","VanDerhoof","mcsvdhoof@sbcglobal.net","9898359881","9898355201","KG-Part, 1-12, GenEd, PK"
"Moline Christian School","PO Box 130, 1253 144th Avenue","1253 144TH AVE","Moline","MOLINE","49335-0130","49335","Wayland Union","Mr.","Kevin Sall","Kevin","Sall","kevin.sall@molinechrsch.org","6168774688","6168774689","KG-Part, 1-8, GenEd, PK"
"Montcalm School","13725 26 MILE RD","13725 26 MILE RD","ALBION","ALBION","49224-9525","49224-9525","Albion","Ms.","Patricia Hiatt","Patricia","Hiatt","hiattpe@starr.org","8008375591","5176294650","7-12, Boarding, GenEd"
"Montessori Center of East Lansing","1370 BEECH ST","1370 BEECH ST","EAST LANSING","EAST LANSING","48823-3639","48823-3639","East Lansing","Ms.","Tina Nauman","Tina","Nauman","steppingstonestina@gmail.com","5173360422","5173360423","KG-Part, 1-6, GenEd, PK"
"Montessori Childrens Academy","43521 ROMEO PLANK RD","43521 ROMEO PLANK RD","CLINTON TOWNSHIP","CLINTON TOWNSHIP","48038-1295","48038-1295","Chippewa Valley","Mrs.","Janet Malkar","Janet","Malkar","mcacademy@sbcglobal.net","5862864566","5862864720","KG-Part, 1-6, GenEd, PK"
"Montessori Children's Academy","955 FRED W MOORE HWY","955 FRED W MOORE HWY","SAINT CLAIR","SAINT CLAIR","48079-4963","48079-4963","East China","Ms.","Jennifer Brown","Jennifer","Brown","jbrown199@sbcglobal.net","8103297592","8103260355","KG-Part,1-5, GenEd, PK"
"Montessori Children's Center","750 HOWARD ST","750 HOWARD ST","KALAMAZOO","KALAMAZOO","49008-1806","49008-1806","Kalamazoo","Ms.","Judy Hill","Judy","Hill","judy@themontessorischool.org","2693493248","2693491480","KG-Part, 1-5, GenEd, PK"
"Montessori Childrens House","2100 WEST SAINT JOSEPH ST","2100 WEST SAINT JOSEPH ST","LANSING","LANSING","48915-1175","48915-1175","Lansing","Mrs.","Maureen Newton","Maureen","Newton","m.children@comcast.net","5174829191",,"KG-Part, 1-6, GenEd, PK"
"Montessori Children's House","5363 NORTH LONG LAKE RD","5363 NORTH LONG LAKE RD","TRAVERSE CITY","TRAVERSE CITY","49684-8217","49684-8217","Traverse City","Ms.","Colleen Christensen","Colleen","Christensen","colleen@traversechildrenshouse.org","2319299325",,"KG-Part, 1-6, GenEd, PK"
"Montessori Society of Greater G.R.","1110 COLLEGE AVE NE","1110 COLLEGE AVE NE","GRAND RAPIDS","GRAND RAPIDS","49503-1123","49503-1123","Grand Rapids","Mrs.","Libby Kreiner","Libby","Kreiner","libbykreiner@steppingstonesgr.org","6164518627","6164510145","KG-Part,1-6, GenEd, PK"
"Montessori Stepping Stones","174 CASS AVE","174 CASS AVE","MOUNT CLEMENS","MOUNT CLEMENS","48043-2222","48043-2222","Mount Clemens","Ms.","Michelle Daley","Michelle","Daley","office@montsteppingstones.com","5864654260","5867839412","KG-Part,1-5, GenEd, PK"
"Most Holy Trinity School","PO Box 349","11144 WEST KENT ST","Fowler","FOWLER","48835-0349","48835-8726","Fowler","Mrs.","Anne Hufnagel","Anne","Hufnagel","anneh@mhtparish.com","9895932616","9895932801","3-8, GenEd"
"Most Holy Trinity School","1229 LABROSSE ST","1229 LABROSSE ST","DETROIT","DETROIT","48226-1011","48226-1011","Detroit","Ms.","Kathleen McBride","Kathleen","McBride","kmcbride@mostholytrinityschool.org","3139618855","3139615797","KG-Part,1-8, GenEd, PK"
"Mt. Olivet Christian School","22980 13 Mile Road, PO Box 8","22980 13 MILE RD","Bellevue","BELLEVUE","49021-0008","49021-9528","Bellevue","Ms.","Katrina Kover","Katrina","Kover","krkover@aol.com","2697630190",,"1-12, GenEd"
"Mt. Pleasant SDA School","1730 EAST PICKARD RD","1730 EAST PICKARD RD","MOUNT PLEASANT","MOUNT PLEASANT","48858-9693","48858-9693","Mt. Pleasant","Mrs.","Tamara Draves","Tamara","Draves","bdavis@misda.org","9897733231","5173161559","KG,1-8, GenEd"
"Munising Baptist School","PO Box 339","6285 CONNORS RD","Wetmore","WETMORE","49895-0339","49895","Munising","Mr.","Benjamin Franklin II","Benjamin","Franklin II","mbsbobcats@gmail.com","9063873041",,"KG-Part,1-12, GenEd"
"Munising SDA Elementary School","PO Box 68","E8799 M-28 W","Munising","MUNISING","49862-0068","49862","Munising","Mrs.","Daisy Nieman","Daisy","Nieman","bdavis@misda.org","9063872942","5173161559","1-8, GenEd"
"Muskegon Catholic Central Elementary School","1145 WEST LAKETON AVE","1145 WEST LAKETON AVE","MUSKEGON","MUSKEGON","49441-2801","49441-2801","Muskegon","Ms.","Penny Johnson","Penny","Johnson","pjohnson@muskegoncatholic.org","2317552201","2317558651","KG,KG-Part,1-6, GenEd, PK"
"Muskegon Catholic Central High School","1145 WEST LAKETON AVE","1145 WEST LAKETON AVE","MUSKEGON","MUSKEGON","49441-2801","49441-2801","Muskegon","Mr.","Jim VanBergen","Jim","VanBergen","jvanbergen@muskegoncatholic.org","2317552201","2317558651","7-12, GenEd"
"Muskegon Christian School","1220 EASTGATE ST","1220 EASTGATE ST","MUSKEGON","MUSKEGON","49442-4017","49442-4017","Muskegon","Mr.","Dan DeKam","Dan","DeKam","ddekam@mchristianschool.com","2317733221",,"KG-Part, 1-8, GenEd, PK"
"Muskegon SDA School","3050 EVANSTON AVE","3050 EVANSTON AVE","MUSKEGON","MUSKEGON","49442-6346","49442-6346","Orchard View","Ms.","Jacqueline Reagan","Jacqueline","Reagan","bdavis@misda.org","2317738866","5173161559","1-8, GenEd"
"Muslim American Youth Academy","19500 FORD RD","19500 FORD RD","DEARBORN","DEARBORN","48128-2404","48128-2404","Dearborn","Ms.","Hala Hazimi","Hala","Hazimi","hhazimi49@yahoo.com","3134363300","3134367909","KG-Part, 1-8, GenEd, PK"
"ND Marist Acade. Lower Div.","60 SOUTH LYNN AVE","60 SOUTH LYNN AVE","WATERFORD","WATERFORD","48328-3823","48328-3823","Waterford","Mrs.","Diana Atkins","Diana","Atkins","datkins@ndpma.org","2486825580","2486823635","KG-Part, 1-5, GenEd, PK"
"ND Marist Acade. Middle Div.","1300 GIDDINGS RD","1300 GIDDINGS RD","PONTIAC","PONTIAC","48340-2108","48340-2108","Pontiac","Ms.","Jill Mistretta","Jill","Mistretta","jmistretta@ndpma.org","2483735371","2483734707","6-8, GenEd"
"New Covenant Christian School","PO Box 80737","4415 WEST ST JOE HWY","Lansing","LANSING","48908-0707","48917-4120","Waverly","Mr.","Iain Belot","Iain","Belot","principal@nccswarriors.org","5173238903",,"KG-Part, 1-12, GenEd, PK"
"New Era Christian School","1901 OAK AVE","1901 OAK AVE","NEW ERA","NEW ERA","49446-9625","49446-9625","Shelby","Mr.","David Wagner","David","Wagner","newerachristian@charter.net","2318615450","2317734681","KG-Part, 1-8, GenEd, PK"
"New Life Christian Academy","5517 GRISWOLD RD","5517 GRISWOLD RD","KIMBALL","KIMBALL","48074-1906","48074-1906","Port Huron",,"Lee Ann Shimmel","Lee Ann","Shimmel","lshimmel@nlcaschool.com","8103673770","8103672249","KG-Part, 1-12, GenEd, PK"
"New Morning School","14501 NORTH HAGGERTY RD","14501 NORTH HAGGERTY RD","PLYMOUTH","PLYMOUTH","48170-2738","48170-2738","Plymouth-Canton","Ms.","Elaine Kennedy","Elaine","Kennedy","elaine@newmorningschool.com","7344203331","7344200324","KG-Part, 1-8, GenEd, PK"
"New Salem Ev Lutheran School","214 EAST GROVE ST","214 EAST GROVE ST","SEBEWAING","SEBEWAING","48759-1550","48759-1550","Unionville-Sebewaing","Rev.","William Mayhew","William","Mayhew","newsalem.wels@gmail.com","9898833880","9898833880","KG-Part,1-8, GenEd"
"Niles SDA School","110 NORTH FAIRVIEW AVE","110 NORTH FAIRVIEW AVE","NILES","NILES","49120-1570","49120-1570","Niles","Mr.","Michael Jakobsons","Michael","Jakobsons","bdavis@misda.org","2696835444","5173161559","KG-Part, 1-8, GenEd, PK"
"North Sharon Christian School","17999 WASHBURN RD","17999 WASHBURN RD","GRASS LAKE","GRASS LAKE","49240-9616","49240-9616","Manchester","Ms.","Rachel Lantis","Rachel","Lantis","rlantis@juno.com","7344759797",,"KG-Part, 1-12, GenEd"
"Northern Michigan Christian School","128 SOUTH MARTIN ST","128 SOUTH MARTIN ST","MC BAIN","MC BAIN","49657-9705","49657-9705","McBain","Mr.","Rick Klooster","Rick","Klooster","rklooster@nmcs.us","2318252492","2318252371","KG-Part, 1-12, GenEd, PK"
"NorthPointe Christian School","3101 LEONARD ST NE","3101 LEONARD ST NE","GRAND RAPIDS","GRAND RAPIDS","49525-5832","49525-5832","Grand Rapids","Mr.","James Hofman","James","Hofman","hofmanj@npchristian.org","6169420363","6169426867","KG-Part, 1-12, GenEd, PK"
"Northview Junior Academy","202 NORTH CARMEL ST","202 NORTH CARMEL ST","CADILLAC","CADILLAC","49601-2044","49601-2044","Cadillac","Mrs.","Lanette Brandow","Lanette","Brandow","bdavis@misda.org","2317753622","5173161559","1-8, GenEd"
"Northville Christian School","41355 6 MILE RD","41355 6 MILE RD","NORTHVILLE","NORTHVILLE","48168-3445","48168-3445","Northville","Mr.","Kenneth Storey","Kenneth","Storey","kstorey@northvillechristian.org","2483489031","2483485423","KG-Part, 1-8, GenEd, PK, SpecEd"
"Northville Montessori Center","15709 NORTH HAGGERTY RD","15709 NORTH HAGGERTY RD","PLYMOUTH","PLYMOUTH","48170-4861","48170-4861","Plymouth-Canton","Mr.","Keith Gall","Keith","Gall","montessorinorth@comcast.net","7344200924",,"KG-Part,1-8, GenEd, PK"
"Northwest Michigan House of Hope","1683 Hoch Rd., PO Box 5014","1683 HOCH RD","Traverse City","TRAVERSE CITY","49696-5014","49686-8112","Traverse City","Ms.","Emily Robinson","Emily","Robinson","hopeacademy@abbashousetc.com","2319465350","2319469470","7-12, Boarding, GenEd"
"Notre Dame Preparatory School","1300 GIDDINGS RD","1300 GIDDINGS RD","PONTIAC","PONTIAC","48340-2108","48340-2108","Pontiac","Ms.","Jill Mistretta","Jill","Mistretta","jmistretta@ndpma.org","2483735300",,"9-12, GenEd"
"Nottawa Christian Day School","PO Box A","26173 M-86","Nottawa","NOTTAWA","49075-0250","49075","Centreville","Mr.","Arlan Yoder","Arlan","Yoder","none@mi.gov","2694676454",,"1-12, GenEd"
"Nouvel Catholic Central High School","2555 WIENEKE RD","2555 WIENEKE RD","SAGINAW","SAGINAW","48603-2863","48603-2863","Saginaw Township","Ms.","Irene Hensinger","Irene","Hensinger","ihensinger@sacschools.org","9897914330","9897976603","9-12, GenEd"
"Oak Arbor New Church School","495 OAK ARBOR CIR W","495 OAK ARBOR CIR W","ROCHESTER","ROCHESTER","48306-1749","48306-1749","Rochester","Mr.","Derek Elphick","Derek","Elphick","ldechazal@oakarbor.org","2486523420",,"KG-Part, 1-8, GenEd, PK"
"Oak Hollow Christian School","120 MANITOU LN","120 MANITOU LN","LAKE ORION","LAKE ORION","48362-1557","48362-1557","Lake Orion","Ms.","Tamie Hasty","Tamie","Hasty","bdavis@misda.org","2486931224","5173161559","KG-Part,1-8, GenEd"
"Oakdale Academy","3200 Beacham Drive","3200 Beacham Dr","Waterford","Waterford","48329","48329-4506","Waterford","Ms.","Rachel Greb","Rachel","Greb","rgreb@oakdaleacademy.com","2483334309","2483337098","KG,1-11, GenEd"
"Oakland Children's Academy","2160 EAST MAPLE RD","2160 EAST MAPLE RD","TROY","TROY","48083-4400","48083-4400","Warren Consolidated","Mrs.","Sherin Thomas","Sherin","Thomas","ocaoffice@sbcglobal.net","2485893590",,"KG-Part, 1-3, GenEd, PK"
"Oakland Christian - Clarkston","6300 CLARKSTON RD","6300 CLARKSTON RD","CLARKSTON","CLARKSTON","48346-1611","48346-1611","Clarkston","Mrs.","Erin Akers","Erin","Akers","eakers@oaklandchristian.com","2486251324","2486257406","KG-Part,1-2, GenEd, PK"
"Oakland Christian School","3075 SHIMMONS RD","3075 SHIMMONS RD","AUBURN HILLS","AUBURN HILLS","48326-2068","48326-2068","Pontiac",,"S. Randall Speck","S. Randall","Speck","gmay@oaklandchristian.com","2483732700",,"KG-Part, 1-12, GenEd, PK"
"Oakland Steiner School","3976 SOUTH LIVERNOIS RD","3976 SOUTH LIVERNOIS RD","ROCHESTER HILLS","ROCHESTER HILLS","48307-4935","48307-4935","Avondale","Ms.","Katherine Thivierge","Katherine","Thivierge","ossfinance@aol.com","2482998755","2482993614","KG-Part, 1-8, GenEd, PK"
"Oakwood Academy","26300 GODDARD RD","26300 GODDARD RD","TAYLOR","TAYLOR","48180-3905","48180-3905","Taylor","Mr.","Kenneth Armstrong","Kenneth","Armstrong","bdavis@misda.org","3132916790","5173161559","KG-Part,1-8, GenEd"
"Oceana Christian School","3258 NORTH 72ND AVE","3258 NORTH 72ND AVE","HART","HART","49420-8533","49420-8533","Hart","Mr.","Dennis Foley","Dennis","Foley","dtafoley@aol.com","2318732514",,"KG-Part, 1-8, GenEd, PK"
"Oholei Yosef Yitzchak Lubavi","14100 WEST 9 MILE RD","14100 WEST 9 MILE RD","OAK PARK","OAK PARK","48237-2621","48237-2621","Oak Park","Rabbi","B Stein","B","Stein","mendel@lubavitchcheder.com","2485415441","2485640929","KG,KG-Part,1-12, GenEd"
"Onaway SDA School","PO Box 156, 21440 M-68 West","21440 M 68 HWY","Onaway","ONAWAY","49765-9692","49765-9692","Onaway","Mrs.","Grace Ivy","Grace","Ivy","bdavis@misda.org","9897338600","5173161559","KG, KG-Part, 1-8, GenEd"
"Otsego Christian Academy","247 EAST ALLEGAN ST","247 EAST ALLEGAN ST","OTSEGO","OTSEGO","49078-1103","49078-1103","Otsego","Mr.","Kenneth Doctor","Kenneth","Doctor","oba@fbcotsego.org","2696946738","9282220390","KG-Part, 1-8, GenEd, PK"
"Otsego Christian School","PO Box 1365","1377 EAST M 32","Gaylord","GAYLORD","49734-5365","49735-9702","Gaylord","Ms.","Karla Hawkins","Karla","Hawkins","khawkins@ocsgaylord.org","9897328333","9897057713","KG-Part,1-12, GenEd, PK"
"Our Lady of Consolation School","4865 11 MILE RD NE","4865 11 MILE RD NE","ROCKFORD","ROCKFORD","49341-8477","49341-8477","Rockford","Mrs.","Kevin Varner","Kevin","Varner","kvarnerolc@catholicweb.com","6168662427",,"KG-Part, 1-8, GenEd, PK"
"Our Lady of Good Counsel School","1151 WILLIAM ST","1151 WILLIAM ST","PLYMOUTH","PLYMOUTH","48170-1158","48170-1158","Plymouth-Canton","Ms.","Kay Reilly","Kay","Reilly","cabblem@olgcschool.net","7344533053","7343575331","KG-Part, 1-8, GenEd, SpecEd"
"Our Lady of Lake Huron School","222 COURT ST","222 COURT ST","HARBOR BEACH","HARBOR BEACH","48441-1300","48441-1300","Harbor Beach","Mr.","Lawrence Kish II","Lawrence","Kish II","kbanker_2000@yahoo.com","9894793427","9894793335","KG-Part, 1-8, GenEd"
"Our Lady of LaSalette School","2219 COOLIDGE HWY","2219 COOLIDGE HWY","BERKLEY","BERKLEY","48072-1569","48072-1569","Berkley","Mr.","Daniel Terbrack","Daniel","Terbrack","dan.terbrack@lasalette.org","2485423757","2485416359","KG-Part, 1-8, GenEd, PK"
"Our Lady of Refuge School","3750 COMMERCE RD","3750 COMMERCE RD","ORCHARD LAKE","ORCHARD LAKE","48324-1611","48324-1611","West Bloomfield","Mr.","Robert Pyles","Robert","Pyles","rpyles@olr-school.net","2486823422",,"KG-Part, 1-8, GenEd, PK"
"Our Lady of Sorrows School","24040 RAPHAEL RD","24040 RAPHAEL RD","FARMINGTON HILLS","FARMINGTON HILLS","48336-1752","48336-1752","Farmington","Ms.","Ann Whitfield","Ann","Whitfield","awhitfield@olsorrows.com","2484760977",,"KG-Part, 1-8, GenEd, PK"
"Our Lady of the Lake School","1039 WEST HOUGHTON LAKE DR","1039 WEST HOUGHTON LAKE DR","PRUDENVILLE","PRUDENVILLE","48651-9613","48651-9613","Houghton Lake","Ms.","Mary Kay Murphy","Mary Kay","Murphy","mkmurphy49@gmail.com","9893665592","9893661348","KG-Part, 1-8, GenEd, PK"
"Our Lady of the Lakes School","5495 DIXIE HWY","5495 DIXIE HWY","WATERFORD","WATERFORD","48329-1614","48329-1614","Waterford","Mr.","Carl Uberti","Carl","Uberti","carl.uberti@ollonline.org","2486230340","2486237536","KG-Part, 1-12, GenEd, PK"
"Our Lady of Victory School","132 ORCHARD DR","132 ORCHARD DR","NORTHVILLE","NORTHVILLE","48167-1316","48167-1316","Northville","Ms.","Karen Sanford","Karen","Sanford","ksanford@olvnorthville.net","2483493610","2483807247","KG-Part, 1-8, GenEd"
"Our Lady Queen of Martyrs School","32460 PIERCE ST","32460 PIERCE ST","BEVERLY HILLS","BEVERLY HILLS","48025-4121","48025-4121","Birmingham","Mr.","Joseph Vincler","Joseph","Vincler","jvincler@olqm-parish.org","2486422616","2486423671","KG-Part, 1-8, GenEd, PK"
"Our Lady Star of the Sea School","467 FAIRFORD RD","467 FAIRFORD RD","GROSSE POINTE WOODS","GROSSE POINTE WOODS","48236-2410","48236-2410","Grosse Pointe","Ms.","Julie Aemisegger","Julie","Aemisegger","j.aemisegger@olsos.org","3138841070","3138840406","KG-Part, 1-8, GenEd, PK"
"Our Savior Evangelical Lutheran School","13667 HIGHLAND RD","13667 HIGHLAND RD","HARTLAND","HARTLAND","48353-3127","48353-3127","Hartland","Ms.","Lisa Lang","Lisa","Lang","llang@oursaviorhartland.org","2488873836","2488898279","KG-Part, 1-8, GenEd, PK"
"Our Savior Lutheran School","6770 MARLETTE ST","6770 MARLETTE ST","MARLETTE","MARLETTE","48453-1213","48453-1213","Marlette","Ms.","Adrienne Thompson","Adrienne","Thompson","aaisboo77@aol.com","9896350115","9896350112","KG-Part,1-8, GenEd, PK"
"Our Savior Lutheran School","1916 RIDGEWOOD AVE SE","1916 RIDGEWOOD AVE SE","GRAND RAPIDS","GRAND RAPIDS","49506-5031","49506-5031","Grand Rapids","Mr.","Barry Blomquist","Barry","Blomquist","blomquist@choiceonemail.com","6169490710",,"KG-Part, 1-8, GenEd, PK"
"Our Savior Lutheran School","7910 EAST ST JOE HWY","7910 EAST ST JOE HWY","LANSING","LANSING","48917-8871","48917-8871","Grand Ledge","Mr.","James Landskroener","James","Landskroener","jlandskroener@oursaviorchurch.org","5178823550","5178823477","KG-Part, 1-8, GenEd, PK, SpecEd"
"Our Shepherd Lutheran School","1658 EAST LINCOLN ST","1658 EAST LINCOLN ST","BIRMINGHAM","BIRMINGHAM","48009-7109","48009-7109","Birmingham","Ms.","Janet McLoughlin","Janet","McLoughlin","mclough3@ourshepherd.net","2486450551",,"KG-Part, 1-8, GenEd"
"Owosso Christian School","2100 NORTH M 52","2100 NORTH M 52","OWOSSO","OWOSSO","48867-1220","48867-1220","Owosso","Mrs.","Amy Galesk","Amy","Galesk","ocs@charterinternet.com","9897234510","9897291323","KG-Part,1-12, GenEd"
"Owosso SDA School","1215 SUMMIT ST","1215 SUMMIT ST","OWOSSO","OWOSSO","48867-1869","48867-1869","Owosso","Mrs.","Darlene Huckabay","Darlene","Huckabay","bdavis@misda.org","9897236562","5173161559","3-8, GenEd"
"Oxford Academy Montessori","18600 23 Mile Road","18600 23 Mile Road","Macomb","Macomb","48044","48044","Chippewa Valley","Ms.","Toni Partyka","Toni","Partyka","tonik49@yahoo.com","5866497893","5864215842","KG,1-5, Alt, GenEd, PK"
"Pam's Academy of Champions","1113 PIERCE RD","1113 PIERCE RD","LANSING","LANSING","48910-6217","48910-6217","Lansing","Ms.","Pamela Eaton-Champion","Pamela","Eaton-Champion","mspamfrog@yahoo.com","5173942333","5173944750","KG-Part,1-4, GenEd, PK"
"Parkway Christian School","14500 METROPOLITAN PKWY","14500 METROPOLITAN PKWY","STERLING HEIGHTS","STERLING HEIGHTS","48312-3412","48312-3412","Utica","Ms.","Lila Place","Lila","Place","cfontana@parkwaychristianschool.org","5864469900","5864469904","KG-Part, 1-12, GenEd, PK"
"Peace Lutheran School","9415 MERRIMAN RD","9415 MERRIMAN RD","LIVONIA","LIVONIA","48150-2903","48150-2903","Livonia","Mr.","David Wilson","David","Wilson","dwilson@atpeacewithgod.org","7344226930","7344220790","KG-Part, 1-8, GenEd, PK"
"Peace Lutheran School","3161 LAWNDALE RD","3161 LAWNDALE RD","SAGINAW","SAGINAW","48603-1655","48603-1655","Saginaw Township","Mr.","Gary Campbell","Gary","Campbell","krobinson@peacesaginaw.net","9897922581","9897928266","KG-Part, 1-8, GenEd, PK"
"Peace Lutheran School","6580 24 MILE RD","6580 24 MILE RD","SHELBY TOWNSHIP","SHELBY TOWNSHIP","48316-3306","48316-3306","Utica","Mr.","Jared Weiss","Jared","Weiss","laurie@peaceshelby.org","5867814120","5867318935","KG-Part, 1-8, GenEd, PK"
"Peace Lutheran School","11701 E 12 MILE RD","11701 EAST 12 MILE RD","WARREN","WARREN","48093-3466","48093-3466","Warren Woods","Mr.","Kregg Fritsch","Kregg","Fritsch","peacewarren@comcast.net","5867518011","5867518558","KG-Part, 1-8, GenEd, PK"
"Peterson-Warren Academy","4000 Sylvia, PO Box 888","4000 SYLVIA ST","Inkster","INKSTER","48141-3184","48141-3184","Taylor","Dr.","Juanita Martin","Juanita","Martin","juanita_martin1@hotmail.com","3135655808","3135657784","KG-Part, 1-12, GenEd, PK"
"Petoskey Area SDA School","1402 HOWARD ST","1402 HOWARD ST","PETOSKEY","PETOSKEY","49770-9271","49770-9271","Petoskey","Mrs.","Lorene Yount","Lorene","Yount","bdavis@misda.org","2313472560","5173161559","KG,1-7, GenEd"
"Pilgrim Bible Academy","361 PINE ST","361 PINE ST","CEDAR SPRINGS","CEDAR SPRINGS","49319-9686","49319-9686","Cedar Springs","Ms.","Terri Matz","Terri","Matz","pilgrimbibleacademy@yahoo.com","6166961021","6166968801","1-12, GenEd"
"Pine Mountain Christian School","N3770 PINE MOUNTAIN RD","3770 PINE MOUNTAIN RD","IRON MOUNTAIN","IRON MOUNTAIN","49801-9404","49801","Breitung Twp","Ms.","Emily Graham","Emily","Graham","bdavis@misda.org","9067797640","5173161559","KG,1-8, GenEd, PK"
"Pine Ridge Christian School","623 WEST 40TH ST","623 WEST 40TH ST","HOLLAND","HOLLAND","49423-4623","49423-4623","Holland","Mr.","Tim Howell","Tim","Howell","thowell@hollandchristian.org","6168203505","6168203502","3-5, GenEd, SpecEd"
"Pinecrest School","2603 WOODLAND DR","2603 WOODLAND DR","HALE","HALE","48739-9216","48739-9216","Hale",,"Mary Klug","Mary","Klug","contact@heroofmichigan.org","9897286490",,"8-12, GenEd"
"Pleasant View Mennonite School","8314 ADAMSON LAKE RD","8314 ADAMSON LAKE RD","KALEVA","KALEVA","49645-9722","49645-9722","Onekama","Mr.","Russell Poirier","Russell","Poirier","none@none.com","2318894565",,"2-8, GenEd"
"Plymouth Christian Academy","43065 JOY RD","43065 JOY RD","CANTON","CANTON","48187-2058","48187-2058","Plymouth-Canton","Dr.","Mark Wood","Mark","Wood","mwood@plymouthchristian.org","7344593505","7344599997","KG-Part, 1-12, GenEd, PK, SpecEd"
"Plymouth Christian Elementary School","1000 BALL AVE NE","1000 BALL AVE NE","GRAND RAPIDS","GRAND RAPIDS","49505-5903","49505-5903","Grand Rapids","Mr.","David Engelsma","David","Engelsma","devries1@plymouthchristian.us","6164584367","6164588532","KG-Part, 1-6, GenEd, PK"
"Plymouth Christian High School","965 PLYMOUTH AVE NE","965 PLYMOUTH AVE NE","GRAND RAPIDS","GRAND RAPIDS","49505-5907","49505-5907","Grand Rapids","Mr.","James Bazen","James","Bazen","jbazen@plymouthchristian.us","6164549481","6164547243","7-12, GenEd"
"Potters House High School","2500 NEWPORT ST SW","2500 NEWPORT ST SW","WYOMING","WYOMING","49519-2119","49519-2119","Wyoming","Mr.","Paul Dull","Paul","Dull","pdull@pottershouseschool.org","6162498050","6162498555","9-12, GenEd"
"Potters House School","810 VAN RAALTE DR SW","810 VAN RAALTE DR SW","WYOMING","WYOMING","49509-1101","49509-1101","Godfrey-Lee","Mr.","John Booy","John","Booy","cbeals@pottershouseschool.org","6162415202","6162415913","KG-Part, 1-8, GenEd, PK"
"Prairie Baptist School","11210 PQ AVE E","11210 PQ AVE E","SCOTTS","SCOTTS","49088-9309","49088-9309","Climax-Scotts","Mrs.","Patricia Harrison","Patricia","Harrison","razcoburn@aol.com","2696268101","2696268018","KG-Part, 1-12, GenEd, PK"
"Prattville SDA School","5085 SOUTH WALDRON RD","5085 SOUTH WALDRON RD","PITTSFORD","PITTSFORD","49271-9658","49271-9658","Waldron","Mrs.","Barbara Hukill","Barbara","Hukill","bdavis@misda.org","5175234143","5173161559","2-8, GenEd"
"Providence Christian High","5479 WEST 72ND ST","5479 WEST 72ND ST","FREMONT","FREMONT","49412-8263","49412-8263","Fremont","Mr.","Steven Witter","Steven","Witter","switter@pchsmi.org","2319249780","2319241676","9-12, GenEd"
"Providence Christian School","100 PRATT RD","100 PRATT RD","KALAMAZOO","KALAMAZOO","49001-5337","49001-5337","Kalamazoo","Mr.","Steve Timmer","Steve","Timmer","stevetimmer@sbcglobal.net","6163854889",,"KG-Part, 1-9, GenEd"
"Queen of Miraculous Medal School","811 SOUTH WISNER ST","811 SOUTH WISNER ST","JACKSON","JACKSON","49203-1577","49203-1577","Jackson","Ms.","Elizabeth Hartley","Elizabeth","Hartley","lhartley@queenschurch.com","5177822664","5177823570","KG-Part, 1-6, GenEd"
"Red Hill Montessori","29001 WEST 13 MILE RD","29001 WEST 13 MILE RD","FARMINGTON HILLS","FARMINGTON HILLS","48334-2504","48334-2504","Farmington","Ms.","Leila Rotberg-Charlesworth","Leila","Rotberg-Charlesworth","montessoricenterfh@yahool.com","2488514166","2488514237","KG-Part, 1, GenEd, PK"
"Reformed Heritage Christian School","700 FLETCHER AVE","700 FLETCHER AVE","KALAMAZOO","KALAMAZOO","49006-3303","49006-3303","Kalamazoo","Mr.","Dave Vander Meer","Dave","Vander Meer","dnjvm5@att.net","2693830505","2693832381","KG-Part, 1-12, GenEd"
"Regina High School","13900 MASONIC BLVD","13900 MASONIC BLVD","WARREN","WARREN","48088-1417","48088-1417","Warren Consolidated","Sr.","Mary Leanne","Mary","Leanne","srleanne@reginahs.com","5865850500","3135265850","9-12, GenEd"
"Resurrection School","1527 EAST MICHIGAN AVE","1527 EAST MICHIGAN AVE","LANSING","LANSING","48912-2239","48912-2239","Lansing","Mr.","Jack VonAchen","Jack","VonAchen","resprincipal@comcast.net","5174870439",,"KG-Part, 1-8, GenEd, PK"
"Rochester Hills Christian","3300 SOUTH LIVERNOIS RD","3300 SOUTH LIVERNOIS RD","ROCHESTER HILLS","ROCHESTER HILLS","48307-4538","48307-4538","Avondale","Mrs.","Karen Patton","Karen","Patton","cammie.sheldon@rhbc-s.org","2488520585",,"KG-Part, 1-12, GenEd, PK"
"Rockford Christian School","6060 BELDING RD NE","6060 BELDING RD NE","ROCKFORD","ROCKFORD","49341-7699","49341-7699","Rockford","Mr.","Eric Burgess","Eric","Burgess","eburgess@grcs.org","6165746400","6168749932","KG-Part, 1-8, GenEd, PK"
"Roeper City and Country Elementary School","41190 WOODWARD AVE","41190 WOODWARD AVE","BLOOMFIELD HILLS","BLOOMFIELD HILLS","48304-5020","48304-5020","Bloomfield Hills","Ms.","Carolyn Lett","Carolyn","Lett","carolyn.lett@roeper.org","2482037327","2482037305","KG-Part, 1-5, GenEd, PK"
"Roeper City and Country Upper","1051 OAKLAND AVE","1051 OAKLAND AVE","BIRMINGHAM","BIRMINGHAM","48009-5761","48009-5761","Birmingham","Ms.","Carolyn Lett","Carolyn","Lett","carolyn.lett@roeper.org","2482037327","2482037305","6-12, GenEd"
"Rosa Parks Academy","8913 WESTFIELD ST","8913 WESTFIELD ST","DETROIT","DETROIT","48204-2610","48204-2610","Detroit",,"Linda Krawford","Linda","Krawford","ak4305@wayne.edu","3134912329","3134912329","5-11, GenEd"
"Rose Park Christian School","556 BUTTERNUT DR","556 BUTTERNUT DR","HOLLAND","HOLLAND","49424-1505","49424-1505","West Ottawa","Miss","Sally Van Hemert","Sally","Van Hemert","svanhemert@hollandchristian.org","6168204055","6168204060","KG-Part,1-6, GenEd, PK"
"Rudolf Steiner School of Ann Arbor","2775 NEWPORT RD","2775 NEWPORT RD","ANN ARBOR","ANN ARBOR","48103-2270","48103-2270","Ann Arbor","Ms.","Marian Xavier","Marian","Xavier","mxavier@steinerschool.org","7346699394",,"KG-Part, 1-12, GenEd, PK"
"Rudyard Christian School","10702 WEST 17 MILE RD","10702 WEST 17 MILE RD","RUDYARD","RUDYARD","49780-9342","49780-9342","Rudyard",,"Wanda Hoolsema","Wanda","Hoolsema","wmh9814@yahoo.com","9064781136",,"1-5, GenEd"
"Ruth Murdoch Elementary School","8885 GARLAND AVE","8885 GARLAND AVE","BERRIEN SPRINGS","BERRIEN SPRINGS","49104-0001","49104-0001","Berrien Springs","Mr.","David Waller","David","Waller","bdavis@misda.org","2694713225","5173161559","KG-Part, 1-8, GenEd"
"Sacred Heart Academy","316 EAST MICHIGAN ST","316 EAST MICHIGAN ST","MOUNT PLEASANT","MOUNT PLEASANT","48858-2640","48858-2640","Mt. Pleasant","Mr.","Denny Starnes","Denny","Starnes","dstarnes@sha.net","9897721457","9897721707","7-12, GenEd"
"Sacred Heart of Jesus School","1200 DAYTON ST SW","1200 DAYTON ST SW","GRAND RAPIDS","GRAND RAPIDS","49504-6158","49504-6158","Grand Rapids","Dr.","Bernard Stanko","Bernard","Stanko","bstanko@sacredheartgr.org","6164590948","6164590899","KG-Part, 1-8, GenEd, PK"
"Sacred Heart School","208 SOUTH MARKET ST","208 SOUTH MARKET ST","HUDSON","HUDSON","49247-1320","49247-1320","Hudson","Ms.","April McCaskey","April","McCaskey","april.mccaskey@gmail.com","5174486405","5174482401","KG-Part,1-6, GenEd, PK"
"Sacred Heart School","200 SOUTH FRANKLIN ST","200 SOUTH FRANKLIN ST","MOUNT PLEASANT","MOUNT PLEASANT","48858-2529","48858-2529","Mt. Pleasant","Mr.","Denny Starnes","Denny","Starnes","dstarnes@sha.net","9897721457","9897729056","KG-Part, 1-6, GenEd, PK"
"Sacred Heart School","433 BARAGA AVE","433 BARAGA AVE","LANSE","LANSE","49946-1411","49946-1411","L'Anse","Ms.","Karen Sands","Karen","Sands","sacredhs@up.net","9065245157","9065245154","KG,1-6, GenEd, PK"
"Sacred Heart School","22513 GARRISON ST","22513 GARRISON ST","DEARBORN","DEARBORN","48124-2101","48124-2101","Dearborn","Ms.","Melissa Lambrecht","Melissa","Lambrecht","smkklambrecht@comcast.net","3135619192",,"KG-Part, 1-8, GenEd"
"Saginaw Chippewa Academy","7498 EAST BROADWAY RD","7498 EAST BROADWAY RD","MOUNT PLEASANT","MOUNT PLEASANT","48858-8967","48858-8967","Mt. Pleasant","Ms.","Tracee Wilson","Tracee","Wilson","twilson@sagchip.org","9897754453","9897754450","KG-Part, 1-6, GenEd, PK"
"Salem Lutheran School","520 WEST STEWART ST","520 WEST STEWART ST","OWOSSO","OWOSSO","48867-4348","48867-4348","Owosso","Mr.","Anthony Perry","Anthony","Perry","aeperry05@verizon.net","9897252234",,"KG-Part, 1-8, GenEd, PK"
"San Juan Diego Academy","1650 Godfrey Ave., SW","1650 Godfrey Ave., SW","Wyoming","Wyoming","49509","49509","Godfrey-Lee","Ms.","Rosa Fraga","Rosa","Fraga","sjdacademy@gmail.com","6162431126","6162430862","KG,1-8, GenEd"
"Schoolhouse Montessori Academy","3305 CROOKS RD","3305 CROOKS RD","TROY","TROY","48084-1680","48084-1680","Troy","Ms.","C. T. Wells","C. T.","Wells","twells@schoolhousecorporate.com","2486496149","2486496130","KG-Part,1-6, GenEd, PK"
"Schoolhouse Montessori Canton","6215 NORTH CANTON CENTER RD","6215 NORTH CANTON CENTER RD","CANTON","CANTON","48187-2697","48187-2697","Plymouth-Canton","Ms.","Lisa Rippon","Lisa","Rippon","lrippon@schoolhousemontessori.com","7344161849","7344161881","KG-Part,1-6, GenEd, PK"
"Shepherd of the Lakes School","2101 SOUTH HACKER RD","2101 SOUTH HACKER RD","BRIGHTON","BRIGHTON","48114-8764","48114-8764","Howell","Ms.","Julie van Deven","Julie","van Deven","principal@shepherdsvoice.org","8102276473","8102991530","KG-Part, 1-5, GenEd, PK"
"Sheridan Road Baptist School","6911 SHERIDAN RD","6911 SHERIDAN RD","SAGINAW","SAGINAW","48601-9767","48601-9767","Bridgeport-Spaulding","Pastor","Joe Ingham","Joe","Ingham","Sheridanrbc@yahoo.com","9897770550","9897779585","KG-Part, 1-12, GenEd, PK"
"Shrine Academy","3500 W 13 MILE RD","3500 WEST 13 MILE RD","ROYAL OAK","ROYAL OAK","48073-6709","48073-6709","Royal Oak","Mrs.","Gabrielle Erken","Gabrielle","Erken","nsawyer@shrineschools.com","2487377898","2485492953","7-8, GenEd"
"Shrine Catholic Grade School","1621 LINWOOD AVE","1621 LINWOOD AVE","ROYAL OAK","ROYAL OAK","48067-1067","48067-1067","Royal Oak","Mrs.","Sharon Dixon","Sharon","Dixon","shailor@shrineschools.com","2485414622",,"KG-Part, 1-6, Alt, GenEd, PK"
"Shrine High School","3500 WEST 13 MILE RD","3500 WEST 13 MILE RD","ROYAL OAK","ROYAL OAK","48073-6709","48073-6709","Royal Oak","Mrs.","Gabrielle Erken","Gabrielle","Erken","erken@shrineschools.com","2485492925","2485492953","9-12, GenEd"
"Skeels Christian School","3956 NORTH M 18","3956 NORTH M 18","GLADWIN","GLADWIN","48624-8920","48624-8920","Harrison","Ms.","Mary Owens","Mary","Owens","mrsmowens@skeelschristianschool.com","9894262054","9894264527","KG-Part, 1-12, GenEd, PK"
"South Christian High School","160 68TH ST SW","160 68TH ST SW","GRAND RAPIDS","GRAND RAPIDS","49548-7114","49548-7114","Kentwood","Mr.","George Guichelaar","George","Guichelaar","gguichelaar@schs.org","6164553210","6164558840","9-12, GenEd"
"South Olive Christian School","6230 120TH AVE","6230 120TH AVE","HOLLAND","HOLLAND","49424-9231","49424-9231","West Ottawa","Ms.","Ann Pyle","Ann","Pyle","info@sochristian.org","6168758224","6168752287","KG-Part, 1-8, GenEd, PK"
"South Side Christian School","913 PINE AVE","913 PINE AVE","HOLLAND","HOLLAND","49423-5250","49423-5250","Holland","Mr.","Rod Brandsen","Rod","Brandsen","rbrandsen@hollandchristian.org","6168203505","6168202810","KG-Part, 1-2, GenEd, PK"
"Southfield Christian School","28650 LAHSER RD","28650 LAHSER RD","SOUTHFIELD","SOUTHFIELD","48034-2020","48034-2020","Southfield","Ms.","Margie Baldwin","Margie","Baldwin","mbaldwin@southfieldchristian.org","2483573660","2483575271","KG-Part, 1-12, GenEd, PK"
"Spiritus Sanctus Academy","4101 EAST JOY RD","4101 EAST JOY RD","ANN ARBOR","ANN ARBOR","48105-9609","48105-9609","Whitmore Lake","Sr.","Sr. John Dominic","Sr. John","Dominic","cmccarthy@spiritussanctus.org","7349963855",,"KG-Part, 1-8, GenEd, PK"
"Spiritus Sanctus Academy","10450 JOY RD","10450 JOY RD","PLYMOUTH","PLYMOUTH","48170-5029","48170-5029","Plymouth-Canton","Ms.","Sonia Zawacki","Sonia","Zawacki","szawacki@spiritussanctus.org","7344148430","7344148495","KG-Part, 1-8, GenEd"
"Spring Vale Academy","4150 SOUTH M 52","4150 SOUTH M 52","OWOSSO","OWOSSO","48867-9224","48867-9224","Owosso","Mr.","Mark Caswell","Mark","Caswell","mcaswell@springvale.us","9897252391","9897296408","7-12, Boarding, GenEd"
"Springfield Christian Academy","8585 DIXIE HWY","8585 DIXIE HWY","CLARKSTON","CLARKSTON","48348-4242","48348-4242","Clarkston","Mr.","Philip Alsup","Philip","Alsup","mrs.alsup@scaeagles.org","2486259760","2486259640","1-12, GenEd"
"SS. Peter and Paul School","317 BALDIE ST","317 BALDIE ST","IONIA","IONIA","48846-1503","48846-1503","Ionia","Ms.","Julie Palmer","Julie","Palmer","jpalmer@ssppcatholic.com","6165273561","6165273562","KG-Part, 1-8, GenEd, PK"
"St. Ann School","800 WEST 13TH ST","800 WEST 13TH ST","CADILLAC","CADILLAC","49601-9281","49601-9281","Cadillac","Mr.","Robert Kellogg","Robert","Kellogg","rkellogg@stanncadillac.org","2317751301","2317750161","KG-Part, 1-7, GenEd, PK"
"St. Anne Catholic Grade School","5920 ARDEN AVE","5920 ARDEN AVE","WARREN","WARREN","48092-1275","48092-1275","Warren Consolidated","Mr.","Anthony Sahadi","Anthony","Sahadi","asahadi@st-anne.net","5862642911","5862644533","KG-Part, 1-8, GenEd, PK, SpecEd"
"St. Anne School","317 WEST CENTER ST","317 WEST CENTER ST","LINWOOD","LINWOOD","48634-9217","48634-9217","Pinconning","Dr.","Angie Radlinski","Angie","Radlinski","aradlinski@stannelinwood.com","9896973100","9896973630","KG-Part,1-6, GenEd, PK"
"St. Anselm School","17700 WEST OUTER DR","17700 WEST OUTER DR","DEARBORN HEIGHTS","DEARBORN HEIGHTS","48127-2567","48127-2567","Dearborn","Ms.","Katie Brydges","Katie","Brydges","klmb1976@hotmail.com","3135633430","3135657514","KG-Part, 1-8, GenEd, PK"
"St. Anthony of Padua School","2510 RICHMOND ST NW","2510 RICHMOND ST NW","GRAND RAPIDS","GRAND RAPIDS","49504-2329","49504-2329","Grand Rapids","Ms.","Julie Whelan","Julie","Whelan","jwhelan@saparish.com","6164534062","6165163724","KG-Part, 1-8, GenEd, PK"
"St. Augustine Cathedral School","600 WEST MICHIGAN AVE","600 WEST MICHIGAN AVE","KALAMAZOO","KALAMAZOO","49007-3716","49007-3716","Kalamazoo","Ms.","Andra Zommers","Andra","Zommers","azommers@stakzoo.org","2693491945","2693491085","KG-Part, 1-8, GenEd, PK"
"St. Augustine Catholic School","67901 HOWARD ST","67901 HOWARD ST","RICHMOND","RICHMOND","48062-1651","48062-1651","Richmond","Ms.","Melissa Lipsmeier","Melissa","Lipsmeier","alipsmeier@staugustinecatholicschool.com","5867279365","5867273760","KG-Part, 1-8, GenEd, PK"
"St. Bartholomew Lutheran School","1033 EAST BEAVER RD","1033 EAST BEAVER RD","KAWKAWLIN","KAWKAWLIN","48631-9164","48631-9164","Bay City","Mr.","Mark Boileau","Mark","Boileau","mboileau123@yahoo.com","9896846751",,"KG-Part, 1-8, GenEd, PK"
"St. Basil School","94 SUPERIOR ST","94 SUPERIOR ST","SOUTH HAVEN","SOUTH HAVEN","49090-1120","49090-1120","South Haven","Mr.","Bill Alwin","Bill","Alwin","principal@saintbasilcatholic.org","2696373529","2696392342","1-8, GenEd, PK"
"St. Brigid Catholic School","130 WEST LARKIN ST","130 WEST LARKIN ST","MIDLAND","MIDLAND","48640-5151","48640-5151","Midland","Ms.","Maureen Becker","Maureen","Becker","mbecker@stbrigid-midland.org","9898359481","9898359141","KG, KG-Part, 1-8, GenEd"
"St. Catherine Catholic School","P.O. Box 216","3376 THOMAS ST","Ravenna","RAVENNA","49451-9567","49451-9567","Ravenna","Mr.","Richard Kosla","Richard","Kosla","richardkosla@gmail.com","2318536743","2318536898","KG-Part, 1-6, GenEd"
"St. Catherine of Siena Academy","28200 NAPIER RD","28200 NAPIER RD","WIXOM","WIXOM","48393-3364","48393-3364","South Lyon","Ms.","Kathy Tarnacki","Kathy","Tarnacki","ktarnacki@saintcatherineacademy.org","2489464848","2484381679","9, GenEd"
"St. Cecilia Catholic School","106 EAST WHEATON AVE","106 EAST WHEATON AVE","CLARE","CLARE","48617-1322","48617-1322","Clare","Mrs.","Kimberly Smith","Kimberly","Smith","stcecilia@charterinternet.com","9893869862","9893863350","KG-Part, 1-6, GenEd, PK"
"St. Charles Borromeo Catholic School","79 HARRISON ST","79 HARRISON ST","COLDWATER","COLDWATER","49036-1301","49036-1301","Coldwater","Ms.","Brenda Mescher","Brenda","Mescher","mescherb@scbelementary.org","5172790404","5172780505","KG-Part, 1-5, GenEd, PK"
"St. Charles Catholic School","502 SOUTH FRANKLIN ST","502 SOUTH FRANKLIN ST","GREENVILLE","GREENVILLE","48838-2348","48838-2348","Greenville","Mrs.","Margaret Karpus","Margaret","Karpus","stchasprin@hotmail.com","6167543416","6167549262","KG-Part, 1-8, GenEd"
"St. Charles School","8125 SWAN CREEK RD","8125 SWAN CREEK RD","NEWPORT","NEWPORT","48166-9728","48166-9728","Jefferson","Ms.","Karen Johnson","Karen","Johnson","stcharlesprincipal@chartermi.net","7345862531","7345863900","KG-Part, 1-8, GenEd, PK"
"St. Clare of Montefalco School","16231 CHARLEVOIX ST","16231 CHARLEVOIX ST","GROSSE POINTE PARK","GROSSE POINTE PARK","48230-1165","48230-1165","Grosse Pointe","Sr.","Kathy Avery","Kathy","Avery","skavery@stclarem.org","3136475100","3136475105","KG-Part, 1-8, GenEd, PK"
"St. Damian School","29891 JOY RD","29891 JOY RD","WESTLAND","WESTLAND","48185-1728","48185-1728","Livonia","Ms.","Mary Stempin","Mary","Stempin","mstempin@netzero.com","7344271680","7344271272","KG-Part, 1-8, GenEd, PK"
"St. Edith School","15089 NEWBURGH RD","15089 NEWBURGH RD","LIVONIA","LIVONIA","48154-5037","48154-5037","Livonia","Sr.","Margaret Kijek","Margaret","Kijek","dalemaryo@aol.com","7344641250",,"KG-Part, 1-8, GenEd"
"St. Edward on the Lake School","6995 LAKESHORE RD","6995 LAKESHORE RD","LAKEPORT","LAKEPORT","48059-2221","48059-2221","Port Huron","Sr.","Patricia Magee, OP","Patricia","Magee, OP","ppatmagee@hotmail.com","8103854461","8103856070","KG-Part, 1-5, GenEd, PK"
"St. Elizabeth Ann Seton M.S.","1601 3 MILE RD N","1601 3 MILE RD N","TRAVERSE CITY","TRAVERSE CITY","49696","49696-8501","Traverse City","Mrs.","Lori Phillips","Lori","Phillips","lphill@gtacs.org","2319324810","2319324814","6-8, GenEd"
"St. Elizabeth Catholic School","12835 EAST WASHINGTON RD","12835 EAST WASHINGTON RD","REESE","REESE","48757-9712","48757-9712","Reese","Ms.","Gabriela Marguery","Gabriela","Marguery","gmarguery@steliz.net","9898684108","9898680060","KG-Part, 1-8, GenEd, PK"
"St. Fabian Catholic Elem. School","32200 WEST 12 MILE RD","32200 WEST 12 MILE RD","FARMINGTON HILLS","FARMINGTON HILLS","48334-3511","48334-3511","Farmington","Ms.","Dena Jayson","Dena","Jayson","djayson@stfabian.org","2485532750","2488483035","KG-Part, 1-8, GenEd"
"St. Frances Cabrini School","15300 WICK RD","15300 WICK RD","ALLEN PARK","ALLEN PARK","48101-1555","48101-1555","Allen Park","Ms.","Patricia Pollick","Patricia","Pollick","patpollick@yahoo.com","3133880110",,"KG-Part, 1-8, GenEd"
"St. Francis de Sales School","210 LAKE ST","210 LAKE ST","MANISTIQUE","MANISTIQUE","49854-1406","49854-1406","Manistique","Mrs.","Kathleen Lovell","Kathleen","Lovell","klovell@centurylink.net","9063415512","9063413984","KG-Part,1-8, GenEd, PK"
"St. Francis High School","123 EAST ELEVENTH ST","123 EAST ELEVENTH ST","TRAVERSE CITY","TRAVERSE CITY","49684-3260","49684-3260","Traverse City","Mr.","Erick Chittle","Erick","Chittle","khunt@gtacs.org","2319468038","2319461878","9-12, GenEd"
"St. Francis of Assisi School","2270 EAST STADIUM BLVD","2270 EAST STADIUM BLVD","ANN ARBOR","ANN ARBOR","48104-4825","48104-4825","Ann Arbor","Ms.","Sara Jane Collins","Sara Jane","Collins","scollins@stfrancisaa.org","7348212200","7348212202","KG-Part, 1-8, GenEd, PK"
"St. Francis Xavier School","414 MICHIGAN ST","414 MICHIGAN ST","PETOSKEY","PETOSKEY","49770-2611","49770-2611","Petoskey","Mrs.","Phyllis Daily","Phyllis","Daily","phyllisdaily@yahoo.com","2313473651","2313473610","KG-Part, 1-8, GenEd"
"St. Genevieve School","28933 JAMISON ST","28933 JAMISON ST","LIVONIA","LIVONIA","48154-4019","48154-4019","Livonia","Ms.","Ann Tonissen","Ann","Tonissen","atonissen@stgenevieve.org","7344254420","7344583915","KG-Part, 1-8, GenEd, PK"
"St. Gerard School","4433 WEST WILLOW HWY","4433 WEST WILLOW HWY","LANSING","LANSING","48917-2138","48917-2138","Waverly","Ms.","Michelle Piecuch","Michelle","Piecuch","mpiecuch@stgerard.org","5173216126","5173238046","KG-Part, 1-8, GenEd, PK"
"St. Germaine Elementary School","28250 ROCKWOOD ST","28250 ROCKWOOD ST","SAINT CLAIR SHORES","SAINT CLAIR SHORES","48081-1410","48081-1410","Lakeview (Macomb)","Ms.","Julie DeGrez","Julie","DeGrez","platessa@stgermaine.org","5867710890",,"KG-Part, 1-8, GenEd, PK"
"St. Hugo of the Hills School","380 EAST HICKORY GROVE RD","380 EAST HICKORY GROVE RD","BLOOMFIELD HILLS","BLOOMFIELD HILLS","48304-1745","48304-1745","Bloomfield Hills","Sr."," Van Velzen, IHM",,"Van Velzen, IHM","mvanvelzen@sthugo.org","2486426131",,"KG-Part, 1-8, GenEd"
"St. Ignatius Catholic School","545 SOUTH 3RD ST","545 SOUTH 3RD ST","ROGERS CITY","ROGERS CITY","49779-1911","49779-1911","Rogers City",,"Amy Rabeau","Amy","Rabeau","rcv286@12K.com","9897343443","9897343443","1-8, GenEd"
"St. Isaac Jogues Catholic School","21100 MADISON ST","21100 MADISON ST","SAINT CLAIR SHORES","SAINT CLAIR SHORES","48081-3389","48081-3389","Lakeview (Macomb)","Ms.","Anne Kolley","Anne","Kolley","akolley@stisaac.pvt.k12.mi.us","5867713525","5867788183","KG-Part, 1-8, GenEd, PK"
"St. James Elementary School","715 14TH ST","715 14TH ST","BAY CITY","BAY CITY","48708-7204","48708-7204","Bay City","Sr.","Julie Gatza","Julie","Gatza","office@stjamesbc.org","9898924371","9898927567","KG-Part, 1-5, GenEd, PK"
"St. Joan of Arc School","22415 OVERLAKE ST","22415 OVERLAKE ST","SAINT CLAIR SHORES","SAINT CLAIR SHORES","48080-3881","48080-3881","South Lake","Mr.","Donald Ancypa","Donald","Ancypa","dcancypa@hotmail.com","5867758370","5864473574","KG-Part, 1-8, GenEd, PK"
"St. John Catholic School","521 SOUTH MONROE ST","521 SOUTH MONROE ST","MONROE","MONROE","48161-2223","48161-2223","Monroe","Ms.","Jacqueline Mojeske","Jacqueline","Mojeske","mrsmojeske@gmail.com","7342411670","7342418782","KG-Part, 1-8, GenEd, PK"
"St. John Catholic School","619 MAIN ST","619 MAIN ST","ESSEXVILLE","ESSEXVILLE","48732-1332","48732-1332","Essexville-Hampton","Mrs.","Sue Grzegorczyk","Sue","Grzegorczyk","suegrzeg@yahoo.com","9898920363","9898945558","KG-Part, 1-5, GenEd, PK"
"St. John Ev Lutheran School","7379 BERNE RD","7379 BERNE RD","PIGEON","PIGEON","48755-9709","48755-9709","Elkton-Pigeon-Bay Port Laker","Mr.","Thomas Rosenow","Thomas","Rosenow","st.john@echoicemi.com","9894532861","9894532884","KG-Part,1-8, GenEd"
"St. John Lutheran School","1011 WEST UNIVERSITY DR","1011 WEST UNIVERSITY DR","ROCHESTER","ROCHESTER","48307-1862","48307-1862","Rochester","Mr.","Gordon Kennedy","Gordon","Kennedy","gkennedy@stjohnrochester.org","2484028052","2486529916","KG-Part, 1-8, GenEd, PK"
"St. John Lutheran School","28320 WALTZ RD","28320 WALTZ RD","NEW BOSTON","NEW BOSTON","48164-9003","48164-9003","Huron","Mr.","John Hinck","John","Hinck","jthctnmi@sbcglobal.net","7346546366","7346543675","KG-Part, 1-8, GenEd, PK"
"St. John Lutheran School","145 NORTH 5TH ST","145 NORTH 5TH ST","ROGERS CITY","ROGERS CITY","49779-1622","49779-1622","Rogers City","Ms.","Linda Schalk","Linda","Schalk","mrs.schalk73@yahoo.com","9897343580","9897342120","KG-Part, 1-8, GenEd, PK"
"St. John Lutheran School","7885 STATE RD","7885 STATE RD","PORT HOPE","PORT HOPE","48468-7725","48468-7725","Port Hope","Ms.","Paula Ceplecha","Paula","Ceplecha","stjohnadmin@stjohnporthope.org","9894284811","9894284811","KG-Part, 1-8, GenEd, PK"
"St. John Lutheran School","16339 EAST 14 MILE RD","16339 EAST 14 MILE RD","FRASER","FRASER","48026-5261","48026-5261","Fraser","Mr.","David Waltz","David","Waltz","stjohnfraser@hotmail.com","5862948740","5862949565","KG-Part, 1-8, GenEd, PK"
"St. John the Evangelist School","405 EAST NORTH ST","405 EAST NORTH ST","JACKSON","JACKSON","49202-3350","49202-3350","Jackson","Mrs.","Kristi Blair","Kristi","Blair","kbblairstjohn@gmail.com","5177841714","5177885382","KG-Part, 1-6, GenEd, PK"
"St. John the Evangelist School","514 LINCOLN ST","514 LINCOLN ST","FENTON","FENTON","48430-1808","48430-1808","Fenton","Ms.","Katherine White","Katherine","White","kwhite@stjohnfenton.com","8106296551","8106292213","KG-Part, 1-8, GenEd, PK"
"St. John Vianney School","2319 BAGLEY ST","2319 BAGLEY ST","FLINT","FLINT","48504-4613","48504-4613","Flint","Ms.","Mary Allen","Mary","Allen","mallen@sjvkids.org","8102355687","8102352811","KG-Part, 1-8, GenEd, PK"
"St. John Vianney School","4101 CLYDE PARK AVE SW","4101 CLYDE PARK AVE SW","WYOMING","WYOMING","49509-4033","49509-4033","Kelloggsville","Mr.","Tom Priest","Tom","Priest","tpriest@stjohnvianney.net","6165327001","6165321884","KG-Part, 1-8, GenEd"
"St. John's Ev. Lutheran School","4705 BROCKWAY RD","4705 BROCKWAY RD","SAGINAW","SAGINAW","48638-4664","48638-4664","Saginaw Township","Mr.","Ken Peterson","Ken","Peterson","kfp1951@gmail.com","9897990935",,"KG-Part,1-8, GenEd"
"St. John's Evangelical Lutheran School","2602 SOUTH WAYNE RD","2602 SOUTH WAYNE RD","WESTLAND","WESTLAND","48186-5427","48186-5427","Wayne-Westland","Mrs.","Lori Bartholomew","Lori","Bartholomew","lobart@comcast.net","7347214650","7347214650","KG-Part, 1-8, GenEd"
"St. Johns Lutheran Amelith","1664 AMELITH RD","1664 AMELITH RD","BAY CITY","BAY CITY","48706-9378","48706-9378","Bay City","Mrs.","Jennifer Enge","Jennifer","Enge","office@stjohn-amelith.org","9896860176","9896862169","KG-Part, 1-8, GenEd, PK"
"St. Johns Lutheran School","525 TAYLOR AVE","525 TAYLOR AVE","GRAND HAVEN","GRAND HAVEN","49417-2125","49417-2125","Grand Haven","Ms.","Laura Harvey","Laura","Harvey","lharvey@sjlcs.org","6168420260","6168420934","KG-Part, 1-8, GenEd, PK"
"St. Johns Lutheran School","1108 EAST LAFAYETTE ST","1108 EAST LAFAYETTE ST","STURGIS","STURGIS","49091-1989","49091-1989","Sturgis","Mr.","Jerome Wolff","Jerome","Wolff","mrwolffteach@yahoo.com","2696513240","2696515308","KG-Part,1-8, GenEd"
"St. John's Lutheran School","505 EAST CARPENTER ST","505 EAST CARPENTER ST","MIDLAND","MIDLAND","48640-5462","48640-5462","Midland","Mr.","Jonathon Pickelmann","Jonathon","Pickelmann","jpickelmann@stjohnslutheran-midland.org","9898357041","9898352443","KG-Part, 1-8, GenEd, PK"
"St. John's Lutheran School","2290 PRETZER RD","2290 PRETZER RD","HEMLOCK","HEMLOCK","48626-9788","48626-9788","Hemlock","Mr.","Zachary Seeger","Zachary","Seeger","stjohns.hemlock.school@gmail.com","9896425178","9896428935","KG-Part, 1-8, GenEd, PK"
"St. Joseph Academy","1267 EAST SIENA HEIGHTS DR","1267 EAST SIENA HEIGHTS DR","ADRIAN","ADRIAN","49221-1755","49221-1755","Adrian","Sr.","Patricia Fischer","Patricia","Fischer","pfischer@sjaschool.org","5172634898","5172564733","KG-Part,1-8, GenEd, PK"
"St. Joseph Catholic School","2238 MANHATTAN ST","2238 MANHATTAN ST","ERIE","ERIE","48133-9647","48133-9647","Mason (Monroe)","Mrs.","Janet Hardy","Janet","Hardy","jhardy.sus@gmail.com","7348486985",,"KG-Part, 1-8, GenEd, PK"
"St. Joseph Catholic School","188 LUCINDA LN","188 LUCINDA LN","WATERVLIET","WATERVLIET","49098-9200","49098-9200","Watervliet","Ms.","Bobbie Piecyk","Bobbie","Piecyk","principalsjcatholicschool@gmail.com","2694633941","2694634525","KG,KG-Part,1-6, GenEd, PK"
"St. Joseph Catholic School","703 NORTH LAPEER RD","703 NORTH LAPEER RD","LAKE ORION","LAKE ORION","48362-1530","48362-1530","Lake Orion","Sr.","Theresa Darga","Theresa","Darga","tdarga@stjosephlakeorion.org","2486936215",,"KG-Part, 1-8, GenEd, PK"
"St. Joseph Elementary School","47 23RD ST N","47 23RD ST N","BATTLE CREEK","BATTLE CREEK","49015-1726","49015-1726","Lakeview (Calhoun)","Mrs.","Patricia Riley","Patricia","Riley","priley@bcacs.org","2699657749","2699650790","KG-Part, 1-5, GenEd, PK"
"St. Joseph Middle School","44 25TH ST N","44   25TH ST N","BATTLE CREEK","BATTLE CREEK","49015-1773","49015","Lakeview (Calhoun)","Ms.","Amy Doyle","Amy","Doyle","adoyle@bcacs.org","2699634935","2696600354","6-8, GenEd"
"St. Joseph School","425 EAST WASHINGTON ST","425 EAST WASHINGTON ST","HOWELL","HOWELL","48843-2346","48843-2346","Howell","Ms.","Judith Meerschaert","Judith","Meerschaert","jmeerschaert@stjosephhowell.com","5175460090","5175468903","KG-Part, 1-8, GenEd, PK"
"St. Joseph School","935 WEST HOUGHTON AVE","935 WEST HOUGHTON AVE","WEST BRANCH","WEST BRANCH","48661-1233","48661-1233","West Branch-Rose City","Ms.","Katie Nimcheski","Katie","Nimcheski","knimcheski@wbstjoseph.com","9893450220","9893453030","KG-Part, 1-8, GenEd"
"St. Joseph School","18768 8TH AVE","18768 8TH AVE","CONKLIN","CONKLIN","49403-9718","49403-9718","Coopersville","Mr.","Richard Kosla","Richard","Kosla","richardkosla@gmail.com","6168995300",,"KG-Part, 1-8, GenEd, PK"
"St. Joseph School","160 East Street, PO Box 38","160 SOUTH EAST ST","Pewamo","PEWAMO","48873-0038","48873-9742","Pewamo-Westphalia","Mrs.","Patricia O'Mara","Patricia","O'Mara","stjoes@pw.k12.mi.us","9895933400","6169020097","2-8, GenEd"
"St. Joseph School","201 EAST CASS ST","201 EAST CASS ST","SAINT JOHNS","SAINT JOHNS","48879-1834","48879-1834","St. Johns","Ms.","Tomi Ann Schultheiss","Tomi Ann","Schultheiss","tas@stjoecatholic.com","9892242421","9892241900","KG-Part, 1-6, GenEd"
"St. Joseph School","2675 3RD ST","2675 3RD ST","TRENTON","TRENTON","48183-2812","48183-2812","Trenton","Ms.","Wanda Rovenskie","Wanda","Rovenskie","wrovenskie@mycomcast.com","7346762565",,"KG-Part, 1-8, GenEd"
"St. Joseph the Worker School","2091 NORTH WINN RD","2091 NORTH WINN RD","MOUNT PLEASANT","MOUNT PLEASANT","48858-9730","48858-9730","Beal City","Mrs.","Mary Hauck","Mary","Hauck","stjoseph@edzone.net","9896443970","9896442026","KG,1-6, GenEd"
"St. Joseph's Academy","28049 SCHOOL SECTION RD","28049 SCHOOL SECTION RD","RICHMOND","RICHMOND","48062-3300","48062-3300","Armada","Ms.","Kathryn Hetrick","Kathryn","Hetrick","kmsja@comcast.net","5867845591","5867848070","KG-Part, 1-12, GenEd"
"St. Joseph's School","34437 SIMS ST","34437 SIMS ST","WAYNE","WAYNE","48184-1321","48184-1321","Wayne-Westland","Sr.","Mary Alphonsa Vopalensky","Mary Alphonsa","Vopalensky","god_wills_it_33@yahoo.com","7347226741","7347299350","KG-Part,1-12, GenEd"
"St. Lawrence School","44429 UTICA RD","44429 UTICA RD","UTICA","UTICA","48317-5466","48317-5466","Utica","Ms.","Cathy Ciolino","Cathy","Ciolino","ciolino@comcast.net","5867310135","5867315393","KG-Part, 1-8, GenEd, PK"
"St. Linus School","6466 NORTH EVANGELINE ST","6466 NORTH EVANGELINE ST","DEARBORN HEIGHTS","DEARBORN HEIGHTS","48127-2029","48127-2029","Crestwood","Ms.","Christine Lee","Christine","Lee","principal@stlinusschool.com","3132745320",,"KG-Part, 1-8, GenEd, PK, SpecEd"
"St. Lorenz Lutheran School","140 CHURCHGROVE RD","140 CHURCHGROVE RD","FRANKENMUTH","FRANKENMUTH","48734-1038","48734-1038","Frankenmuth","Mr.","Michael Bender","Michael","Bender","mbender@stlorenz.org","9896526141","9896529071","KG-Part, 1-8, GenEd, PK"
"St. Luke Lutheran School","21400 SOUTH NUNNELEY RD","21400 SOUTH NUNNELEY RD","CLINTON TOWNSHIP","CLINTON TOWNSHIP","48035-1632","48035-1632","Clintondale","Mr.","David Kleimola","David","Kleimola","principal@stlukemi.org","5867911151","5867911591","KG-Part, 1-8, GenEd, PK"
"St. Luke's Lutheran School","1056 WELS LN","1056 WELS LN","VASSAR","VASSAR","48768-1165","48768-1165","Vassar","Mr.","John Lange","John","Lange","stlukesles@sbcglobal.net","9898238400",,"KG-Part, 1-8, GenEd, PK"
"St. Margaret School","736 SOUTH FARMER ST","736 SOUTH FARMER ST","OTSEGO","OTSEGO","49078-1432","49078-1432","Otsego","Mr.","Frank Sander","Frank","Sander","ftsander@sbcglobal.net","2696942951","2696944520","KG-Part, 1-8, GenEd, PK"
"St. Mark Christian Academy","3615 LIVERNOIS RD","3615 LIVERNOIS RD","TROY","TROY","48083-5033","48083-5033","Troy","Ms.","Marie Weber","Marie","Weber","mweber@stmarkacademy.org","2486190530","2486190542","KG-Part,1-5, GenEd"
"St. Mark Lutheran School","1934 52ND ST SE","1934 52ND ST SE","GRAND RAPIDS","GRAND RAPIDS","49508-4915","49508-4915","Kentwood","Mr.","Joel Bahr","Joel","Bahr","jbahr@smls.net","6162817892","6164555320","KG-Part, 1-8, GenEd, PK"
"St. Martha School","1100 WEST GRAND RIVER AVE","1100 WEST GRAND RIVER AVE","OKEMOS","OKEMOS","48864-3015","48864-3015","Okemos","Mrs.","Frances Herring","Frances","Herring","schoolprincipal@st-martha.org","5173493322","5173493322","KG-Part, 1-8, GenEd, PK"
"St. Mary Assumption School","204 ALBERS RD","204 ALBERS RD","BRONSON","BRONSON","49028-1203","49028-1203","Bronson","Ms.","Sharon Alexander","Sharon","Alexander","principal@stmarybronson.org","5173694625","5173691652","KG-Part, 1-8, GenEd, PK"
"St. Mary Cathedral School","321 NORTH OTSEGO AVE","321 NORTH OTSEGO AVE","GAYLORD","GAYLORD","49735-1447","49735-1447","Gaylord","Ms.","Cynthia Pineda","Cynthia","Pineda","cpineda@gaylordstmary.org","9897325801","9897322085","KG-Part, 1-12, GenEd, PK"
"St. Mary Catholic Central High School","108 WEST ELM AVE","108 WEST ELM AVE","MONROE","MONROE","48162-2700","48162-2700","Monroe","Mrs.","Jenny Biler","Jenny","Biler","jbiler@smccmonroe.com","7342410663","7342419042","9-12, GenEd"
"St. Mary Catholic School","421 EAST EXCHANGE ST","421 EAST EXCHANGE ST","SPRING LAKE","SPRING LAKE","49456-1901","49456-1901","Spring Lake","Mr.","Michael Devitt","Michael","Devitt","mdevitt@remc7.k12.mi.us","6168421282","6168428048","KG-Part, 1-8, GenEd"
"St. Mary Catholic School","360 MAPLE ST","360 MAPLE ST","SAULT SAINTE MARIE","SAULT SAINTE MARIE","49783-2040","49783-2040","Sault Ste. Marie","Mrs.","Maria Farney","Maria","Farney","mfarney@eup.k12.mi.us","9066356141","9066356128","KG-Part, 1-8, GenEd, PK"
"St. Mary Catholic School","32447 CHURCH ST","32447 CHURCH ST","ROCKWOOD","ROCKWOOD","48173-1105","48173-1105","Gibraltar","Mr.","Kevin Dufresne","Kevin","Dufresne","tracy.ka@comcast.net","7343799285","7343799088","KG-Part, 1-8, GenEd, PK"
"St. Mary of the Lake School","704 WEST MERCHANT ST","704 WEST MERCHANT ST","NEW BUFFALO","NEW BUFFALO","49117-1241","49117-1241","New Buffalo","Ms.","Kate VanPelt","Kate","VanPelt","katevanpelt@stmaryofthelakeschool.com","2694691515","2694693772","KG-Part, 1-8, GenEd, PK"
"St. Mary Parish School","151 NORTH MONROE ST","151 NORTH MONROE ST","MONROE","MONROE","48162-2628","48162-2628","Monroe","Mrs.","Melody Curtis","Melody","Curtis","stmarymonroe@yahoo.com","7342413377","7342410497","KG-Part, 1-8, GenEd"
"St. Mary School","927 MARION AVE","927 MARION AVE","BIG RAPIDS","BIG RAPIDS","49307-1019","49307-1019","Big Rapids","Ms.","Barbara Borth","Barbara","Borth","bborth@stmarys-schoolbr.com","2317966731","2317969293","KG-Part, 1-8, GenEd, PK"
"St. Mary School","628 SOUTH LAFAYETTE AVE","628 SOUTH LAFAYETTE AVE","ROYAL OAK","ROYAL OAK","48067-2520","48067-2520","Royal Oak","Ms.","Gabriela Bala","Gabriela","Bala","gbala@st-mary.org","2485452140",,"KG-Part, 1-8, GenEd, PK"
"St. Mary School","800 ORCHARD ST","800 ORCHARD ST","SAINT CLAIR","SAINT CLAIR","48079-5410","48079-5410","East China","Mr.","Gary Tomlin","Gary","Tomlin","gtomlin@stmarysstclair.org","8103294150","8103295705","KG-Part, 1-8, GenEd, PK"
"St. Mary School","220 WEST DOWNIE ST","220 WEST DOWNIE ST","ALMA","ALMA","48801-1621","48801-1621","Alma","Ms.","Lisa Seeley","Lisa","Seeley","lseeley@stmaryalma.com","9894634579","9894638297","KG-Part, 1-6, GenEd, PK"
"St. Mary School","PO Box 340, 310 St. Mary's Stree","303 SAINT MARY'S ST","Lake Leelanau","LAKE LEELANAU","49653-0340","49653","Leland","Mrs.","Megan Glynn","Megan","Glynn","mglynn@stmarysll.org","2312569636","2312567812","KG-Part, 1-12, GenEd, PK"
"St. Mary School","105 MARKET ST","96 NEW ST","MOUNT CLEMENS","MOUNT CLEMENS","48043-5638","48043-5618","Mount Clemens","Ms.","Maureen Miscavish","Maureen","Miscavish","mmiscavish@saint-mary.us","5864684570","5864686454","KG-Part, 1-8, GenEd, PK"
"St. Mary School","10601 DEXTER PINCKNEY RD","10601 DEXTER PINCKNEY RD","PINCKNEY","PINCKNEY","48169-8950","48169-8950","Pinckney","Mrs.","Veronica Kinsey","Veronica","Kinsey","mrskinsey@stmarypinckney.org","7348785616","7348782383","KG-Part, 1-8, GenEd, PK"
"St. Mary School","11208 NORTH SAGINAW ST","11208 NORTH SAGINAW ST","MOUNT MORRIS","MOUNT MORRIS","48458-2005","48458-2005","Mt. Morris","Mrs.","Diane Martindale","Diane","Martindale","principal@saintmaryscatholic.com","8106864790","8106864749","KG-Part, 1-8, GenEd, PK"
"St. Mary School","209 NORTH WESTPHALIA ST","209 NORTH WESTPHALIA ST","WESTPHALIA","WESTPHALIA","48894-9865","48894-9865","Pewamo-Westphalia","Mr.","Raymond Rzepecki","Raymond","Rzepecki","rmrzepecki@stmaryschool.us","9895873702","9895873838","1-6, GenEd"
"St. Mary School","217 SOUTH LINCOLN AVE","217 SOUTH LINCOLN AVE","NILES","NILES","49120-2919","49120-2919","Niles","Ms.","Sharon Gregorski","Sharon","Gregorski","sharonrgregorski@yahoo.com","2696839191","2696838118","KG,1-6, GenEd, PK"
"St. Mary School","220 NORTH CEDAR ST","220 NORTH CEDAR ST","WILLIAMSTON","WILLIAMSTON","48895-1125","48895-1125","Williamston","Ms.","Suzanne Penn","Suzanne","Penn","spenn@stmarywilliamston.com","5176554038","5176553933","KG-Part, 1-5, GenEd, PK"
"St. Mary School","508 EAST PAW PAW ST","508 EAST PAW PAW ST","PAW PAW","PAW PAW","49079-1625","49079-1625","Paw Paw","Mrs.","Connie Cooley","Connie","Cooley","stmarypp@bloomingdalecom.net","2696573750","2696574260","KG-Part, 1-5, GenEd, PK"
"St. Mary School","905 SAINT MARYS BLVD","905 SAINT MARYS BLVD","CHARLOTTE","CHARLOTTE","48813-2217","48813-2217","Charlotte","Mrs.","Linda Yeager","Linda","Yeager","stmaryprincipal@sbcglobal.net","5175433460","5175419798","KG-Part,1-5, GenEd"
"St. Mary School","1005 BRIDGE ST","1005 BRIDGE ST","CHARLEVOIX","CHARLEVOIX","49720-1601","49720-1601","Charlevoix","Ms.","Keisha Veryser","Keisha","Veryser","stmaryschool@chartermi.net","2315479441","2315476658","KG-Part, 1-6, GenEd, PK"
"St. Mary School","34516 WEST MICHIGAN AVE","34516 WEST MICHIGAN AVE","WAYNE","WAYNE","48184-1748","48184-1748","Wayne-Westland","Mr.","Donald Lipinski","Donald","Lipinski","stmarywayne@aol.com","7347211240","7344677381","KG-Part, 1-8, GenEd, PK"
"St. Mary Star of the Sea School","116 EAST WESLEY ST","116 EAST WESLEY ST","JACKSON","JACKSON","49201-2341","49201-2341","Jackson",,"Julia Mary Hurlburt","Julia Mary","Hurlburt","stmaryschool@tds.net","5177848811",,"KG-Part, 1-6, GenEd, PK"
"St. Mary/McCormick Catholic Academy","1429 BALLENTINE ST","1429 BALLENTINE ST","PORT HURON","PORT HURON","48060-2069","48060-2069","Port Huron","Ms.","Rachel Becker","Rachel","Becker","stmaryacademy@hotmail.com","8109827906","8109878255","KG-Part, 1-8, GenEd, PK"
"St. Mary's of Hannah School","2912 W KINGSLEY RD","2912 WEST M 113","KINGSLEY","KINGSLEY","49649","49649-9728","Kingsley","Mrs.","Lisa Swartz-Medina","Lisa","Swartz-Medina","smh.school@charterinternet.com","2312635288","2312637489","KG-Part, 1-6, GenEd, PK"
"St. Mary's Preparatory School","3535 INDIAN TRL","3535 INDIAN TRL","ORCHARD LAKE","ORCHARD LAKE","48324-1623","48324-1623","West Bloomfield","Mr.","Len Karschnia","Len","Karschnia","lkarschnia@stmarysprep.com","2487556375","2486831740","9-12, Boarding, GenEd"
"St. Mary's Visitation School","2455 146TH AVE SW","2455 146TH AVE SW","BYRON CENTER","BYRON CENTER","49315-9119","49315-9119","Hopkins","Mrs.","Gail Lewis","Gail","Lewis","glewis@smvschool.org","6166819607","6166819919","KG-Part, 1-6, GenEd, PK"
"St. Matthew Lutheran School","5885 NORTH VENOY RD","5885 NORTH VENOY RD","WESTLAND","WESTLAND","48185-2831","48185-2831","Wayne-Westland","Ms.","Judy Schwaegerle","Judy","Schwaegerle","principal@stmatthew.info","7344250261","7344257932","KG-Part, 1-8, GenEd, PK"
"St. Matthew Lutheran School","2040 SOUTH COMMERCE RD","2040 SOUTH COMMERCE RD","WALLED LAKE","WALLED LAKE","48390-2412","48390-2412","Walled Lake","Mrs.","Susan Palka","Susan","Palka","susan.palka@st-matthew.org","2486247677","2486240685","KG-Part, 1-8, GenEd, PK"
"St. Michael Catholic School","510 WEST FRONT ST","510 WEST FRONT ST","MONROE","MONROE","48161-2424","48161-2424","Monroe","Ms.","Michelle Sontag","Michelle","Sontag","schoolsecretary@stmichaelmonroe.com","7342413923","7342417314","KG-Part, 1-8, GenEd"
"St. Michael Lutheran School","9444 WEST SAGINAW RD","9444 WEST SAGINAW RD","RICHVILLE","RICHVILLE","48758","48758","Reese","Mr.","Daniel Stoelting","Daniel","Stoelting","dstoelting@stmichaelsrichville.org","9898684809","9898684288","KG-Part, 1-8, GenEd, PK"
"St. Michael Lutheran School","3003 HANNAN RD","3003 HANNAN RD","WAYNE","WAYNE","48184-1009","48184-1009","Wayne-Westland","Mr.","Harvey Schmit","Harvey","Schmit","stmichaelwayne@comcast.net","7347283315","7347289569","KG-Part, 1-8, GenEd, PK"
"St. Michael School","310 EAST 2ND ST","310 EAST 2ND ST","PINCONNING","PINCONNING","48650-9409","48650-9409","Pinconning","Ms.","Mellisa Paulik","Mellisa","Paulik","MELPAULIK@YAHOO.COM","9898793063","9898793626","KG-Part, 1-8, GenEd, PK"
"St. Michael School","325 EDWARDS ST","325 EDWARDS ST","GRAND LEDGE","GRAND LEDGE","48837-2110","48837-2110","Grand Ledge","Ms.","Mitzi Luttrull","Mitzi","Luttrull","mitziluttrull@stmichaelgl.org","5176272167","5176271289","KG-Part, 1-8, GenEd, PK"
"St. Michael School","17150 88TH AVE","17150 88TH AVE","COOPERSVILLE","COOPERSVILLE","49404-9457","49404-9457","Coopersville","Mr.","Richard Kosla","Richard","Kosla","richardkosla@gmail.com","6168376346","6168378580","KG-Part, 1-6, GenEd, PK"
"St. Michael School","8944 50TH AVE","8944 50TH AVE","REMUS","REMUS","49340-9771","49340-9771","Chippewa Hills","Ms.","Mary Schoner","Mary","Schoner","stmichaelsschool@power-net.net","9899673681","9899673061","KG-Part, 1-6, GenEd, PK"
"St. Michael School","11311 HUBBARD ST","11311 HUBBARD ST","LIVONIA","LIVONIA","48150-2763","48150-2763","Livonia","Sr.","M. Carolyn","M.","Carolyn","tliptak@livoniastmichael.org","7344217360","7344669713","KG-Part, 1-8, GenEd"
"St. Michael's Lutheran School","7211 OAKLAND DR","7211 OAKLAND DR","PORTAGE","PORTAGE","49024-4151","49024-4151","Portage","Mr.","Gregory Johnson","Gregory","Johnson","gjohnson@mightymessengers.org","2693270512","2693277832","KG-Part, 1-8, GenEd, PK"
"St. Monica School","530 WEST KILGORE RD","530 WEST KILGORE RD","KALAMAZOO","KALAMAZOO","49008-3610","49008-3610","Kalamazoo","Mrs.","Becky Reits","Becky","Reits","breits@stmonicakzoo.org","2693452444","2693458534","KG-Part, 1-8, GenEd, PK"
"St. Patrick School","9040 HUTCHINS ST","9040 HUTCHINS ST","WHITE LAKE","WHITE LAKE","48386-3331","48386-3331","Walled Lake","Mrs.","Carol Budchuk","Carol","Budchuk","cbudchuk@stpatrickwhitelake.org","2486983240","2486984339","KG-Part, 1-8, GenEd"
"St. Patrick School","1001 ORNDORF DR","1001 ORNDORF DR","BRIGHTON","BRIGHTON","48116-2308","48116-2308","Brighton","Ms.","Jeanine Kenny","Jeanine","Kenny","principal@stpatschool.org","8102297946","8102296206","KG, KG-Part, 1-8, GenEd"
"St. Patrick School","2970 WEST LABO RD","2970 WEST LABO RD","CARLETON","CARLETON","48117-9038","48117-9038","Airport","Mrs.","Ruth Meiring","Ruth","Meiring","saintpatrick@chartermi.net","7346542522",,"KG-Part, 1-8, GenEd, PK"
"St. Patrick School","4333 PARNELL AVE NE","4333 PARNELL AVE NE","ADA","ADA","49301-9759","49301-9759","Lowell","Mr.","Scott Czarnopys","Scott","Czarnopys","scottczarnopys@gmail.com","6166918833","6166918541","KG-Part,1-8, GenEd, PK"
"St. Patrick's School","122 WEST ST","122 NORTH WEST ST","PORTLAND","PORTLAND","48875","48875-1091","Portland","Mr.","Randy Hodge","Randy","Hodge","randyhodge@portlandstpats.org","5176477551","5176474545","KG,1-12, GenEd, PK"
"St. Paul Lutheran School","4941 CENTER ST","4941 CENTER ST","MILLINGTON","MILLINGTON","48746-9676","48746-9676","Millington","Mrs.","Elaine Bickel","Elaine","Bickel","elainebickel@juno.com","9898714581","9898715573","KG-Part, 1-8, GenEd, PK"
"St. Paul Lutheran School","495 EARHART RD","495 EARHART RD","ANN ARBOR","ANN ARBOR","48105-2708","48105-2708","Ann Arbor",,"Bradley Massey","Bradley","Massey","eyoskovich@stpaulannarbor.org","7346650604","7346657809","KG-Part, 1-8, GenEd, PK"
"St. Paul Lutheran School","2745 WEST GENESEE AVE","2745 WEST GENESEE AVE","SAGINAW","SAGINAW","48602-3724","48602-3724","Saginaw","Mr.","Michael Hein","Michael","Hein","heinstpauls@juno.com","9897993271",,"KG-Part, 1-8, GenEd"
"St. Paul Lutheran School","17810 FARMINGTON RD","17810 FARMINGTON RD","LIVONIA","LIVONIA","48152-3104","48152-3104","Livonia","Pastor","James Hoff","James","Hoff","jhoff@stpaulslivonia.org","7344219022","7344219022","KG-Part, 1-8, GenEd, PK"
"St. Paul Lutheran School","718 ARBOR CT","718 ARBOR CT # M","SOUTH HAVEN","SOUTH HAVEN","49090-1959","49090-1959","South Haven","Mr.","Joseph Greefkes","Joseph","Greefkes","jrgreefkes@gmail.com","2696374459",,"KG-Part, 1-8, GenEd, PK"
"St. Paul Lutheran School","402 SOUTH BALLENGER HWY","402 SOUTH BALLENGER HWY","FLINT","FLINT","48532-3637","48532-3637","Flint","Ms.","Mary Buck","Mary","Buck","mbuck@stpaulflint.com","8102396733","8102395466","KG-Part, 1-8, GenEd, PK"
"St. Paul Lutheran School","90 MILLVILLE RD","90 MILLVILLE RD","LAPEER","LAPEER","48446-1642","48446-1642","Lapeer","Mr.","Raymond Sturm","Raymond","Sturm","raysturm@charter.net","8106640046","8106646653","KG-Part, 1-8, GenEd, PK"
"St. Paul Lutheran School","508 SOUTH WILLIAMS ST","508 SOUTH WILLIAMS ST","ROYAL OAK","ROYAL OAK","48067-2622","48067-2622","Royal Oak","Mr.","Terry Hoeft","Terry","Hoeft","slutheranscho113880@comcast.net","2485466555","2485468096","KG-Part, 1-8, GenEd, PK"
"St. Paul Lutheran School","201 ELM ST","201 ELM ST","NORTHVILLE","NORTHVILLE","48167-1260","48167-1260","Northville","Mr.","Carl Hall","Carl","Hall","stpauldayschool@ameritech.net","2483493146","2483497493","KG-Part,1-8, GenEd, PK"
"St. Paul Lutheran School","6094 WESTSIDE SAGINAW RD","6094 WESTSIDE SAGINAW RD","BAY CITY","BAY CITY","48706-9357","48706-9357","Bay City","Ms.","Carolyn VanCise","Carolyn","VanCise","stpaulfrankenlust@mail.com","9896844450","9896840882","KG-Part, 1-8, GenEd, PK"
"St. Paul School","170 GROSSE POINTE BLVD","170 GROSSE POINTE BLVD","GROSSE POINTE FARMS","GROSSE POINTE FARMS","48236-3754","48236-3754","Grosse Pointe","Dr.","Mary Miller","Mary","Miller","mmiller@stpaulonthelake.org","3138853430","3138859357","KG-Part, 1-8, GenEd, PK"
"St. Paul School","718 WEST MAIN ST","718 WEST MAIN ST","OWOSSO","OWOSSO","48867-2612","48867-2612","Owosso","Mrs.","Merry Jane Robertson","Merry Jane","Robertson","principal@spsowosso.org","9897257766","9897239503","KG-Part, 1-8, GenEd"
"St. Paul The Apostle School","2750 BURTON ST SE","2750 BURTON ST SE","GRAND RAPIDS","GRAND RAPIDS","49546-4927","49546-4927","Grand Rapids","Ms.","Lori Salva","Lori","Salva","ljs738@gmail.com","6169491690","6169490836","KG-Part, 1-8, GenEd, PK"
"St. Paul's Lutheran School","2673 WEST JOHN BEERS RD","2673 WEST JOHN BEERS RD","STEVENSVILLE","STEVENSVILLE","49127-1212","49127-1212","Lakeshore (Berrien)","Mr.","Alan Treder","Alan","Treder","act@stpaulslwels.org","2694291546","2694290172","KG-Part, 1-8, GenEd, PK"
"St. Peter Lutheran Day School","1309 PENNIMAN AVE","1309 PENNIMAN AVE","PLYMOUTH","PLYMOUTH","48170-1156","48170-1156","Plymouth-Canton","Mr.","Ryan Roth","Ryan","Roth","speterschool218130mi@comcast.net","7344530460","7344533598","KG-Part, 1-8, GenEd, PK, SpecEd"
"St. Peter Lutheran School","8990 CHURCH RD","8990 CHURCH RD","SAINT JOHNS","SAINT JOHNS","48879-9230","48879-9230","St. Johns","Mr.","David Bremer","David","Bremer","david.bremer@lsportal.net","9892244665","9892248962","KG-Part, 1-8, GenEd, PK"
"St. Peter Lutheran School","408 WEST BELLEVUE ST","408 WEST BELLEVUE ST","BIG RAPIDS","BIG RAPIDS","49307-1310","49307-1310","Big Rapids","Mr.","David Truog","David","Truog","dtruog@charter.net","2317968782","2317961186","KG-Part, 1-8, GenEd, PK"
"St. Peter Lutheran School","2440 NORTH RAUCHOLZ RD","2440 NORTH RAUCHOLZ RD","HEMLOCK","HEMLOCK","48626-8467","48626-8467","Hemlock","Mr.","Eric Hagenow","Eric","Hagenow","emhageno@stpeterhemlock.org","9896425659","9896429053","KG-Part, 1-8, GenEd, PK"
"St. Peter Lutheran School","23000 GRATIOT AVE","23000 GRATIOT AVE","EASTPOINTE","EASTPOINTE","48021-1663","48021-1663","East Detroit","Ms.","Judy Thompson","Judy","Thompson","jthompson@stpeterslutheranchurch.net","5867712809","5867770347","KG-Part, 1-8, GenEd, PK"
"St. Peter Lutheran School","17051 24 MILE RD","17051 24 MILE RD","MACOMB","MACOMB","48042-2902","48042-2902","Utica","Mr.","Kyle Chuhran","Kyle","Chuhran","kchuhran@splcs.net","5867819296","5867819296","KG-Part, 1-8, GenEd"
"St. Peter's Lutheran School","37601 31 MILE RD","37601 31 MILE RD","RICHMOND","RICHMOND","48062-1907","48062-1907","Richmond","Mr.","George Kovtun","George","Kovtun","sue.ianitelli@lsportal.net","5867279080","5867273380","KG-Part, 1-8, GenEd, PK"
"St. Philip Catholic Central High School","20 CHERRY ST","20 CHERRY ST","BATTLE CREEK","BATTLE CREEK","49017-3904","49017-3904","Battle Creek","Mr.","Donald Shafer","Donald","Shafer","dshafer@bcacs.org","2699634503","2699635590","9-12, GenEd"
"St. Pius Catholic School","14141 PEARL ST","14141 PEARL ST","SOUTHGATE","SOUTHGATE","48195-1959","48195-1959","Southgate","Mrs.","Michelle Seward","Michelle","Seward","mseward@saintpius-x.org","7342846500","2488408638","KG-Part, 1-8, GenEd, PK"
"St. Pius X School","G3139 HOGARTH AVE","G3139 HOGARTH AVE","FLINT","FLINT","48532-5132","48532-5132","Carman-Ainsworth","Mr.","R. J. Kaplan","R. J.","Kaplan","rkaplanspx@yahoo.com","8102358572","8102352675","KG-Part, 1-8, GenEd, PK"
"St. Raphael School","31500 BEECHWOOD ST","31500 BEECHWOOD ST","GARDEN CITY","GARDEN CITY","48135-1935","48135-1935","Garden City","Ms.","De Ann Brzezinski","De Ann","Brzezinski","dbrzezinski@straphael-gc.org","7344259771","7344278895","KG-Part, 1-8, GenEd, PK"
"St. Regis School","3691 LINCOLN RD","3691 LINCOLN RD","BLOOMFIELD HILLS","BLOOMFIELD HILLS","48301-4055","48301-4055","Birmingham","Ms.","Denise Ball","Denise","Ball","denise.ball@stregis.org","2486462686",,"KG-Part, 1-8, GenEd, PK"
"St. Robert Bellarmine School","27201 WEST CHICAGO","27201 WEST CHICAGO","REDFORD","REDFORD","48239-2333","48239-2333","South Redford","Ms.","Nancy Kuszczak","Nancy","Kuszczak","nmajewski@yahoo.com","3139371655",,"KG-Part, 1-8, GenEd, PK"
"St. Robert Bellarmine School","214 EAST HENRY ST","214 EAST HENRY ST","FLUSHING","FLUSHING","48433-1551","48433-1551","Flushing","Mrs.","Susan Sharp","Susan","Sharp","srsoffice@aol.com","8106592503","8106594002","KG-Part, 1-8, GenEd, PK"
"St. Rose of Lima Catholic School","707 SOUTH JEFFERSON ST","707 SOUTH JEFFERSON ST","HASTINGS","HASTINGS","49058-2237","49058-2237","Hastings","Mr.","Kyle Welter","Kyle","Welter","kylewelter23@yahoo.com","2699453164","2699450005","KG-Part, 1-6, GenEd"
"St. Sebastian School","20700 COLGATE ST","20700 COLGATE ST","DEARBORN HEIGHTS","DEARBORN HEIGHTS","48125-2908","48125-2908","Dearborn Heights #7","Sr."," Kaczynski, FSSJ",,"Kaczynski, FSSJ","stsebastian@comcast.net","3135636640",,"KG-Part, 1-8, GenEd, PK"
"St. Stanislaus School","1861 136TH AVE","1861 136TH AVE","DORR","DORR","49323-9553","49323-9553","Hopkins","Ms.","Shannon Saxton-Murphy","Shannon","Saxton-Murphy","murphy@st-stans.net","2697937204","2697933264","KG-Part, 1-8, GenEd, PK"
"St. Stephen Elementary School","18800 HURON RIVER DR","18800 HURON RIVER DR","NEW BOSTON","NEW BOSTON","48164-9272","48164-9272","Huron","Mr.","Joe Monte","Joe","Monte","jm3663@comcast.net","7347534175","7347535828","KG-Part, 1-8, GenEd"
"St. Stephen Lutheran School","4860 MIDLAND AVE","4860 MIDLAND AVE","WATERFORD","WATERFORD","48329-1743","48329-1743","Waterford","Dr.","Kristen Nelson-McKenzie","Kristen","Nelson-McKenzie","ststephenwaterford@yahoo.com","2486735906","2486732908","KG-Part, 1-8, GenEd, PK"
"St. Stephen Parish School","1300 MALZAHN ST","1300 MALZAHN ST","SAGINAW","SAGINAW","48602-2939","48602-2939","Saginaw","Ms.","Kristina Long","Kristina","Long","klong@sacschools.org","9897932811","9897938463","KG-Part, 1-8, Alt, GenEd, PK"
"St. Stephen School","740 GLADSTONE DR SE","740 GLADSTONE DR SE","GRAND RAPIDS","GRAND RAPIDS","49506-2821","49506-2821","East Grand Rapids","Ms.","Cynthia Thomas","Cynthia","Thomas","cindy@ststephenparish.com","6162438998",,"KG-Part, 1-8, GenEd, PK"
"St. Thecla Catholic School","20762 SOUTH NUNNELEY RD","20762 SOUTH NUNNELEY RD","CLINTON TOWNSHIP","CLINTON TOWNSHIP","48035-1628","48035-1628","Clintondale","Sr.","Mary Kathleen White","Mary Kathleen","White","srkathleen@stthecla.com","5867912170","5867912356","KG-Part, 1-8, GenEd"
"St. Therese Catholic School","430 SOUTH MAIN ST","430 SOUTH MAIN ST","WAYLAND","WAYLAND","49348-1316","49348-1316","Wayland Union","Mrs.","Jane Gee","Jane","Gee","sttprincipal@sbcglobal.net","2697922016","2697926778","KG-Part, 1-6, GenEd, PK"
"St. Thomas Aquinas School","2136 BERBEROVICH DR","2136 BERBEROVICH DR","SAGINAW","SAGINAW","48603-3603","48603-3603","Saginaw Township","Sr.","Ann de Guise","Ann","de Guise","jensprague1@yahoo.com","9897922361","9897920411","KG-Part, 1-8, GenEd, PK"
"St. Thomas Aquinas School","915 ALTON RD","915 ALTON RD","EAST LANSING","EAST LANSING","48823-2749","48823-2749","East Lansing","Mr.","Rod Murphy","Rod","Murphy","rmurphy@elcatholics.org","5173320813","5173517271","KG-Part, 1-8, GenEd, PK"
"St. Thomas Lutheran School","23801 KELLY RD","23801 KELLY RD","EASTPOINTE","EASTPOINTE","48021-3440","48021-3440","East Detroit","Mrs.","Jacqueline Sturgess","Jacqueline","Sturgess","schooloffice@stl-eastpointe.org","5867723372","5867726265","KG-Part, 1-8, GenEd, PK"
"St. Thomas More Academy","6456 EAST BRISTOL RD","6456 EAST BRISTOL RD","BURTON","BURTON","48519-1745","48519-1745","Davison","Mr.","Daniel LeBlanc","Daniel","LeBlanc","stma2003@sbcglobal.net","8107422411","8107424803","KG-Part, 1-12, GenEd"
"St. Thomas the Apostle School","1429 WILCOX PARK DR SE","1429 WILCOX PARK DR SE","GRAND RAPIDS","GRAND RAPIDS","49506-1753","49506-1753","Grand Rapids","Ms.","Suzanne Vander Zee","Suzanne","Vander Zee","svanderzee@stthomasgr.org","6164584228","6164584583","KG-Part, 1-8, GenEd, PK"
"St. Thomas the Apostle School","540 ELIZABETH ST","540 ELIZABETH ST","ANN ARBOR","ANN ARBOR","48104-1222","48104-1222","Ann Arbor","Mr.","Anthony Moskus","Anthony","Moskus","tmoskus@stthomasannarbor.org","7347690911","7347699078","KG-Part, 1-8, GenEd, PK"
"St. Valentine School","25875 HOPE","25875 HOPE","REDFORD","REDFORD","48239-3168","48239-3168","Redford Union","Mrs.","Rachel Damuth","Rachel","Damuth","rachel.damuth@stvalentine.pvt.k12.mi.us","3135337149","3135333060","KG-Part, 1-8, GenEd, PK"
"St. William Catholic School","135 OFLAHERTY ST","135 OFLAHERTY ST","WALLED LAKE","WALLED LAKE","48390-3431","48390-3431","Walled Lake","Mrs.","Linda Jackson","Linda","Jackson","ddarga@stwilliam.com","2486694440",,"KG-Part, 1-8, GenEd"
"Steppingstone Center for the Potentially Gifted","30250 GRAND RIVER AVE","30250 Grand River Ave","FARMINGTON HILLS","Farmington Hills","48336-4724","48336-4724","Farmington","Mrs.","Kiyo Morse","Kiyo","Morse","kiyo@steppingstoneschool.org","2485391666","2485391929","1-8, GenEd"
"Sturgis Christian School","70031 SOUTH LAKEVIEW ST","70031 SOUTH LAKEVIEW ST","STURGIS","STURGIS","49091-9578","49091-9578","Sturgis","Pastor","Kenneth Eash","Kenneth","Eash","sturgischristianschool@hotmail.com","2696511724","2696514777","KG-Part, 1-12, GenEd"
"Summers-Knoll School","2015 MANCHESTER RD","2015 MANCHESTER RD","ANN ARBOR","ANN ARBOR","48104-4917","48104-4917","Ann Arbor","Ms.","Joanna Hastings","Joanna","Hastings","jhastings@summers-knoll.org","7349717991","7349712018","KG-Part,1-5, GenEd"
"Sundai Michigan International Academy","24055 MEADOWBROOK RD","24055 MEADOWBROOK RD","NOVI","NOVI","48375-3456","48375-3456","Novi","Mr.","Hitoshi Otaka","Hitoshi","Otaka","otaka@sundai-kaigai.jp","2483495234","2483499488","KG, KG-Part, 1-9, GenEd"
"Tawheed Center of Detroit School","18624 WEST WARREN AVE","18624 WEST WARREN AVE","DETROIT","DETROIT","48228-3445","48228-3445","Detroit","Mr.","Zubair Chughtai","Zubair","Chughtai","tawzub@gmail.com","3132710731","3132710864","KG-Part,1-8, GenEd, PK"
"Temple of Faith Baptist School","9351 FORRER ST","9351 FORRER ST","DETROIT","DETROIT","48228-2115","48228-2115","Detroit","Ms.","Gloria Newton","Gloria","Newton","tofbaptist@aol.com","3138358889","3138360458","KG-Part,1-8, GenEd, PK"
"The International School","28555 MIDDLEBELT RD","28555 MIDDLEBELT RD","FARMINGTON HILLS","FARMINGTON HILLS","48334-4104","48334-4104","Farmington","Mr.","Jack Faxon","Jack","Faxon","office@theinternationalschool.org","2488517372","2488511454","KG-Part, 1-8, GenEd, PK"
"The New Millennium Academy","3427 Adams Ave.","3427 Adams Ave.","Saginaw","Saginaw","48602","48602","Saginaw","Rev.","Sandra Gonzales","Sandra","Gonzales","newmillennium@astromail.com","9894847363","9894014504","KG-Part,1-12, GenEd, PK"
"The Pathfinder School, Inc.","11930 SOUTH WEST BAY SHORE DR","11930 SOUTH WEST BAY SHORE DR","TRAVERSE CITY","TRAVERSE CITY","49684-5258","49684-5258","Traverse City","Mr.","Karl Sikkenga","Karl","Sikkenga","ksikkenga@thepathfinderschool.org","2319953800","2319953850","KG-Part, 1-8, GenEd, PK"
"Traverse Bay Christian School","1895 KEYSTONE RD N","1895 KEYSTONE RD N","TRAVERSE CITY","TRAVERSE CITY","49686-8101","49686-8101","Traverse City","Mr.","Jason Harding","Jason","Harding","jharding@traversebay.org","2319299504","2319294237","KG-Part, 1-6, GenEd"
"Traverse City Christian School","753 EMERSON RD","753 EMERSON RD","TRAVERSE CITY","TRAVERSE CITY","49686-8815","49686-8815","Traverse City","Mr.","Tony Clymer","Tony","Clymer","tclymer@tcsabres.org","2319291747","2319291831","KG-Part,1-12, GenEd, PK"
"Traverse City SDA School","2055B 4 MILE RD N","2055B 4 MILE RD N","TRAVERSE CITY","TRAVERSE CITY","49686-9144","49686-9144","Traverse City","Mr.","Steven Champion","Steven","Champion","schampionus@yahoo.com","2319474640","5173161559","1-8, GenEd"
"Tri-City SDA School","3955 KOCHVILLE RD","3955 KOCHVILLE RD","SAGINAW","SAGINAW","48604-9227","48604-9227","Saginaw","Ms.","Connie Hickman","Connie","Hickman","bdavis@misda.org","9897902508","5173161559","KG,1-8, GenEd"
"Trinitas Classical Association","1465 Three Mile Road, NW","1465 Three Mile Road, NW","Grand Rapids","Grand Rapids","49544","49544","Kenowa Hills","Mr.","Peter Marth","Peter","Marth","pmarth@trinitasclassical.org","6168556518","6168556962","KG-Part,1-8, GenEd"
"Trinity Ev Lutheran School","115 EAST MONROE ST","115 EAST MONROE ST","BANGOR","BANGOR","49013-1473","49013-1473","Bangor (Van Buren)","Mr.","Kevin Lemke","Kevin","Lemke","kev2021@yahoo.com","2694277102",,"KG-Part,1-8, GenEd, PK"
"Trinity Ev Lutheran School","2515 BROADWAY ST","2515 BROADWAY ST","BAY CITY","BAY CITY","48708-8401","48708-8401","Bay City","Mr.","Ryan Hill","Ryan","Hill","ryanrhill@sbcglobal.net","9898942092",,"KG-Part, 1-8, GenEd, PK, SpecEd"
"Trinity Lutheran Monitor","20 EAST SALZBURG RD","20 EAST SALZBURG RD","BAY CITY","BAY CITY","48706-9712","48706-9712","Bay City","Mrs.","Janet Pickelmann","Janet","Pickelmann","jpickelmann@trinitymonitor.org","9896624891","9896626173","KG-Part, 1-8, GenEd, PK"
"Trinity Lutheran School","315 SCOTT ST","315 SCOTT ST","MONROE","MONROE","48161-2132","48161-2132","Monroe","Ms.","Cindy Lucas","Cindy","Lucas","clucas@trinitylutheranmonroe.org","7342411160","7342416293","KG-Part, 1-8, GenEd, PK"
"Trinity Lutheran School","1003 SOUTH MAPLE ST","1003 SOUTH MAPLE ST","TRAVERSE CITY","TRAVERSE CITY","49684-4025","49684-4025","Traverse City","Mr.","Daniel Dockery","Daniel","Dockery","ddockery@tctrinity.org","2319462721","2319464796","KG-Part,1-8, GenEd, PK"
"Trinity Lutheran School","725 PINE ST","725 PINE ST","PAW PAW","PAW PAW","49079-1248","49079-1248","Paw Paw",,"Deanna Hindenack","Deanna","Hindenack","deanna.hindenach@lsportal.net","2696575921","2696573378","KG-Part, 1-8, GenEd, PK"
"Trinity Lutheran School","9858 NORTH ST","9858 NORTH ST","REESE","REESE","48757-9544","48757-9544","Reese","Ms.","Jane Dohrmann","Jane","Dohrmann","jane_dtrinity@yahoo.com","9898684501","9898683702","KG-Part, 1-8, GenEd, PK"
"Trinity Lutheran School","38900 HARPER AVE","38900 HARPER AVE","CLINTON TOWNSHIP","CLINTON TOWNSHIP","48036-3222","48036-3222","L'Anse Creuse","Mr.","Julian Petzold","Julian","Petzold","jpetzold@trinityct.org","5864688511","5864681226","KG-Part, 1-8, GenEd"
"Trinity Lutheran School","139 WEST CHURCH AVE","139 WEST CHURCH AVE","REED CITY","REED CITY","49677-1313","49677-1313","Reed City","Ms.","Sherry Prange","Sherry","Prange","ruma_sp@yahoo.com","2318325186","2318325186","KG-Part, 1-8, GenEd, PK"
"Trinity Lutheran School","1517 10TH ST","1517 10TH ST","PORT HURON","PORT HURON","48060-5814","48060-5814","Port Huron","Ms.","Heather Volkman","Heather","Volkman","school@tlc1.org","8109842501","8109823906","KG-Part, 1-8, GenEd, PK"
"Trinity Lutheran School","1401 HARDING ST","1401 HARDING ST","CONKLIN","CONKLIN","49403-8716","49403-8716","Sparta","Mr.","Ivan Beethe","Ivan","Beethe","school@trinitylutheranconklin.org","6168992152","6168991112","KG-Part, 1-5, GenEd, PK"
"Trinity Lutheran School","45160 VAN DYKE AVE","45160 VAN DYKE AVE","UTICA","UTICA","48317-5578","48317-5578","Utica","Mr.","Thomas Wrege","Thomas","Wrege","schooloffice@trinityutica.com","5867314490","5867314490","KG-Part, 1-8, GenEd, PK"
"Trinity Lutheran School","4900 MCCAIN RD","4900 MCCAIN RD","JACKSON","JACKSON","49201-8959","49201-8959","Western","Mr.","Lee Erfourth","Lee","Erfourth","teacherlee@modempool.com","5177876828","5177509945","KG-Part, 1-8, GenEd, PK"
"Trinity Lutheran School","613 COURT ST","613 COURT ST","SAINT JOSEPH","SAINT JOSEPH","49085-1305","49085-1305","St. Joseph","Mr.","Todd Baringer","Todd","Baringer","todd.baringer@discovertrinity.org","2699833056","2699830037","KG-Part, 1-8, GenEd, PK"
"Trinity Lutheran School","420 OAK ST","420 OAK ST","MANISTEE","MANISTEE","49660-1623","49660-1623","Manistee","Mr.","David Moehring","David","Moehring","trinityk8@jackpine.net","2317238700","2317239755","KG-Part, 1-8, GenEd, PK"
"Trinity Lutheran School","406 SOUTH LAKEVIEW AVE","406 SOUTH LAKEVIEW AVE","STURGIS","STURGIS","49091-1953","49091-1953","Sturgis","Mr.","Paul Kosman","Paul","Kosman","trinityl@kresanet.org","2696514245","2696511422","KG-Part, 1-8, GenEd, PK"
"Trinity Lutheran School","9123 GEORGE AVE","9123 GEORGE AVE","BERRIEN SPRINGS","BERRIEN SPRINGS","49103-1622","49103-1622","Berrien Springs","Mrs.","Deborah Wedde","Deborah","Wedde","trucks3904@cs.com","2694731811","2694732322","KG-Part, 1-8, GenEd, PK"
"Tri-Unity Christian High School","2104 44TH ST SW","2104 44TH ST SW","WYOMING","WYOMING","49519-4255","49519-4255","Grandville","Ms.","Debra Blanker","Debra","Blanker","dblanker@tucs.org","6165326766","6165306384","7-12, GenEd"
"Tri-Unity Christian Lower Elementary School","5353 WILSON AVE SW","5381 Wilson Ave SW","WYOMING","Wyoming","49418-9703","49418","Grandville","Ms.","Deb Blanker","Deb","Blanker","debb@tucs.org","6165328827","6165328827","KG-Part,1-2, GenEd,PK"
"Tri-Unity Christian Upper Elementary/Middle School","2222 44TH ST SW","2222 44TH ST SW","WYOMING","WYOMING","49519-4257","49519-4257","Grandville","Ms.","Debra Blanker","Debra","Blanker","tcs@tucs.org","6165326310","6165306384","3-8, GenEd"
"Troy Adventist Academy","2777 CROOKS RD","2777 CROOKS RD","TROY","TROY","48084-4705","48084-4705","Troy","Ms.","Rosemary Avila","Rosemary","Avila","bdavis@misda.org","2486493122","5173161559","KG-Part, 1-8, GenEd"
"United Christian School","29205 FLORENCE ST","29205 FLORENCE ST","GARDEN CITY","GARDEN CITY","48135-2744","48135-2744","Garden City","Rev.","Dan Reaves","Dan","Reaves","reaves_dan@yahoo.com","7345226487",,"KG-Part, 1-12, GenEd"
"Unity Christian High School","3487 OAK ST","3487 OAK ST","HUDSONVILLE","HUDSONVILLE","49426-1005","49426-1005","Hudsonville","Mr.","Jack Postma","Jack","Postma","jpostma@unitychristian.org","6166691820","6166695760","9-12, GenEd"
"University of Detroit Jesuit","8400 SOUTH CAMBRIDGE AVE","8400 SOUTH CAMBRIDGE AVE","DETROIT","DETROIT","48221-1603","48221-1603","Detroit","Mr.","Anthony Trudel","Anthony","Trudel","anthony.trudel@uofdjesuit.org","3139272331",,"7-12, GenEd"
"University School-Andrews Academy","8833 Garland Ave","8833 GARLAND AVE","Berrien Springs","BERRIEN SPRINGS","49104-1313","49104-1313","Berrien Springs","Mr.","Robert Overstreet","Robert","Overstreet","bdavis@misda.org","2694713138","5173161559","9-12, GenEd"
"University-Liggett School","1045 COOK RD","1045 COOK RD","GROSSE POINTE WOODS","GROSSE POINTE WOODS","48236-2509","48236-2509","Grosse Pointe","Dr.","Joseph Healey","Joseph","Healey","jhealey@uls.org","3138844444","3138841775","KG-Part, 1-12, GenEd, PK"
"Upland Hills School","2575 INDIAN LAKE RD","2575 INDIAN LAKE RD","OXFORD","OXFORD","48370-3111","48370-3111","Lake Orion","Ms.","Terry Gardner","Terry","Gardner","info@uplandhills.org","2486932878","2486934317","KG-Part, 1-8, GenEd, PK"
"Valley Lutheran High School","3560 MCCARTY RD","3560 MCCARTY RD","SAGINAW","SAGINAW","48603-2239","48603-2239","Saginaw Township","Mr.","John Brandt","John","Brandt","jbrandt@vlhs.com","9897901676","9897901680","9-12, GenEd"
"Veritas Christi High School","410 S. Maple Road","410 S. Maple Road","Ann Arbor","Ann Arbor","48103","48103","Ann Arbor","Mr.","Richard Nye","Richard","Nye","rnye@veritaschristi.com","7342131300",,"9-10"
"Village SDA Elementary School","409 WEST MARS ST","409 WEST MARS ST","BERRIEN SPRINGS","BERRIEN SPRINGS","49103-1172","49103-1172","Berrien Springs","Ms.","Wendy Baldwin","Wendy","Baldwin","bdavis@misda.org","2694735121","5173161559","KG-Part, 1-8, GenEd, PK"
"Vineyard Academy","8510 M-89, PO Box 102","8510 M-89","Richland","RICHLAND","49083-9575","49083-8205","Gull Lake","Mrs.","Carrie Jewett","Carrie","Jewett","adminstration@vineyardacademy.org","2696238652","2696297246","KG-Part,1-9, GenEd, PK"
"Waldorf School Assn. of Michigan","2555 BURNS ST","2555 BURNS ST","DETROIT","DETROIT","48214-1864","48214-1864","Detroit","Ms.","Linda Brooks","Linda","Brooks","administration@detroitwaldorf.org","3138220300","3138224030","KG-Part, 1-8, GenEd, PK"
"Walnut Corner School","7634 W KINSEL HWY","7655 WEST KINSEL HWY","VERMONTVILLE","VERMONTVILLE","49096-9540","49096-9540","Maple Valley","Mr.","Jerry Mast","Jerry","Mast","none@none.com","5177261393",,"1-8, GenEd"
"Warren SDA Junior Academy","12100 EAST 13 MILE RD","12100 EAST 13 MILE RD","WARREN","WARREN","48093-3025","48093-3025","Warren Consolidated","Ms.","Karen Gotshall","Karen","Gotshall","bdavis@misda.org","5865734740","5173161559","1-8, GenEd"
"Warren Woods Christian School","14000 EAST 13 MILE RD","14000 EAST 13 MILE RD","WARREN","WARREN","48088-5877","48088-5877","Warren Woods","Ms.","Beth Denhart","Beth","Denhart","bdenhart@wwchristianschool.org","5867728787","5867729078","KG-Part, 1-8, GenEd"
"Washtenaw Christian Academy","7200 MOON RD","7200 MOON RD","SALINE","SALINE","48176-9826","48176-9826","Saline","Mr.","Mark Wever","Mark","Wever","mwever@washtenawchristian.org","7344297733","7349448343","KG-Part, 1-12, GenEd, PK"
"Waterbrook Christian Academy","8031 E. Court Street","8031 E. Court Street","Davison","Davison","48423","48423","Davison","Mr.","Dean Bowen","Dean","Bowen","dbowen@waterbrookca.org","8106539701","8104125700","KG,1-9, GenEd, PK"
"Waterford Adventist School","5725 PONTIAC LAKE RD","5725 PONTIAC LAKE RD","WATERFORD","WATERFORD","48327-2116","48327-2116","Waterford","Ms.","Frances Robinson","Frances","Robinson","bdavis@misda.org","2486826262","5173161559","1-8, GenEd"
"West Catholic High School","1801 BRISTOL AVE NW","1801 BRISTOL AVE NW","GRAND RAPIDS","GRAND RAPIDS","49504-2705","49504-2705","Grand Rapids","Ms.","Cynthia Kneibel","Cynthia","Kneibel","cynthiakneibel@grcss.org","6162335900","6164534320","9-12, GenEd"
"West Highland Christian Academy","1116 SOUTH HICKORY RIDGE RD","1116 SOUTH HICKORY RIDGE RD","MILFORD","MILFORD","48380-1510","48380-1510","Huron Valley","Mrs.","Jan Grimm","Jan","Grimm","whca.k12@gmail.com","2488876698","2488874645","KG-Part, 1-12, GenEd"
"West Michigan Lutheran High School","601 36TH ST SW","601 36th Street SW","WYOMING","Wyoming","49509-4094","49509","Godwin Heights","Mr.","Dwight Anderson","Dwight","Anderson","danderson@wmlhs.org","6164552200","6164552211","9-12, GenEd"
"West Shore Lutheran School","3225 ROOSEVELT RD","3225 ROOSEVELT RD","MUSKEGON","MUSKEGON","49441-3909","49441-3909","Mona Shores","Mr.","Brad Feenstra","Brad","Feenstra","brad04_92@yahoo.com","2317551048","2317556942","KG-Part, 1-8, GenEd, PK"
"West Side Christian School","955 WESTEND AVE NW","955 WESTEND AVE NW","GRAND RAPIDS","GRAND RAPIDS","49504-3846","49504-3846","Grand Rapids","Mr.","Vernon Groenendyk","Vernon","Groenendyk","vgroenendyk@wscsgr.org","6164533925","6164534150","KG-Part, 1-8, GenEd, PK"
"Western Michigan Christian High School","455 EAST ELLIS RD","455 EAST ELLIS RD","MUSKEGON","MUSKEGON","49441-5617","49441-5617","Mona Shores","Mr.","Doug Doty","Doug","Doty","wmc@wmchs.net","2317999644","6164038163","9-12, GenEd"
"Westland Christian Academy","34033 PALMER RD","34033 PALMER RD","WESTLAND","WESTLAND","48186-4680","48186-4680","Wayne-Westland","Ms.","Laura Enersen","Laura","Enersen","westlandchracad@aol.com","7343263581","7343263352","3-12, GenEd"
"Willis Baptist Academy","8687 BUNTON RD","8687 Bunton Rd","WILLIS","Willis","48191-9740","48191-9740","Lincoln","Mr.","Timothy Johnson","Timothy","Johnson","mitjohnson@comcast.net","7344612115","7344612564","KG-Part,1-4,6,8-10, GenEd"
"Wilson SDA School","N13925 COUNTY ROAD 551","13925 COUNTY ROAD 551","WILSON","WILSON","49896-9765","49896","Carney-Nadeau","Principal","Casey Hann","Casey","Hann","bdavis@misda.org","9066392566","5173161559","1-8, GenEd"
"Woodland SDA School","128 EAST BARNHART RD","128 EAST BARNHART RD","COLDWATER","COLDWATER","49036-9209","49036-9209","Coldwater","Mrs.","Catherine Buell","Catherine","Buell","bdavis@misda.org","5172784650","5173161559","1-7, 10, GenEd"
"Yeshiva Beth Yehudah School","15751 LINCOLN DR","15751 LINCOLN DR","SOUTHFIELD","SOUTHFIELD","48076-7215","48076-7215","Southfield","Mrs.","Susan Colbert","Susan","Colbert","boys@yby.org","2485579380",,"1-8, GenEd, PK"
"Yeshivah Gedolah High School","24600 GREENFIELD RD","24600 GREENFIELD RD","OAK PARK","OAK PARK","48237-1544","48237-1544","Oak Park","Rabbi","Paul Rushnawitz","Paul","Rushnawitz","dkossowsky@gmail.com","2489683360","2489688613","9-12, GenEd"
"Yeshivas Darchei Torah","21550 WEST 12 MILE RD","21550 WEST 12 MILE RD","SOUTHFIELD","SOUTHFIELD","48076-5501","48076-5501","Southfield","Ms.","Sharon Kahn","Sharon","Kahn","ydtghs@gmail.com","2489481080","2487500079","KG-Part, 1-12, GenEd, PK"
"Zeeland Christian School","334 WEST CENTRAL AVE","334 WEST CENTRAL AVE","ZEELAND","ZEELAND","49464-1502","49464-1502","Zeeland","Mr.","William Van Dyk","William","Van Dyk","brininge@zcs.org","6167722609","6167722609","KG-Part, 1-8, GenEd, PK, SpecEd"
"Zion Christian School","7555 BYRON CENTER AVE SW","7555 BYRON CENTER AVE SW","BYRON CENTER","BYRON CENTER","49315-8953","49315-8953","Byron Center","Mr.","Jason Heerema","Jason","Heerema","office@zionchristian.net","6168789472",,"KG-Part, 1-12, GenEd, PK"
"Zion Evangelical Lutheran School","796 HAMPTON ST","796 HAMPTON ST","CHESANING","CHESANING","48616-1622","48616-1622","Chesaning Union",,"Lisa Borucki","Lisa","Borucki","tigerpaws@charterinternet.com","9898452377",,"KG-Part, 1-8, GenEd, PK, SpecEd"
"Zion Lutheran Beaver School","1557 SEIDLERS RD","1557 SEIDLERS RD","AUBURN","AUBURN","48611-9732","48611-9732","Bay City","Mr.","Kevin Meyer","Kevin","Meyer","kmeyer@hbci.com","9896624264","9896627052","KG-Part, 1-8, GenEd"
"Zion Lutheran School","1707 SOUTH KIESEL ST","1707 SOUTH KIESEL ST","BAY CITY","BAY CITY","48706-5241","48706-5241","Bay City","Ms.","Janet LaRocque","Janet","LaRocque","jelarocque@zionlth.org","9898935793","9898934633","KG-Part, 1-8, GenEd, PK"
"Zion Lutheran School","299 GARDEN ST","299 GARDEN ST","HARBOR BEACH","HARBOR BEACH","48441-1118","48441-1118","Harbor Beach","Mrs.","Cynthia Brown","Cynthia","Brown","principal@zionlcs.com","9894793615","9894796551","KG-Part, 1-8, GenEd, PK"
"Zion Lutheran School","186 COLE RD","186 COLE RD","MONROE","MONROE","48162-4104","48162-4104","Monroe","Mr.","Samuel Kleinke","Samuel","Kleinke","skleinke@zionmonroe.org","7342421378",,"KG-Part, 1-8, GenEd, PK"
