"ADMINISTRATOR","NAME","CITY","ADDRESS1","STATE","ZIP","PHONE","FAX","COUNTY","Name","Email"
"ADMINISTRATOR","ST CECILIA HIGH SCHOOL","HASTINGS","521 N KANSAS","NE","68901-7594","(402)462-2105","(402)462-2106","ADAMS","Lee Jirovsky","Fr.Lee-Jirovsky@cdolinc.net"
"ADMINISTRATOR","ST CECILIA MIDDLE SCHOOL","HASTINGS","521 N KANSAS","NE","68901-7594","(402)462-2105","(402)462-2106","ADAMS","Lee Jirovsky","Fr.Lee-Jirovsky@cdolinc.net"
"ADMINISTRATOR","CHRIST LUTHERAN ELEMENTARY SCH","JUNIATA","13175 W 70TH ST","NE","68955-2138","(402)744-4991","(402)744-4971","ADAMS","Jim House","jhouse@christjuniata.org"
"ADMINISTRATOR","ST MICHAEL ELEMENTARY SCHOOL","HASTINGS","721 CREIGHTON AVE","NE","68901-7594","(402)462-6310","(402)462-6035","ADAMS","Hedwig Kortte","Sr.Hedwig-Kortte@cdolinc.net"
"ADMINISTRATOR","ST BONIFACE ELEMENTARY SCHOOL","ELGIN",,"NE","68636-0433","(402)843-5460","(402)843-5842","ANTELOPE","Betty Getzfred","bgetzfre@esu8.org"
"ADMINISTRATOR","POPE JOHN XXIII HIGH SCHOOL","ELGIN","303 REMINGTON ST","NE","68636-0179","(402)843-5325","(402)843-2297","ANTELOPE","Betty Getzfred","bgetzfre@esu8.org"
"ADMINISTRATOR","ST AGNES ACADEMY","ALLIANCE","1104 CHEYENNE","NE","69301-2527","(308)762-2315","(308)762-7474","BOX BUTTE","Theresa Parker ","tparker@stagnesacademy.com"
"ADMINISTRATOR","KEARNEY CATHOLIC HIGH SCHOOL","KEARNEY",,"NE","68848-1866","(308)234-2610","(308)234-4986","BUFFALO","Dave Cantral","kchsf@frontiernet.net"
"ADMINISTRATOR","ZION LUTHERAN ELEMENTARY SCH","KEARNEY","2421 AVE C","NE","68847-0778","(308)234-3410","(308)236-8100","BUFFALO","Anthony Splittgerber","principal@zelcs.org"
"ADMINISTRATOR","FAITH CHRISTIAN ELEM/KEARNEY","KEARNEY",,"NE","68848-3048","(308)236-8744",,"BUFFALO","Titus Staples","tstaples@fcskearney.org"
"ADMINISTRATOR","ST MARY'S ELEMENTARY SCHOOL","DAVID CITY","1026 5TH ST","NE","68632-1299","(402)367-3669","(402)367-3703","BUTLER","Carm Fiala","cfiala@esu7.org"
"ADMINISTRATOR","AQUINAS MIDDLE SCHOOL","DAVID CITY","3420 MN ROAD","NE","68632-0149","(402)367-3175","(402)367-3176","BUTLER","Carm Fiala","cfiala@esu7.org"
"ADMINISTRATOR","AQUINAS HIGH SCHOOL","DAVID CITY","3420 MN ROAD","NE","68632-0149","(402)367-3175","(402)367-3176","BUTLER","David G. McMahon","dmcmaho@esu7.org"
"ADMINISTRATOR","WEST CATHOLIC ELEMENTARY SCH","FORDYCE","303 OMAHA ST","NE","68736-0167","(402)357-3507","(402)357-3551","CEDAR","Marilyn Wiebelhaus","mkwiebelhaus@archomaha.org"
"ADMINISTRATOR","HOLY TRINITY ELEMENTARY SCHOOL","HARTINGTON","502 S BROADWAY","NE","68739-0278","(402)254-6496","(402)254-3976","CEDAR","Terry Kathol","tkathol@esu1.org"
"ADMINISTRATOR","CEDAR CATHOLIC HIGH SCHOOL","HARTINGTON","401 S BROADWAY","NE","68739-0015","(402)254-3906","(402)254-3976","CEDAR","Terry Kathol","tkathol@esu1.org"
"ADMINISTRATOR","ZION LUTHERAN ELEMENTARY SCH","VALENTINE","224 N GOVERNMENT ST","NE","69201-1924","(402)376-2745","(402)376-2720","CHERRY","Matthew Krenke","zionvalentine@msn.com"
"ADMINISTRATOR","GUARDIAN ANGELS ELEMENTARY SCH","WEST POINT","408 E WALNUT ST","NE","68788-1598","(402)372-5328","(402)372-3563","CUMING","Matthew Richardson","info@gacatholicschool.org"
"ADMINISTRATOR","WESTPOINT CENTRAL CATHOLIC HS","WEST POINT","419 E DECATUR","NE","68788-1597","(402)372-5326","(402)372-5327","CUMING","Matthew Richardson","mrichardson@gaccbluejays.org"
"ADMINISTRATOR","ST PAUL LUTHERAN ELEM SCHOOL","WEST POINT","325 N COLFAX","NE","68788-1426","(402)372-2355","(402)372-2742","CUMING","Kari Penrose","stpaulschool@q.com"
"ADMINISTRATOR","PRAIRIE VIEW S D A SCHOOL","CHADRON","602 BORDEAUX ST","NE","69337-2611","(308)432-4228","(308)432-6517","DAWES","Carlene Lang","pvas@bbc.net"
"ADMINISTRATOR","ST WENCESLAUS ELEM SCHOOL","DODGE","212 N LINDEN ST","NE","68633-3519","(402)693-2819","(402)693-2819","DODGE","Carol Ortmeier","clortmeier@archomaha.org"
"ADMINISTRATOR","ARCHBISHOP BERGAN ELEMENTARY","FREMONT","1515 N JOHNSON ROAD","NE","68025-5105","(402)721-9766","(402)721-1180","DODGE","Ron Beacom","ronbeacom@yahoo.com"
"ADMINISTRATOR","ARCHBISHOP BERGAN HIGH SCH","FREMONT","545 E 4TH ST","NE","68025-5105","(402)721-9683","(402)721-5366","DODGE","Ron Beacom","ronbeacom@yahoo.com"
"ADMINISTRATOR","ARCHBISHOP BERGAN MIDDLE SCH","FREMONT","545 E 4TH ST","NE","68025-5105","(402)721-9683","(402)721-5366","DODGE","Ron Beacom","ronbeacom@yahoo.com"
"ADMINISTRATOR","LEGACY PRIMARY SCHOOL","OMAHA","2207 N 168TH AVENUE","NE","-68116","(402)884-2242","(402)884-2230","DOUGLAS","Buffy Baca ","bacab@legacyprimary.com"
"ADMINISTRATOR","MADONNA SCHOOL","OMAHA","6402 N 71ST PLAZA","NE","68104-4615","(402)556-1883","(402)556-7332","DOUGLAS","Bill Goodwin","bgoodwin@madonnaschool.org"
"ADMINISTRATOR","ST JAMES-SETON ELEMENTARY SCH","OMAHA","4720 N 90TH STREET","NE","68134-2796","(402)572-0339","(402)572-0347","DOUGLAS","Mrs. Arnold","carnold@sjsomaha.org"
"ADMINISTRATOR","RONCALLI CATHOLIC HIGH SCHOOL","OMAHA","6401 SORENSEN PARKWAY","NE","68152-2241","(402)571-7670","(402)571-3216","DOUGLAS","Chad Holtz","choltz@roncallicatholic.org"
"ADMINISTRATOR","ST GERALD ELEMENTARY SCHOOL","RALSTON","7857 LAKEVIEW ST","NE","68127-2832","(402)331-4223","(402)331-4523","DOUGLAS","Dave Garland","dgarland@stgerald.org"
"ADMINISTRATOR","MT MICHAEL BENEDICTINE H S","ELKHORN","22520 MT MICHAEL RD","NE","68022-3400","(402)289-2541","(402)289-4539","DOUGLAS","David Peters","dpeters@mountmichael.org"
"ADMINISTRATOR","BLAIR CHRISTIAN ACADEMY","BLAIR","13121 COUNTY ROAD 16","NE","-68006","(402)399-9565","(402)399-0248","DOUGLAS","Della Blair","dr.blair@blairchristianacademy.org"
"ADMINISTRATOR","GOOD SHEPHERD ELEMENTARY SCH","OMAHA","5071 CENTER","NE","68106-3155","(402)553-6760",,"DOUGLAS","Ben Leibl","goodshepherd@cox.net"
"ADMINISTRATOR","ST WENCESLAUS SCHOOL","OMAHA","15353 PACIFIC","NE","68154-2871","(402)330-4356","(402)884-4417","DOUGLAS","William Huben","hubenw@stwenceslaus.org"
"ADMINISTRATOR","MERCY HIGH SCHOOL","OMAHA","1501 S 48TH ST","NE","68106-2504","(402)553-9424","(402)553-0394","DOUGLAS","Carolyn Jaworski","jaworskic@mercyhigh.org"
"ADMINISTRATOR","SKUTT CATHOLIC HIGH SCHOOL","OMAHA","3131 S 156TH ST","NE","68130-1907","(402)333-0818","(402)333-1790","DOUGLAS","Jon Burt ","jjburt@schools.archomaha.org"
"ADMINISTRATOR","THE JESUIT ACADEMY","OMAHA","2311 N 22ND ST","NE","68110-2207","(402)346-4464","(402)341-1817","DOUGLAS","Troy Wharton","jmsprincipal@jesuitmso.org"
"ADMINISTRATOR","CREIGHTON PREPARATORY SCHOOL","OMAHA","7400 WESTERN AVE","NE","68114-1878","(402)393-1190","(402)343-1889","DOUGLAS","John Naatz","jnaat@prep.creighton.edu"
"ADMINISTRATOR","ST PIUS X / ST LEO ELEMENTARY","OMAHA","6905 BLONDO ST","NE","68104-4600","(402)551-6667","(402)551-8123","DOUGLAS","Joyce Gubbels","joyce.gubbels@spsl.net"
"ADMINISTRATOR","OMAHA STREET SCHOOL","OMAHA","3223 NORTH 45TH ST","NE","68104-0000","(402)451-5234","(402)451-7048","DOUGLAS","John Parsons","jparsons@omahastreetschool.org"
"ADMINISTRATOR","MARY OUR QUEEN ELEM SCHOOL","OMAHA","3405 S 119TH ST","NE","68144-4631","(402)333-8663","(402)334-3948","DOUGLAS","Lisa Nelson","l.nelson@maryourqueen.omhcoxmail.com"
"ADMINISTRATOR","LIFEGATE CHRISTIAN SCHOOL","OMAHA","15555 WEST DODGE RD","NE","68154-2099","(402)333-5153","(402)758-6980","DOUGLAS","Mr. York","lcsoffice@lcsomaha.org"
"ADMINISTRATOR","DUCHESNE ACADEMY","OMAHA","3601 BURT","NE","68131-1999","(402)558-3800","(402)558-0051","DOUGLAS","Laura Hickman","lhickman@duchesneacademy.org"
"ADMINISTRATOR","ST VINCENT DE PAUL ELEMENTARY","OMAHA","14330 EAGLE RUN DR","NE","68164-5425","(402)492-2111","(402)496-9933","DOUGLAS","Barbara Marchese","marcheseb@svdpomaha.org"
"ADMINISTRATOR","ALL SAINTS CATHOLIC SCHOOL","OMAHA","1335 S 10TH ST","NE","68108-3603","(402)346-5757","(402)346-8794","DOUGLAS","Marlan Burki","marlanburki@yahoo.com"
"ADMINISTRATOR","ST BERNARD ELEMENTARY SCHOOL","OMAHA","3604 N 65TH ST","NE","68104-3218","(402)553-4993","(402)551-4939","DOUGLAS","James Daro, Jr.","mr.daro93@yahoo.com"
"ADMINISTRATOR","HOLY CROSS CATHOLIC SCHOOL","OMAHA","1502 S 48TH ST","NE","68106-2599","(402)551-3773","(402)556-1896","DOUGLAS","Chris Nelson","nelson@holycrossomaha.org"
"ADMINISTRATOR","OMAHA CHRISTIAN ELEMENTARY","OMAHA","10244 WIESMAN DRIVE","NE","-68134","(402)399-9565","(402)399-0248","DOUGLAS","Amy Nylin","office@ocamail.org"
"ADMINISTRATOR","OMAHA CHRISTIAN HIGH SCHOOL","OMAHA","10244 WIESMAN DRIVE","NE","-68134","(402)399-9565","(402)399-0248","DOUGLAS","Amy Nylin","office@ocamail.org"
"ADMINISTRATOR","OMAHA CHIRISTIAN MIDDLE SCHOOL","OMAHA","10244 WIESMAN DRIVE","NE","-68134","(402)399-9565","(402)399-0248","DOUGLAS","Amy Nylin","office@ocamail.org"
"ADMINISTRATOR","STS PETER & PAUL ELEM SCHOOL","OMAHA","3619 X ST","NE","68107-3247","(402)731-4713","(402)731-2633","DOUGLAS","Trish Wallinger","pawallinger@schools.archomaha.org"
"ADMINISTRATOR","ST MARGARET MARY ELEM SCHOOL","OMAHA","123 N 61ST ST","NE","68132-2196","(402)551-6663","(402)551-5631","DOUGLAS","Peggy Grennan","pgrennan@smmomaha.org"
"ADMINISTRATOR","ST STANISLAUS ELEM SCHOOL","OMAHA","4501 S 41ST ST","NE","68107-1199","(402)731-0484","(402)733-4898","DOUGLAS","Richard Leimbach","principal@ststansomaha.org"
"ADMINISTRATOR","ST CECILIA CATHEDRAL ELEM","OMAHA","3869 WEBSTER ST","NE","68131-1899","(402)556-6655","(402)502-3048","DOUGLAS","Paulette Rourke","prourke@stcecilia.net"
"ADMINISTRATOR","ST STEPHEN THE MARTYR SCHOOL","OMAHA","16701 S ST","NE","68135-2309","(402)896-0754","(402)861-4640","DOUGLAS","Roseanne Williby","R.Williby@stephen.org"
"ADMINISTRATOR","CONCORDIA JR/SR HIGH SCHOOL","OMAHA","15656 FORT ST","NE","68116-3201","(402)445-4000","(402)965-9310","DOUGLAS","Dean Raabe","raabed@concordiaomaha.org"
"ADMINISTRATOR","ST PATRICK'S CATHOLIC ELEM SCH","ELKHORN","20500 W MAPLE","NE","68022-0010","(402)289-5407","(402)763-9530","DOUGLAS","Don Ridder","ridderd@stpatselkhorn.org"
"ADMINISTRATOR","ST THOMAS MORE ELEM SCHOOL","OMAHA","3515 S 48TH AVE","NE","68106-4532","(402)551-9504","(402)551-9507","DOUGLAS","Ryan P. Lewis","rplewis@archomaha.org"
"ADMINISTRATOR","ST JOAN OF ARC ELEMENTARY SCH","OMAHA","7430 HASCALL","NE","68124-3499","(402)393-2314","(402)393-4405","DOUGLAS","Renee Young","ryoung@sjaomaha.org"
"ADMINISTRATOR","SACRED HEART ELEMENTARY SCHOOL","OMAHA","2205 BINNEY STREET","NE","68110-2037","(402)455-5858","(402)451-7480","DOUGLAS","Katie Barmettler","sacredheart@sacredheart-cues.org"
"ADMINISTRATOR","CHRIST THE KING CATHOLIC SCH","OMAHA","831 S 88TH ST","NE","68114-4200","(402)391-0977","(402)391-2418","DOUGLAS","Chris Segrell","segrellc@ctkomaha.org"
"ADMINISTRATOR","HOLY NAME ELEMENTARY SCHOOL","OMAHA","2901 FONTENELLE BLVD","NE","68104-4501","(402)451-5403","(402)453-7950","DOUGLAS","Sofie Kock","skock@novia.net"
"ADMINISTRATOR","BROWNELL TALBOT HIGH SCHOOL","OMAHA","400 N HAPPY HOLLOW BLVD","NE","68132-2198","(402)556-3772","(402)553-2994","DOUGLAS","SYLVIA RODRÍGUEZ VARGAS","srvargas@brownell.edu"
"ADMINISTRATOR","BROWNELL TALBOT MIDDLE SCHOOL","OMAHA","400 N HAPPY HOLLOW BLVD","NE","68132-2198","(402)556-3772","(402)553-2994","DOUGLAS","SYLVIA RODRÍGUEZ VARGAS","srvargas@brownell.edu"
"ADMINISTRATOR","BROWNELL TALBOT PRIMARY SCHOOL","OMAHA","400 N HAPPY HOLLOW BLVD","NE","68132-2198","(402)556-3772","(402)553-2994","DOUGLAS","SYLVIA RODRÍGUEZ VARGAS","srvargas@brownell.edu"
"ADMINISTRATOR","ST ROBERT BELLARMINE ELEM","OMAHA","11900 PACIFIC ST","NE","68154-3469","(402)334-1929","(402)333-7188","DOUGLAS","Sandra Suiter ","ssuiter@stroberts.com"
"ADMINISTRATOR","BOYS TOWN HIGH SCHOOL","BOYS TOWN","13803 FLANAGAN BLVD","NE","68010-0703","(402)498-1853","(402)498-3246","DOUGLAS","Steven E. Boes","steven.boes@boystown.org"
"ADMINISTRATOR","MARIAN HIGH SCHOOL","OMAHA","7400 MILITARY","NE","68134-3398","(402)571-2618","(402)571-1952","DOUGLAS","Susan Toohey","stoohey@omahamarian.org"
"ADMINISTRATOR","ST PHILIP NERI ELEM SCHOOL","OMAHA","8202 N 31ST ST","NE","68112-2204","(402)455-8666","(402)453-3620","DOUGLAS","Terri Anderson ","tlanderson@schools.archomaha.org"
"ADMINISTRATOR","OUR LADY OF LOURDES ELEM SCH","OMAHA","2124 S 32ND AVE","NE","68105-3198","(402)341-5604","(402)341-9957","DOUGLAS","William Kelly","wbkelly@omahaourladyoflourdes.com"
"ADMINISTRATOR","ST JOSEPH ELEMENTARY SCHOOL","BEATRICE","420 N 6TH ST","NE","68310-2999","(402)223-5033",,"GAGE","Steve Major","rectory-office@cdolinc.net"
"ADMINISTRATOR","ST PAUL'S LUTHERAN ELEM SCHOOL","BEATRICE","930 PRAIRIE LANE ST","NE","68310-2647","(402)223-3414","(402)223-3418","GAGE","Lonnie Duensing","stpaulschoolbeatrice@yahoo.com"
"ADMINISTRATOR","HEARTLAND LUTHERAN HIGH SCHOOL","GRAND ISLAND","3900 W HUSKER HWY","NE","68803-6001","(308)385-3900","(308)381-7415","HALL","Kurt Busskohl","administrator@heartlandlutheran.org"
"ADMINISTRATOR","PLATTE VALLEY ELEMENTARY","GRAND ISLAND","636 S SHADY BEND RD","NE","-68801","(308)382-3281",,"HALL","Dennis Berlin","iam@dennisberlin.com"
"ADMINISTRATOR","TRINITY LUTHERAN ELEM SCHOOL","GRAND ISLAND","208 W 13TH ST","NE","68801-3881","(308)382-5274","(308)389-2418","HALL","Sandy Armstrong","sandy@kdsi.net"
"ADMINISTRATOR","GRAND ISLAND CHRISTIAN SCHOOL","GRAND ISLAND","1804 W STATE ST","NE","68803-2716","(308)384-2755","(308)389-3286","HALL","Stephen Morris","smorris@gichristian.org"
"ADMINISTRATOR","CENTRAL CATHOLIC HIGH SCHOOL","GRAND ISLAND","1200 RUBY AVE","NE","68803-3746","(308)384-2440","(308)389-3274","HALL","Steve Osborn","steve.osborn@esu10.org"
"ADMINISTRATOR","CENTRAL CATHOLIC MIDDLE SCHOOL","GRAND ISLAND","1200 RUBY AVE","NE","68803-3746","(308)384-2440","(308)389-3274","HALL","Steve Osborn","steve.osborn@esu10.org"
"ADMINISTRATOR","HAMPTON LUTHERAN ELEM SCHOOL","HAMPTON","732 N 3RD ST","NE","68843-9243","(402)725-3347","(402)725-3341","HAMILTON","Kathy Gloystein","gloystein@mainstaycomm.net"
"ADMINISTRATOR","IMMANUEL LUTHERAN ELEM SCHOOL","POLK","2406 E 26TH RD","NE","68654-1702","(402)765-7253","(402)765-7253","HAMILTON","Lisa Lenz","ilspolk@windstream.net"
"ADMINISTRATOR","ST MARY'S HIGH SCHOOL","O'NEILL","300 N 4TH ST","NE","68763-1520","(402)336-4455","(402)336-1281","HOLT","Walter Dupre","wdupre@esu8.org"
"ADMINISTRATOR","ST MARY'S ELEMENTARY SCHOOL","O'NEILL","326 E BENTON","NE","68763-1555","(402)336-2664","(402)336-2055","HOLT","Walter Dupre","wdupre@esu8.org"
"ADMINISTRATOR","ST PAUL'S LUTHERAN ELEM SCHOOL","PLYMOUTH","108 E HWY 4","NE","68424-0247","(402)656-4465","(402)656-4465","JEFFERSON","Tom Plitzuweit","Plitzuweit@stpaulsplymouth.org"
"ADMINISTRATOR","ST ANDREW ELEMENTARY SCHOOL","TECUMSEH","179 N 6TH ST","NE","68450-0386","(402)335-2234","(402)335-2246","JOHNSON","Mary Ellen Auffert","sr.mary-ellen@standrewtecumseh.org"
"ADMINISTRATOR","ST LUKE ELEMENTARY SCHOOL","OGALLALA","406 E 3RD ST","NE","69153-2637","(308)284-4841","(308)284-9839","KEITH","Loretta Krajewski","stlukesschool@saintlukesschool.com"
"ADMINISTRATOR","ST ROSE OF LIMA ELEM SCHOOL","CROFTON","1302 W 5TH ST","NE","68730-0176","(402)388-4393","(402)388-4393","KNOX","Scott Becker","sbecker@esu1.org"
"ADMINISTRATOR","COLLEGE VIEW ACADEMY  HIGH SCHOOL","LINCOLN","5240 CALVERT ST","NE","68506-3935","(402)483-1181","(402)483-5574","LANCASTER","Carlson, Brian","bcarlson@cvak12.org"
"ADMINISTRATOR","COLLEGE VIEW ACADEMY ELEMENTARY","LINCOLN","5240 CALVERT ST","NE","68506-3935","(402)483-1181","(402)483-5574","LANCASTER","Carlson, Brian","bcarlson@cvak12.org"
"ADMINISTRATOR","CHILD VIEW MONTESSORI","LINCOLN","3341 PIONEERS","NE","68506-4895","(402)484-8277","(402)484-8277","LANCASTER","Ann DeVries","cvmontessori02@yahoo.com"
"ADMINISTRATOR","ST JOHN'S ELEMENTARY SCHOOL","LINCOLN","7601 VINE ST","NE","68505-2191","(402)486-1860","(402)486-4762","LANCASTER","Dennis Martin ","dennis-martin@cdolinc.net"
"ADMINISTRATOR","GEORGE STONE ELEMENTARY S D A","LINCOLN","3800 S 48TH ST","NE","68506-4316","(402)486-2896","(402)486-2574","LANCASTER","Denise White","dewhite@ucollege.edu"
"ADMINISTRATOR","ST MICHAEL CATHOLIC SCHOOL","LINCOLN","9101 SOUTH 78TH STREET","NE","-68516","(402)488-1313",,"LANCASTER","Mr. Borowiak","frborowiak@cdolinc.net"
"ADMINISTRATOR","PARKVIEW CHRISTIAN SECONDARY","LINCOLN","4400 N 1ST ST","NE","68521-2410","(402)474-5820","(402)474-5830","LANCASTER","Harold Scott","harold.scott300@gmail.com"
"ADMINISTRATOR","PARKVIEW CHRISTIAN ELEMENTARY","LINCOLN","4400 N 1ST ST","NE","68521-2410","(402)474-5820","(402)474-5830","LANCASTER","Harold Scott","harold.scott300@gmail.com"
"ADMINISTRATOR","PARKVIEW CHRISTIAN MIDDLE SCH","LINCOLN","4400 N 1ST STREET","NE","68521-2410","(402)474-5820","(402)474-5830","LANCASTER","Harold Scott","harold.scott300@gmail.com"
"ADMINISTRATOR","NORTH AMERICAN MARTYRS SCHOOL","LINCOLN","1101 ISAAC DRIVE","NE","68521-5312","(402)476-7373","(402)476-8088","LANCASTER","Patricia Heirigs","heirigs@cdolinc.net"
"ADMINISTRATOR","BLESSED SACRAMENT ELEM SCHOOL","LINCOLN","1725 LAKE STREET","NE","68502-3767","(402)476-6202","(402)474-4258","LANCASTER","Holly Kruger","holly-kruger@cdolinc.net"
"ADMINISTRATOR","BERNIKLAU ED SOLUTIONS TEAM","LINCOLN","11401 S 70TH","NE","68516-9218","(402)420-2888","(402)420-2942","LANCASTER","Jacqueline Berniklau","jacquejjbest@berniklaueducationsolutionsteam.com"
"ADMINISTRATOR","ST JOSEPH'S CATHOLIC SCHOOL","LINCOLN","1940 S 77TH ST","NE","68506-1805","(402)489-0341","(402)489-3260","LANCASTER","Janet Gordon","janet-gordon@stjosephlnk.org"
"ADMINISTRATOR","ST MARK ELEMENTARY SCHOOL","LINCOLN","3930 S 19TH ST","NE","68502-5507","(402)423-1497","(402)817-4481","LANCASTER","Jeremiah Drews","jdrews@stmarkwels.org"
"ADMINISTRATOR","SACRED HEART ELEM SCHOOL","LINCOLN","540 N 31ST STREET","NE","68503-3299","(402)476-1783","(402)476-3040","LANCASTER","Laura Knaus","laura-knaus@cdolinc.net"
"ADMINISTRATOR","CHRIST ELEMENTARY SCHOOL","LINCOLN","4325 SUMNER STREET","NE","68506-1165","(402)483-7774","(402)483-7776","LANCASTER","Linda Becken","lbecken@christlutheranchurch.org"
"ADMINISTRATOR","LINCOLN MONTESSORI SCHOOL","LINCOLN","2615 AUSTIN DRIVE","NE","68506-2536","(402)489-8110",,"LANCASTER","Larry Verschuur","lincolnmontessori@gmail.com"
"ADMINISTRATOR","LINCOLN CHRISTIAN JR-SR HIGH","LINCOLN","5801 S 84TH ST","NE","68516-3804","(402)488-8888","(402)488-6617","LANCASTER","Mark Wilson","mark.wilson@lincolnchristian.org"
"ADMINISTRATOR","TRINITY LUTHERAN ELEM SCHOOL","LINCOLN","1200 N 56TH ST","NE","68504-3297","(402)466-1800","(402)466-1820","LANCASTER","Merv Dehning","mdehning@trinitylcms-lincoln.com"
"ADMINISTRATOR","LINCOLN LUTHERAN HIGH SCHOOL","LINCOLN","1100 N 56TH STREET","NE","68504-3251","(402)467-5404","(402)467-5405","LANCASTER","Matt Heibel","mheibel@lincolnlutheran.org"
"ADMINISTRATOR","LINCOLN LUTHERAN MIDDLE SCHOOL","LINCOLN","1100 N 56TH STREET","NE","68504-3251","(402)467-5404","(402)467-5405","LANCASTER","Matt Heibel","mheibel@lincolnlutheran.org"
"ADMINISTRATOR","ST MARY'S ELEMENTARY SCHOOL","LINCOLN","1434 K ST","NE","68508-2730","(402)476-3987","(402)476-0838","LANCASTER","Nina Beck","NinaMB@aol.com"
"ADMINISTRATOR","ST PETER'S CATHOLIC SCHOOL","LINCOLN","4500 DUXHALL DR","NE","68516-2860","(402)421-6299","(402)421-6507","LANCASTER"," Mary Michael","office@stpeterslincoln.com"
"ADMINISTRATOR","PRAIRIE HILL LEARNING CENTER","ROCA","17705 S 12TH","NE","68430-9708","(402)438-6668","(402)438-6668","LANCASTER","Jeanne M. Hevener","prairiehillschool@yahoo.com"
"ADMINISTRATOR","GOOD SHEPHERD LUTHERAN ELEM","LINCOLN","3825 WILDBRIAR LANE","NE","68516-4502","(402)423-7677","(402)423-0984","LANCASTER","Sue Hanson","Preschool@goodshepherdlincoln.org"
"ADMINISTRATOR","LINCOLN CHRISTIAN ELEM SCHOOL","LINCOLN","5801 S 84TH ST","NE","68516-3804","(402)488-8888","(402)488-8903","LANCASTER","Rodney Zach","rodney.zach@lincolnchristian.org"
"ADMINISTRATOR","MESSIAH LUTHERAN ELEMENTARY  SCHOOL","LINCOLN","1800 S 84TH ST","NE","68506-1899","(402)489-3024","(402)489-3093","LANCASTER","Scott Guenther","sguenther@anonymous.com"
"ADMINISTRATOR","FAITH LUTHERAN SCHOOL","LINCOLN","8701 ADAMS","NE","68507-9735","(402)466-7402","(402)466-3857","LANCASTER","Stuart Tietz","stietz@faithlincoln.org"
"ADMINISTRATOR","PIUS X HIGH SCHOOL","LINCOLN","6000 A ST","NE","68510-5005","(402)488-0931","(402)488-1061","LANCASTER","Tom Korta","Tom.Korta@piusx.net"
"ADMINISTRATOR","CATHEDRAL OF RISEN CHRIST ELEM","LINCOLN","3245 S 37TH","NE","68506-6107","(402)489-9621","(402)489-9622","LANCASTER","Tony Primavera","tony-primavera@cathedrallincoln.org"
"ADMINISTRATOR","MC DAID ELEMENTARY SCHOOL","NORTH PLATTE","P.O. BOX 970","NE","69103-0970","(308)532-1874","(308)532-8015","LINCOLN","Rick Elsasser","elsasser@esu16.org"
"ADMINISTRATOR","ST PATRICK'S JR-SR HIGH SCHOOL","NORTH PLATTE","P.O. BOX 970","NE","69103-0970","(308)532-1874","(308)532-8015","LINCOLN","Mark Skillstad","mskillst@esu16.org"
"ADMINISTRATOR","NORFOLK CATHOLIC HIGH SCHOOL","NORFOLK","2300 MADISON AVE","NE","68701-4456","(402)371-2784","(402)379-2929","MADISON","Jeff Bellar","jeffbellar@sacredheartnorfolk.com"
"ADMINISTRATOR","ST LEONARD'S ELEMENTARY SCHOOL","MADISON","504 S NEBRASKA ST","NE","68748-0368","(402)454-3525","(402)454-6533","MADISON","Ms. Sojka","ksojka@esu8.org"
"ADMINISTRATOR","PARK AVENUE CHRISTIAN ELEM","NORFOLK","401 E PARK","NE","68701-5486","(402)379-0383","(402)371-3987","MADISON","Anne Marie Hess","pastorhess@cbcnorfolk.com"
"ADMINISTRATOR","PARK AVENUE CHRISTIAN JR HIGH","NORFOLK","401 E PARK","NE","68701-5486","(402)379-0383","(402)371-3987","MADISON","Anne Marie Hess","pastorhess@cbcnorfolk.com"
"ADMINISTRATOR","ST JOHN LUTHERAN ELEM SCHOOL","BATTLE CREEK","102 W. MARTIN STREET","NE","68715-0067","(402)675-3605","(402)675-1400","MADISON","Nicholas Onnen","principal@stjohnbc.net"
"ADMINISTRATOR","ST PAUL LUTHERAN ELEM SCHOOL","NORFOLK","1010 GEORGIA AVE","NE","68701-2837","(402)371-1233","(402)379-3646","MADISON","Seth Fitzsimmons","seth.fitzsimmons@stpls.com"
"ADMINISTRATOR","CHRIST LUTHERAN ELEM SCHOOL","NORFOLK","511 S 5TH ST","NE","68701-5297","(402)371-5536","(402)371-1288","MADISON","Steve Stortz","sstortz@clnorfolk.org"
"ADMINISTRATOR","SACRED HEART ELEMENTARY","NORFOLK","2301 MADISON AVE","NE","68701-4463","(402)371-4584","(402)379-8129","MADISON","Troy Berryman","troyberryman@sacredheartnorfolk.com"
"ADMINISTRATOR","NEBRASKA CHRISTIAN HIGH","CENTRAL CITY","1847 INSKIP AVE","NE","68826-8008","(308)946-3836","(308)946-3837","MERRICK","JOSH CUMPSTON","jcumpston@nebraskachristian.org"
"ADMINISTRATOR","NEBR CHRISTIAN JR HIGH SCHOOL","CENTRAL CITY","1847 INSKIP AVE","NE","68826-8008","(308)946-3836","(308)946-3837","MERRICK","JOSH CUMPSTON","jcumpston@nebraskachristian.org"
"ADMINISTRATOR","NEBRASKA CHRISTIAN ELEMENTARY","CENTRAL CITY","1847 INSKIP AVE","NE","68826-8008","(308)946-3836","(308)946-3837","MERRICK","JANICE STUHMER","jstuhmer@nebraskachristian.org"
"ADMINISTRATOR","LOURDES CENTRAL MIDDLE SCHOOL","NEBRASKA CITY","412 2ND AVE","NE","68410-1799","(402)873-6154","(402)873-3154","OTOE","Andy Fedoris","andy-fedoris@cdolinc.net"
"ADMINISTRATOR","LOURDES CENTRAL HIGH SCHOOL","NEBRASKA CITY","412 2ND AVE","NE","68410-1799","(402)873-6154","(402)873-3154","OTOE","Mark Cyza","fr.mark-cyza@cdolinc.net"
"ADMINISTRATOR","LOURDES PRIMARY SCHOOL","NEBRASKA CITY","412 2ND AVE","NE","68410-1799","(402)873-3739","(402)873-3154","OTOE","Valerie Able","valerie-able@cdolinc.net"
"ADMINISTRATOR","ZION LUTHERAN ELEMENTARY SCH","PIERCE","520 E MAIN ST","NE","68767-1668","(402)329-4658","(402)329-6406","PIERCE","David Bliss","zionprincipal@ptcnet.net"
"ADMINISTRATOR","ST ANTHONY ELEMENTARY SCHOOL","COLUMBUS","1719 6TH ST","NE","68601-6907","(402)564-4767","(402)564-5530","PLATTE","Ashley R. Davis","adavis@esu7.org"
"ADMINISTRATOR","ST BONAVENTURE ELEM SCHOOL","COLUMBUS","1604 15TH ST","NE","68601-5229","(402)564-7153","(402)564-2587","PLATTE","Cheryl Zoucha","czoucha@esu7.org"
"ADMINISTRATOR","ST FRANCIS HIGH SCHOOL","HUMPHREY","300 S 7TH","NE","68642-0277","(402)923-0818","(402)923-1590","PLATTE","Jennifer Dunn","jdunn@esu7.org"
"ADMINISTRATOR","ST FRANCIS ELEMENTARY SCHOOL","HUMPHREY","605 ELM ST","NE","68642-0277","(402)923-0611","(402)923-1590","PLATTE","Jennifer Dunn","jdunn@esu7.org"
"ADMINISTRATOR","IMMANUEL LUTHERAN ELEM SCHOOL","COLUMBUS","2865 26TH AVE","NE","68601-1826","(402)564-8423","(402)564-1162","PLATTE","Jody Timm ","jtimm@esu7.org"
"ADMINISTRATOR","COLUMBUS CHRISTIAN ELEMENTARY","COLUMBUS","3418 15TH ST","NE","68602-0924","(402)562-6470",,"PLATTE","Kathy Wolfe","kathyw@columbuschristian.org"
"ADMINISTRATOR","COLUMBUS SDA SCHOOL","COLUMBUS","4807 29TH STREET","NE","68601-0000","(402)563-2620",,"PLATTE","L. Petersen","lpetersen@columbussdaschool.org"
"ADMINISTRATOR","HOLY FAMILY HIGH SCHOOL","LINDSAY","301 PINE ST","NE","68644-0158","(402)428-3215","(402)428-3231","PLATTE","Neely Mose","nmoser@esu7.org"
"ADMINISTRATOR","HOLY FAMILY ELEMENTARY SCHOOL","LINDSAY","301 PINE ST","NE","68644-0158","(402)428-3455","(402)428-3231","PLATTE","Neely Mose","nmoser@esu7.org"
"ADMINISTRATOR","ST ISIDORE ELEMENTARY SCHOOL","COLUMBUS","3821 20TH ST","NE","68601-2903","(402)564-2604","(402)564-8955","PLATTE","Wayne Morfeld","wmorfel@esu7.org"
"ADMINISTRATOR","SCOTUS CENTRAL CATHOLIC","COLUMBUS","1554 18TH AVE","NE","68601-5132","(402)564-7165","(402)564-6004","PLATTE","Wayne Morfeld","wmorfel@esu7.org"
"ADMINISTRATOR","ST PATRICK'S ELEMENTARY SCHOOL","MC COOK","401 EAST F","NE","69001-1040","(308)345-4546","(308)345-4546","RED WILLOW","Kathy Casper","kcasper1125@gmail.com"
"ADMINISTRATOR","SACRED HEART SECONDARY SCHOOL","FALLS CITY","1820 FULTON ST","NE","68355-2234","(402)245-4151","(402)245-5217","RICHARDSON","Doug Goltz","doug-goltz@fcsacredheart.org"
"ADMINISTRATOR","ST JAMES ELEMENTARY SCHOOL","CRETE","525 E 14TH ST","NE","68333-1604","(402)826-2318","(402)826-2318","SALINE","Mary Cecilia","mary-cecilia@cdolinc.net"
"ADMINISTRATOR","ST COLUMBKILLE ELEMENTARY SCH","PAPILLION","224 E 5TH ST","NE","68046-2299","(402)339-8706","(402)592-4147","SARPY","Cheryl Blue","cblue@saintcolumbkille.org"
"ADMINISTRATOR","ST MARY ELEMENTARY SCHOOL","BELLEVUE","903 WEST MISSION AVENUE","NE","68005-3998","(402)291-1694","(402)291-9667","SARPY","Cheryl Castle","cheryl.castle@stmarysbellevue.com"
"ADMINISTRATOR","ST MATTHEW THE EVANGELIST SCH","BELLEVUE","12210 S 36TH ST SUITE B","NE","68123-1299","(402)291-2030","(402)292-7421","SARPY","Janet Wilson","janet.wilson@ssandtech.com"
"ADMINISTRATOR","ST BERNADETTE ELEMENTARY SCH","OMAHA","7600 S 42ND ST","NE","68147-1702","(402)731-3033","(402)731-8735","SARPY","Lynn Schultz","lschultz@stbernadetteschool.net"
"ADMINISTRATOR","DANIEL J GROSS CATHOLIC HIGH","BELLEVUE","7700 S 43RD ST","NE","68147-1706","(402)734-2000","(402)734-4270","SARPY","Schultz, John ","schultz@grosscatholic.org"
"ADMINISTRATOR","CORNERSTONE CHRISTIAN ELEMENTARY SCHOOL","BELLEVUE","3704 370 PLAZA","NE","68123-1206","(402)292-1030","(402)292-1030","SARPY","Teri Lynn Schrag","tlschrag@cornerstonechristianschool.org"
"ADMINISTRATOR","CORNERSTONE CHRISTIAN HIGH SCHOOL","BELLEVUE","3704 370 PLAZA","NE","-68123","(402)292-1030",,"SARPY","Teri Lynn Schrag","tlschrag@cornerstonechristianschool.org"
"ADMINISTRATOR","BISHOP NEUMANN HIGH SCHOOL","WAHOO","202 S LINDEN","NE","68066-2057","(402)443-4151","(402)443-5551","SAUNDERS","Fr. Jeremy Hazuka","Fr.Jeremy-Hazuka@cdolinc.net"
"ADMINISTRATOR","ST JOHN NEPOMUCENE ELEM SCHOOL","WESTON","130 N FRONT","NE","68070-0010","(402)642-5234","(402)642-5590","SAUNDERS","Christopher  Goodwin","frcgoodwin@windstream.net"
"ADMINISTRATOR","ST AGNES ELEMENTARY SCHOOL","SCOTTSBLUFF","205 E 23RD ST","NE","69361-2026","(308)632-6918","(308)632-6943","SCOTTS BLUFF","Julie Brown","office@stagnesonline.org"
"ADMINISTRATOR","ST JOHN LUTHERAN ELEM SCHOOL","SEWARD","877 N COLUMBIA","NE","68434-1598","(402)643-4535","(402)643-4536","SEWARD","David L. Koopman","david.koopman@cune.edu"
"ADMINISTRATOR","JESUS OUR SAVIOR LUTHERAN SCHOOL","WINNEBAGO","114 MERCER","NE","-68071","(402)878-2110",,"THURSTON","Don Weber","donw@ndlcms.org"
"ADMINISTRATOR","ST PAUL'S LUTHERAN ELEM SCHOOL","ARLINGTON","8951 COUNTY ROAD 9","NE","68002-5030","(402)478-4278","(402)478-5378","WASHINGTON","Barb Cook","bcook@stpaulsarlington.org"
"ADMINISTRATOR","IMMANUEL LUTHERAN ELEM SCHOOL","HOOPER","27053 COUNTY ROAD 12","NE","68031-9608","(402)654-3663","(402)654-2814","WASHINGTON","Thomas Lux","fr.thomas-lux@asholdrege.org"
"ADMINISTRATOR","ST MARY'S ELEMENTARY SCHOOL","WAYNE","420 E 7TH ST","NE","68787-2217","(402)375-2337","(402)375-5782","WAYNE","Mark Evetovich","mmevetovich@archomaha.org"
"ADMINISTRATOR","NEBRASKA EV LUTHERAN HIGH","WACO","203 KENDALL ST","NE","68460-3000","(402)728-5236","(402)728-5433","YORK","Mark Otte","motte@nelhs.org"
"ADMINISTRATOR","ST JOSEPH'S ELEMENTARY SCHOOL","YORK","428 EAST AVE","NE","68467-3799","(402)362-3021","(402)362-4067","YORK","Rochelle Geiger","rochelle-geiger@stjosephyork.org"
