,School Name,Address,City,State,Zip,Mail Address,Mail City,State.1,Zip.1,Phone,Grade Range,Inst Email Address,Contact Salutation,First Name,Last Name,Contact Phone,Principals Email,Contact Type
0,Oregon Outreach Inc - N Clackamas SD,14700 SE Rupert Dr,Oak Grove,OR,97267.0,3802 NE Martin Luther King Jr Blvd,Portland,OR,97212.0,(503) 234-8249, 7-12,00ibecky@gmail.com,Ms,Rebecca,Black,(503) 281-9597,001becky@gmail.com,Executive Director
1,Oregon Outreach Inc / Developing Pride,738 Sweigle St,Molalla,OR,97038.0,3802 NE Martin Luther King Jr Blvd,Portland,OR,97212.0,(503) 281-9597, 7-12,000ibecky@gmail.com,Ms,Rebecca,Black,(503) 281-9597,001becky@gmail.com,Executive Director
2,Oregon Outreach Inc. East,19125 SE Stark St,Portland,OR,97233.0,3802 NE Martin Luther King Jr Blvd,Portland,OR,97212.0,(503) 281-9597, 9-12,001becky@gmail.com,Ms,Rebecca,Black,(503) 281-9597,001becky@gmail.com,Executive Director
3,Keizer Christian Church Preschool,6945 Wheatland Rd N,Keizer,OR,97303.0,6945 Wheatland Rd N,Keizer,OR,97303.0,(503) 393-6843, Pre,,Ms,Jo Ann,Barker,,1963kcc@qwestoffice.net,Director/Teacher
4,KinderCare Learning Center,165 SW Cedar Hills Blvd,Portland,OR,97225.0,165 SW Cedar Hills Blvd,Portland,OR,97225.0,, Pre-K,301699@klcorp.com,Ms,Tina,Gushwa,(503) 641-6758,301699@klcorp.com,Center Director
5,Brighton Academy,1121 NE 7th St,Grants Pass,OR,97526.0,1121 NE 7th St,Grants Pass,OR,97526.0,(541) 474-6865, Pre-12,,,Mary,Anderson,(541) 474-6865,accts@brightonacademy.org,Administrator
6,Horizon Christian School,700 Pacific Ave,Hood River,OR,97031.0,700 Pacific Ave,Hood River,OR,97031.0,(541) 387-3200, Pre-12,admin@horizonchristianschool.org,Mr,Christopher,Herring,(541) 387-3200,admin@horizonchristianschool.org,Administrator
7,Sunshine School,2700 SE 67th Ave,Portland,OR,97206.0,,,,,(503) 775-1534, Pre-1,alicia@trinity-fellowship.com,Ms,Alicia,Oakley,(503) 775-1533,alicia@trinity-fellowship.com,Director
8,Open Meadow CRUE,7633 N Wabash,Portland,OR,97217.0,7621 N Wabash,Portland,OR,97217.0,(503) 978-1935, 10-12,andrew@openmeadow.org,Mr,Andrew,Mason,(503) 978-1935,andrew@openmeadow.org,Education Director
9,Open Meadow High School,7654 N Crawford St,Portland,OR,97203.0,7621 N Wabash,Portland,OR,97217.0,(503) 978-1935, 9-12,andrew@openmeadow.org,Mr,Andrew,Mason,(503) 488-5152,andrew@openmeadow.org,Executive Director
10,Open Meadow Middle School,7602 N Emerald,Portland,OR,97217.0,7621 N Wabash,Portland,OR,97217.0,(503) 978-1935, 6-8,andrew@openmeadow.org,Mr,Andrew,Mason,(503) 488-5152,andrew@openmeadow.org,Executive Director
11,Rivergate SDA School,1505 Ohlson Rd,Gladstone,OR,97027.0,1505 Ohlson Rd,Gladstone,OR,97027.0,(503) 656-0544, Pre-8,ann@rgsda.org,Ms,Ann,Campbell,(503) 656-0544,ann@rgsda.org,Principal
12,Holy Redeemer Catholic School,127 N Portland Blvd,Portland,OR,97217.0,127 N Portland Blvd,Portland,OR,97217.0,(503) 283-5197, K-8,office@holyredeemerportland.org,Ms,Anna,Raineri,(503) 283-5197,araineri@holyredeemerportland.org,Principal
13,Albina Youth Opportunity School,3710 N Mississippi,Portland,OR,97227.0,3710 N Mississippi,Portland,OR,97227.0,(503) 288-5813, 7-12,,Mr,Rance,Spruill,(503) 288-5813,ayos316@aol.com,Director
14,Santiam Christian Schools Adair Village,7220 NE Arnold Ave,Corvallis,OR,97330.0,7220 NE Arnold Ave,Corvallis,OR,97330.0,(541) 745-5524, Pre-12,bakers@santiam.org,Mr,Stan,Baker,(541) 745-5524,bakers@santiam.org,Superintendent
15,Veritas School,401 Mission Dr,Newberg,OR,97132.0,401 Mission Dr,Newberg,OR,97132.0,(503) 538-1962, Pre-12,info@veritasschool.net,Mr,Bryan,Lynch,(503) 538-1962,balyn@veritas.tzo.com,Head Master
16,Barnes-Miller Child Development Center,7345 SW Barnes Rd,Portland,OR,97225.0,7345 SW Barnes Rd,Portland,OR,97225.0,(503) 292-7847, Pre-K,barnes-miller@qwest.net,Ms.,Debra,Reynolds,,barnes-miller@qwest.net,Owner/Director
17,The International School,1133 SW Market St,Portland,OR,97201.0,,,,,(503) 226-2496, Pre-5,lorrainewoodstis@yahoo.com,Mr,Bruce,Bayliss,(503) 226-2496,bbayliss@intlschool.org,Head of School
18,Sandcastle Preschool,435 NW 21st,Corvallis,OR,97330.0,435 NW 21st,Corvallis,OR,97330.0,(541) 753-7078, Pre,sandkidsrme@aol.com,Ms,Barbara,Bunch,,bbunch@peak.org,Director
19,Salem Academy,942 Lancaster Dr NE,Salem,OR,97301.0,942 Lancaster Dr NE,Salem,OR,97301.0,(503) 378-1211, 6-12,bcolburn@salemacademy.org,Mr,Bruce,Colburn,(503) 378-1211,bcolburn@salemacademy.ort,Secondary Principal
20,Bethlehem Church Pre-School,17979 Stafford Rd,Lake Oswego,OR,97034.0,17979 Stafford Rd,Lake Oswego,OR,97034.0,(503) 638-0725, Pre,,Ms,Kathy,Hawkins,(503) 638-0725,bcpres@juno.com,Director
21,Three Sisters SDA School,21155 Tumalo Rd,Bend,OR,97701.0,21155 Tumalo Rd,Bend,OR,97701.0,(541) 389-2091, K-12,,Mr,Randal,Thornton,(541) 389-2091,bdederer@bendbroadband.com,Principal
22,Old Mill Center for Children & Families,4515 SW Country Club Dr,Corvallis,OR,97330.0,4515 SW Country Club Dr,Corvallis,OR,97330.0,(541) 757-8068, Pre,,Dr,Beverly,Larson,(541) 757-8068,bev_larson@oldmillcenter.org,Executive Director
23,Brookings Harbor Christian School,1600 Chetco Ave,Brookings,OR,97415.0,PO Box 5809,Brookings,OR,97415.0,(541) 469-6478, Pre-10,,Ms,Christine,Hudson,(541) 469-6478,bhchristianschool/1@verizon.net,Administrator
24,Cascades Academy of Central Oregon,2150 NE Studio Rd Ste 2,Bend,OR,97701.0,2150 NE Studio Rd Ste 2,Bend,OR,97701.0,(540) 382-0699, K-12,wendy@cascadesacademy.org,,Blair ,Jenkins,,bjenkins@cascadesacademy.org,Head of School
25,Livingstone Adventist Academy,5771 Fruitland Rd NE,Salem,OR,97301.0,5771 Fruitland Rd NE,Salem,OR,97301.0,(503) 363-9408, K-12,,Mrs,Barbara,Livesay,(503) 363-9408,blivesay@laa.info,Principal
26,Cathedral School,110 NW 17th Ave,Portland,OR,97209.0,110 NW 17th Ave,Portland,OR,97209.0,(503) 275-9370, K-8,bmcallister@cathedral-or.org,Mr,Robert,McAllister,(503) 275-9370,bmcallister@cathedral-or.org,Principal
27,Portland Adventist Elementary School,3990 NW 1st St,Gresham,OR,97030.0,3990 NW 1st St,Gresham,OR,97030.0,(503) 665-4102, Pre-8,bob@paes.com,Mr,Robert,McDonald,(503) 665-4102,bob@paes.com,Principal
28,Bud to Blossom Children's School of Discovery,5000 Skyline Rd S,Salem,OR,97306.0,PO Box 4297,Salem,OR,97302.0,(503) 581-0707, Pre-K,,Ms,Carolyn,Sigurdson,,budtoblossom@comcast.net,Owner/Director
29,OHSU--Children's Psychiatric DTC,3181 SW Sam Jackson Park Rd,Portland,OR,97201.0,3181 SW Sam Jackson Park Rd,Portland,OR,97201.0,(503) 494-8086, Pre-4,buschl@ohsu.edu,Mr,Les,Busch,(503) 494-8086,buschl@ohsu.edu,Director
30,Baker Valley SDA School,42171 Chico Rd,Baker City,OR,97814.0,42171 Chico Rd,Baker City,OR,97814.0,(541) 523-4165, 1-8,bvsdas@bakervalley.net,Mr,Bryon,Schurch,,bvsdas@bakervalley.net,Principal
31,KinderCare Learning Centers #1042,3700 Red Cedar Way,Lake Oswego,OR,97034.0,3700 Red Cedar Way,Lake Oswego,OR,97034.0,(503) 635-8982, Pre-K,,Ms.,Maureen,Markasky,(503) 635-8982,c1042@mail.kiindercare.com,Director
32,"Kindercare Learning Centers, Inc-Downtown Portland",1400 SW 5th Ave Ste 100,Portland,OR,97201.0,1400 SW 5th Ave Ste 100,Portland,OR,97201.0,(503) 248-0581, Pre-K,301702@klcorp.com,Ms,Lisa,Horner,(503) 248-0581,c1702@mail.kindercare.com,Center Director
33,KinderCare Learning Centers Inc,8140 SW Warm Springs Rd,Tualatin,OR,97062.0,8140 SW Warm Springs Rd,Tualatin,OR,97062.0,(503) 692-4835, Pre-K,,Ms.,Cynthia,Bese,(503) 692-4835,c300987@klcorp.com,Director
34,Portland Tillamook Preschool,935 NE 33rd Ave,Portland,OR,97232.0,PO Box 13125,Portland,OR,97213.0,(503) 234-1691,,,Ms.,Colleen,Olson,(503) 321-3987,ccoidesigns@msn.com,President
35,Silver Crest School,1311 Tropicana Court,Junction City,OR,97448.0,PO Box 9,Junction City,OR,97448.0,(541) 998-5735, K-12,ccrymes@comcast.net,Mr.,Clayton,Crymes,(541) 998-5735,ccrymes@comcast.net,Principal
36,Cornerstone Christian School,2105 Keizer Rd NE,Keizer,OR,97303.0,PO Box 21478,Keizer,OR,97307.0,(503) 566-8520, Pre-8,ccs@cornerstonecs.org,Mr.,Brad,Wallace,(503) 566-8520,ccs@cornerstonecs.org,Administrator
37,KinderCare Learning Centers #902,16915 SE Naegeli Dr,Portland,OR,97236.0,16915 SE Naegeli Dr,Portland,OR,97236.0,(503) 661-5145, Pre-K,,Ms,Carrie,Goble,(503) 661-5145,cgoble@k1corp.com,Center Director
38,Quest Schools Inc,8955 SW Commercial St,Tigard,OR,97223.0,PO Box 230060,Tigard,OR,97281.0,(503) 620-8770, 8-12,chet@questschools.com,Mr,Chet,Edwards,,chet@questschools.com,Principal
39,Christ Lutheran School,1835 N 15th,Coos Bay,OR,97420.0,1835 N 15th,Coos Bay,OR,97420.0,(541) 267-3851, Pre-8,chlucs@uci.net,Ms,Darlene,Thauland,(541) 267-3851,chlucs@uci.net,Principal
40,Belmont Academy,3841 SE Belmont,Portland,OR,97214.0,3841 SE Belmont,Portland,OR,97214.0,(503) 232-8985, Pre-2,chuston@belmontacademy.org,Ms.,Claudia,Hutson,(503) 232-8986,chutson@belmontacademy.org,Administrator
41,Pacific Coast Primary School,1127 NE Hwy 20,Toledo,OR,97391.0,P O Box 566,Toledo,OR,97391.0,(541) 961-7001, Pre-2,cindysue3@msn.com,Ms,Cindy,Wiedoff,(541) 961-7001,cindysue3@msn.com,Owner
42,Class Academy,2730 NW Vaughn St,Portland,OR,97210.0,7310 SW Lakeside Lp,Wilsonville,OR,97070.0,(503) 223-9099, Pre-8,,Ms,Teresa,Cantlon,(503) 223-9099,classacademy@integraonline.com,Principal
43,Chemeketa Child Development Center,4000 Lancaster Dr NE Bldg 39,Salem,OR,97305.0,PO Box 14007,Salem,OR,97309.0,(503) 399-5107, Pre-K,clos@chemeketa.edu,Ms,Sandra,Clouser,(503) 399-5107,clos@chemeketa.edu,Center Manager
44,Christian Life School,270 W Evans Creek Rd,Rogue River,OR,97537.0,PO Box 1650,Rogue River,OR,97537.0,(541) 582-5975, Pre-8,,Ms,Mary,Schaefer,(541) 582-5975,clsmary@rvi.net,Principal
45,St Paul Lutheran School,17500 SW Cedarview Hwy,Sherwood,OR,97140.0,17500 SW Cedarview Hwy,Sherwood,OR,97140.0,(503) 625-6648, Pre-5,stpaul.lutheran@verizon.net,Mrs.,Margaret,Hampton,(503) 625-6648,cmhampton@earthlinnk.net,Principal/Administrator
46,Cobb Street School,1281 NE Walnut,Roseburg,OR,97470.0,1281 NE Walnut,Roseburg,OR,97470.0,(541) 957-1008, Pre-9,,Sister,Jeanita,Richter,(541) 957-9357,cobbst@cmspan.net,CEO
47,Concordia Lutheran School,4663 Lancaster Dr NE,Salem,OR,97305.0,,,,,(503) 393-7188, K-8,,Ms,Margaret (Peggy),Holstedt,(503) 393-7188,concordi@open.org,Principal/Teacher
48,Shady Point SDA School,14611 Hwy 62,Eagle Point,OR,97524.0,PO Box 216,Eagle Point,OR,97524.0,(541) 826-2255, 1-8,connieallred@yahoo.com,Ms.,Connalyn,Allred,(541) 826-2255,connieallred@yahoo.com,Head Teacher
49,Albany Learning Center Community Services Consortium/Learning Opportunities Center,250 Broadalbin St SW Ste 2A,Albany,OR,97321.0,250 Broadalbin St SW Ste 2A,Albany,OR,97321.0,(541) 928-6335, 8-12,,Ms,Caprice,Plaep,,cplaep@csc.gen.or.us,Regional Manager
50,Seven Peaks School,19660 SW Mountaineer Way,Bend,OR,97702.0,19660 SW Mountaineer Way,Bend,OR,97702.0,(541) 382-7755, Pre-8,cpuddy@sevenpeaksschool.org,Ms,Cheryl,Puddy,(541) 382-7755,cpuddy@sevenpeaksschool.org,Director
51,OSU Kinder Care,102 Child Care Center,Corvallis,OR,97331.0,102 Child Care Center,Corvallis,OR,97331.0,(541) 737-4641, Pre-K,c1417@mail.kindercare.com,Ms,Chris,Riggan,(541) 737-4641,criggan@klcorp.com,Director
52,Ashbrook Independent School,4045 SW Research Way,Corvallis,OR,97333.0,4045 SW Research Way,Corvallis,OR,97333.0,(541) 766-8313, Pre-8,csachtjen@ashbrookindependentschool.com,Ms.,Charlotte,Sachtjen,(541) 766-8313,csachtjen@ashbrookindependentschool.com,Head of School
53,KinderCare Learning Centers Inc,3020 Lazy River Dr,West Linn,OR,97068.0,3020 Lazy River Dr,West Linn,OR,97068.0,(503) 636-0092, Pre-K,,Ms,Cindy,Sexton,(503) 636-0092,csexton@klcorp.com,Center Director
54,Mid-Valley Christian Academy,1483 N 16th St,Monmouth,OR,97361.0,1483 N 16th St,Monmouth,OR,97361.0,(503) 838-2818, Pre-12,midvalca@midvalca.org,Ms,Candice,Thomas,(503) 838-2818,cthomas@midval.org,Principal
55,Umatilla-Morrow Co Head Start Pendleton Early Head Start Center,1800 NW Carden,Pendleton,OR,97801.0,,,,,(541) 278-0770, Pre,,Ms,Cathy,Wamsley,(541) 564-6878,cwamsley@umchs.org,Executive Director
56,Umatilla-Morrow Co Head Start Child Development Center,605 S First Pl,Hermiston,OR,97838.0,110 NE 4th St,Hermiston,OR,97838.0,(541) 449-5574, Pre,,Ms,Cathy,Wamsley,,cwamsley@umchs.org,Executive Director
57,Umatilla-Morrow Co Head Start Hawthorne Center,1308 SW Emigrant Ave,Pendleton,OR,97801.0,110 NE 4th Ave,Hermiston,OR,97838.0,(541) 278-0770, Pre,,Ms,Cathy,Wamsley,,cwamsley@umchs.org,Executive Director
58,Umatilla-Morrow Co Head Start Hermiston Center,305 SE 4th St,Hermiston,OR,97838.0,110 NE 4th St,Hermiston,OR,97838.0,(541) 278-0770, Pre,,Ms,Cathy,Wamsley,,cwamsley@umchs.org,Executive Director
59,Umatilla-Morrow Co Head Start Highland Center,420 E Highland,Hermiston,OR,97838.0,,,,,(541) 922-5574, Pre,,Ms,Cathy,Wamsley,,cwamsley@umchs.org,Executive Director
60,Umatilla-Morrow Co Head Start-Pine Tree Center,477 Pine Tree Ave,Umatilla,OR,97882.0,110 NE 4th St,Hermiston,OR,97838.0,(541) 278-0770, Pre,,Ms,Cathy,Wamsley,,cwamsley@umchs.org,Executive Director
61,Umatilla-Morrow Head Start - Umatilla Center,1371 3rd St,Umatilla,OR,97882.0,110 NE 4th St,Hermiston,OR,97838.0,(541) 564-6878, Pre,dwamsley@umchs.org,Ms,Cathy,Wamsley,,cwamsley@umchs.org,Executive Director
62,Umatilla-Morrow Head Start - West Park Center,555 SW 7th St,Hermiston,OR,97838.0,110 NE 4th St,Hermiston,OR,97838.0,(541) 564-6878, Pre,cwamsley@umchs.org,Ms,Cathy,Wamsley,(541) 564-6878,cwamsley@umcsh.org,Executive Director
63,Family Building Blocks,2425 Lancaster Dr NE,Salem,OR,97305.0,2425 Lancaster Dr NE,Salem,OR,97305.0,(503) 566-2132, Pre,,Ms,Cheryl,Weatherly,(503) 566-2132,cweatherly@familybuildingblocks.org,Program Manager/Supervisor
64,Grace Christian Preschool,51737 S Columbia River Hwy,Scappoose,OR,97056.0,51737 S Columbia River Hwy,Scappoose,OR,97056.0,(503) 543-3153, Pre,d.a.christensen@comcast.net,Ms.,Deborah,Christensen,(503) 543-3153,d.a.christensen@comcast.net,Director
65,Milton-Stateline SDA School,53565 Crockett Rd,Milton-Freewater,OR,97862.0,53565 Crockett Rd,Milton-Freewater,OR,97862.0,(541) 938-7131, Pre-8,dave.gillham@miltonstateline.org,Dr,David,Gillham,,dave.gillham@miltonstateline.org,Principal
66,Salem Academy Christian School/East Elementary & Childcare,1850 45th Ave NE,Salem,OR,97305.0,1850 45th Ave NE,Salem,OR,97305.0,(503) 399-7360, Pre-5,davenhi@salemacademy.rg,Ms,Sue,Davenhill,(503) 399-7360,davenhi@salemacademy.org,Director
67,KinderCare Learning Centers Inc,2215 SE Gladstone,Portland,OR,97202.0,2215 SE Gladstone,Portland,OR,97202.0,(503) 231-2993, Pre-K,dbartolus!klcorp.com,Mrs,Diana,Bartolus,(503) 231-2993,dbartolus@klcorp.com,Center Director
68,O'Hara Catholic School,715 W 18th Ave,Eugene,OR,97402.0,715 W 18th Ave,Eugene,OR,97402.0,(541) 485-5291, Pre-8,,Mrs,Dianne,Bert,(541) 485-5291,dbert@oharaschool.org,Principal
69,Western Mennonite School,9045 Wallace Rd NW,Salem,OR,97304.0,9045 Wallace Rd NW,Salem,OR,97304.0,(503) 363-2000, 6-12,dcamp@westernmennoniteschool.org,Mr,Darrel,Camp,(053) 363-2000,dcamp@westernmennoniteschool.org,Principal
70,Holy Trinity School,13755 SW Walker Rd,Beaverton,OR,97005.0,13755 SW Walker Rd,Beaverton,OR,97005.0,(503) 644-5748, K-8,dcronin@holytrinity.pvt.k12.or.us,Mrs,Diane,Cronin,(503) 644-5748,dcronin@holytrinity.pvt.k12.or.us,Principal
71,Queen of Peace School,4227 Lone Oak Rd SE,Salem,OR,97302.0,PO Box 3696,Salem,OR,97302.0,(503) 362-3443, K-6,debilyn@queenofpeacesalem.org,Ms,Debilyn,Janota,(503) 362-3443,debilyn@queenofpeacesalem.org,Principal
72,Wellsprings Friends School,3590 W 18th Ave,Eugene,OR,97402.0,3590 W 18th Ave,Eugene,OR,97402.0,(541) 686-1223, 9-12,,Mr,Dennis,Hoerner,,dennis@wellspringsfriends.org,Teacher/Administrator
73,Far Horizons Montessori School,2490 Hilyard St,Eugene,OR,97405.0,2490 Hilyard St,Eugene,OR,97405.0,(541) 485-0521, Pre-6,fhms@efn.org,Ms,Kerry Ann,Knust,,dennisstgermain@comcast.net,President
74,St Luke's School,529 Harrison St,Woodburn,OR,97071.0,529 Harrison St,Woodburn,OR,97071.0,(503) 981-7441, K-8,dguile@archdpdx.org,Mr,David,Guile,(503) 981-7441,dguile@archdpdx.org,Principal
75,South Coast Head Start,99603 N Bank Chetco River Rd,Brookings,OR,97415.0,PO Box 239,Coos Bay,OR,97420.0,(541) 888-3717, Pre,,Dr,Dale,Helland,(541) 888-3717,dhelland@head-start.net,Director
76,South Coast Head Start,250 Hull St,Coos Bay,OR,97420.0,PO Box 239,Coos Bay,OR,97420.0,(541) 888-3717, Pre,,Mr,Dale,Helland,(541) 888-3717,dhelland@head-start.net,Director
77,South Coast Head Start,2710 Oak St,North Bend,OR,97459.0,PO Box 239,Coos Bay,OR,97420.0,(541) 888-3717, Pre,,Dr,Dale,Helland,(541) 888-3717,dhelland@head-start.net,Director
78,South Coast Head Start - Coos Bay Site,295 S 10th St,Coos Bay,OR,97420.0,PO Box 239,Coos Bay,OR,97420.0,(541) 888-3717, Pre,,Dr,Dale,Helland,(541) 888-3717,dhelland@head-start.net,Director
79,South Coast Head Start - Coquille Valley Site,413 C St,Myrtle Point,OR,97458.0,PO Box 239,Coos Bay,OR,97420.0,(541) 888-3717, Pre,,Dr,Dale,Helland,(541) 888-3717,dhelland@head-start.net,Director
80,South Coast Head Start - Gold Beach Site,93990 Oceanway,Gold Beach,OR,97444.0,PO Box 239,Coos Bay,OR,97420.0,(541) 888-3717, Pre,,Dr,Dale,Helland,(547) 888-3717,dhelland@head-start.net,Director
81,South Coast Head Start - Port Orford,2040 Washington St,Port Orford,OR,97465.0,PO Box 239,Coos Bay,OR,97420.0,(541) 888-3717, Pre,,,Dale,Helland,(541) 888-3717,dhelland@head-start.net,Director
82,The Children's Learning Center,650 NE A St,Madras,OR,97741.0,650 NE A St,Madras,OR,97741.0,(541) 475-3628, Pre,director1@crestviewcable.com,Ms,Kaline,Rosman,(541) 475-3628,director1@crestviewcable.com,Executive Director
83,Umpqua Valley Christian School,359 Roberts Creek Rd,Roseburg,OR,97470.0,359 Roberts Creek Rd,Roseburg,OR,97470.0,(541) 679-4964, Pre-12,,Mr,Doug,Tharp,(541) 679-4964,dougtharp@hotmail.com,Administrator
84,Bethlehem Lutheran Preschool,18865 SW Johnson,Aloha,OR,97006.0,18865 SW Johnson,Aloha,OR,97006.0,(503) 649-3380, Pre,,Mrs.,Dee ,Pederson,,dpederson@bethlehemlutheran.org,Director/Teacher
85,St Francis of Assisi School,39085 NW Harrington Rd,Banks,OR,97106.0,39085 NW Harrington Rd,Banks,OR,97106.0,(503) 324-2182, Pre-8,,Ms.,Diane,Ramsperger,(503) 324-2182,dramsperger@archdpdx.org,Principal
86,Our Lady of Sorrows School,5239 SE Woodstock,Portland,OR,97206.0,5239 SE Woodstock,Portland,OR,97206.0,(503) 771-3592, K-8,dtischler@archdpdx.org,Ms,Denise,Tischler,(503) 771-3592,dtischler@archdpdx.org,Principal
87,Holy Cross Catholilc School,5202 N Bowdoin St,Portland,OR,97203.0,5202 N Bowdoin St,Portland,OR,97203.0,(503) 289-3010, K-8,rfrank@archdpdx.org,Sr,Ruth,Frank,,dwalker@archdpdx.org,Principal
88,The Triad School,4849 S 6th St,Klamath Falls,OR,97603.0,4849 S 6th St,Klamath Falls,OR,97603.0,(541) 885-7940, Pre-12,triad@bbcministries.com,Mr,David,Wehr,(541) 885-7940,dwehr@bbcministries.com,Principal
89,Student Visions,11830 SW Kerr Pkwy Ste 330,Lake Oswego,OR,97035.0,11830 SW Kerr Pkwy Ste 330,Lake Oswego,OR,97035.0,(503) 977-1734, 7-12,e_hillier@hotmail.com,Ms,I,Hillier,(503) 977-1734,e_hillier@hotmail.com,CEO
90,Ascension Early Childhood,1440 SE 182nd Avenue,Portland,OR,97233.0,,,,,(503) 667-6750, Pre-1,,Mrs,Susan,Wentela,(503) 667-6750,earlychildhoodcenter.lutheranchurch@verizon,Director
91,City Christian Schools,9200 NE Freemont St,Portland,OR,97220.0,9200 NE Freemont St,Portland,OR,97220.0,(503) 252-5207, Pre-12,ed@citybiblechurch.org,Mr,Edward,Mason,(503) 252-5207,ed@citybiblechurch.org,Principal
92,East Linn Christian Academy,31498 S 5th St,Lebanon,OR,97355.0,31498 S 5th St,Lebanon,OR,97355.0,(541) 259-2324, Pre-12,elca@peak.org,Mr.,James,Hill,(541) 259-2324,elca@peak.org,Principal/Administrator
93,Fairview Christian School,35100 Goltra Rd SE,Albany,OR,97322.0,35100 Goltra Rd SE,Albany,OR,97322.0,(541) 928-4211, Pre-12,f.christianschool@comcast.net,Mr.,Raymond,Allen,(541) 928-4211,f.christianschool@comcast.net,Principal
94,Faith Christian School,2290 E Ellendale,Dallas,OR,97338.0,2290 E Ellendale,Dallas,OR,97338.0,(503) 623-6632, Pre-6,fcschool@wvi.com,Mr,Edward,Sutter,(503) 623-6632,fcschool@wvi.com,Principal
95,Vernonia Community Preschool,957 State St,Vernonia,OR,97064.0,957 State St,Vernonia,OR,97064.0,(503) 429-6790, Pre,,Ms,Amy,Cieloha,(503) 429-0745,fjcieloha@msn.com,Director
96,Franciscan Montessori Earth School St Francis Academy,14750 SE Clinton St,Portland,OR,97236.0,14750 SE Clinton St,Portland,OR,97236.0,(503) 760-8220, Pre-8,,Sister,Cardew,"Francine, Sister",,fmessfa@gmail.com,Administrator
97,Fire Mountain School,6505 Elk Flat Rd,Arch Cape,OR,97102.0,6505 Elk Flat Rd,Arch Cape,OR,97102.0,(503) 436-2610, K-6,,Ms,Jennifer,Childress,(503) 436-2610,fms@seasurf.net,Board President
98,St Thomas More School,3521 SW Patton Rd,Portland,OR,97221.0,3521 SW Patton Rd,Portland,OR,97221.0,(503) 222-6105, K-8,stmschool@stmpdx.org,Mr,Frank,Murray,(503) 222-6105,fmurray@stmpdx.org,Principal
99,St Mary's School,816 Black Oak Dr,Medford,OR,97504.0,816 Black Oak Dr,Medford,OR,97504.0,(541) 773-7877, 6-12,,Mr,Frank,Phillips,(541) 773-7877,fphillips@stmarysschool.us,Head of School
100,St Mary's Preschool,501 NW 25th St,Corvallis,OR,97330.0,501 NW 25th St,Corvallis,OR,97330.0,(541) 757-1988, Pre,fradetp@hotmail.com,Ms,Patty,Fradet,(541) 757-1988,fradetp@hotmail.com,Teacher/Administrator
101,Portland Adventist Academy,1500 SE 96th Ave,Portland,OR,97216.0,1500 SE 96th Ave,Portland,OR,97216.0,(503) 255-8372, 9-12,,Mr,Gale,Crosby,(503) 255-8372,gcrosby@paasda.org,Principal
102,French American International School,8500 NW Johnson St,Portland,OR,97229.0,8500 NW Johnson St,Portland,OR,97229.0,(503) 292-7776, Pre-8,genay@faispdx.org,Mr,Jean-Francois,Genay,(503) 292-7776,genay@faispdx.org,Head Master
103,Open Meadow High School,7654 N Crawford St,Portland,OR,97203.0,7621 N Wabash,Portland,OR,97217.0,(503) 978-1935, 9-12,andrew@openmeadow.org,Ms,Gillian,Abendroth,(503) 978-1935,gillian@openmeadow.org,Administrator
104,Touchstone School,2 SW Touchstone,Lake Oswego,OR,97035.0,2 SW Touchstone,Lake Oswego,OR,97035.0,(503) 635-6254, K-6,ginger.schaffer@nlcinc.com,,Ginger,Schaffer,(503) 635-6254,ginger.schaffer@nlcinc.com,Principal
105,Buttercup Hill Inc,4515 A Sunnyside Rd SE,Salem,OR,97302.0,3440 Mock Orange Ct S,Salem,OR,97302.0,(503) 363-3072, Pre-K,gloriajrice@gmail.com,Ms,Gloria,Rice,(503) 363-3072,gloriajrice@gmail.com,Owner
106,Grande Ronde Academy,10700 Walton Rd,La Grande,OR,97850.0,P O Box 819,La Grande,OR,97850.0,(541) 962-9887, Pre-8,gracademy@eoni.com,Ms,Peggy,Wallace,(541) 975-1147,gracademy@eoni.com,Administrator
107,Good Shepherd School,28986 SE Haley Rd,Boring,OR,97009.0,28986 SE Haley Rd,Boring,OR,97009.0,(503) 663-5280, K-8,,Mr,Greg,Suminski,(503) 663-5280,greg.suminski@anonymous.com,Principal
108,German American School of Portland,3900 SW Murray Blvd,Beaverton,OR,97005.0,3900 SW Murray Blvd,Beaverton,OR,97005.0,(503) 626-9089, Pre-5,,Mr.,Blake,Peters,(503) 626-9089,gspdirector@comcast.net,Director
109,Happy Hearts Preschool,511 SW 211th Ave,Aloha,OR,97006.0,7030 SW 173rd Ave,Aloha,OR,97007.0,(503) 690-9867, Pre,,Mrs,Susan,Brown,,happyhearts3@frontier.com,Owner/Director
110,West Hills Christian School,7945 SW Capitol Hill Rd,Portland,OR,97219.0,7945 SW Capitol Hill Rd,Portland,OR,97219.0,(503) 245-6688, K-8,,Mr,Benjamin,Haskell,(503) 245-6688,haskell_Ben@whcs.org,Superintendent
111,French American School of the Pacific NW Portland French School,6318 SW Corbett Ave,Portland,OR,97239.0,6318 SW Corbett Ave,Portland,OR,97239.0,(503) 452-4160, Pre-5,headofschool@portlandfrenchschool.org,Mr.,Elimane,Mbengue,(503) 452-4160,headofschool@portlandfrenchschool.org,Head of School
112,Santiam Crossing,44644 Camp Morrison Dr,Scio,OR,97374.0,PO BOX 482,Scio,OR,97374.0,(503) 394-4294, 8-12,helen@santiamcrossing.com,Ms,Helen,Paul,(503) 394-4295,helen@santiamcrossing.com,Director of Education
113,Highland Community Pre-Kindergarten,4100 SE 182nd Ave,Gresham,OR,97030.0,4100 SE 182nd Ave,Gresham,OR,97030.0,(503) 665-6618, Pre,highlandcommunitychurch182@yahoo.com,Ms,Rosemary,Gibson,(503) 665-6618,highlandcommunitychurch182@yahoo.com,Preschool Director
114,Mt Hood Academy,88153 Loop Rd,Government Camp,OR,97028.0,PO Box 189,Government Camp,OR,97028.0,(503) 272-3503, 7-12,marygunesch@centurytel.net,Ms,Mary,Gunesch,(503) 272-3503,hoodacad@oregontrail.net,Education Director
115,SOAR Academy,18201 SE Stark St,Portland,OR,97233.0,18201 SE Stark St,Portland,OR,97233.0,(503) 789-7244, 6-12,hugh.ellis@comcast.net,Mr,Hugh,Ellis,(503) 789-7244,hugh.ellis@comcast.net,Director
116,Happy Valley Preschool,10151 SE 145th,Happy Valley,OR,97086.0,10151 SE 145th,Happy Valley,OR,97086.0,(503) 760-1234, Pre-K,hvpreschool@qwest.net,Ms,Mary,Friesen,(503) 760-1234,hvpreschool@qwest.net,Administrator
117,Immanuel Evangelical Lutheran School,510 Idylwood Dr SE,Salem,OR,97302.0,510 Idylwood Dr SE,Salem,OR,97302.0,(503) 371-5473, K-8,,Mr.,James,Wendland,(503) 371-5473,immanuel@open.org,Principal
118,Academy for Global Exploration,,,,,PO Box 712,Ashland,OR,97520.0,(541) 913-0660, 9-12,,Mr,Greg,Guevara,(541) 913-0660,info@AGExplore.org,Head of School
119,Aleph Bet Jewish Dayschool,6612 SW Capitol Hwy,Portland,OR,97201.0,6612 SW Capitol Hwy,Portland,OR,97201.0,(503) 977-7850, Pre-8,,Ms,Nan ,Jarashow,(503) 977-7850,info@alephbet.org,Head of School
120,Arbor School of Arts & Sciences,4201 SW Borland Rd,Tualatin,OR,97062.0,4201 SW Borland Rd,Tualatin,OR,97062.0,(503) 638-6399, K-8,,Ms,Kit,Hawkins,(503) 638-6399,info@arborschool.org,Director
121,Community Works/Lithia Springs School,695 Mistletoe Rd Ste H,Ashland,OR,97520.0,695 Mistletoe Rd Ste H,Ashland,OR,97520.0,(541) 482-5818, 8-12,,Ms,Stephanie,Atkinson,,info@community-works.org,Principal
122,St Andrew Nativity School,4925 NE 9th,Portland,OR,97211.0,PO Box 11127,Portland,OR,97211.0,(503) 335-9600, 6-8,,Father,Jeffrey,McDougall,(503) 335-9600,info@nativityportland.com,Principal
123,Puddletown School,3214 SE Holgate,Portland,OR,97202.0,3214 SE Holgate,Portland,OR,97202.0,(503) 539-6385, Pre-K,puddletownschoo.@gmail.com,Mr,Samuel,Montana-Gardner,(503) 539-6385,info@puddletownschool.com,Director
124,Trinity Lutheran School,2550 NE Butler Market Rd,Bend,OR,97701.0,2550 NE Butler Market Rd,Bend,OR,97701.0,(541) 382-1850, Pre-9,,Mr,Robert,Fowls,(541) 382-1850,info@saints.org,Head of School
125,St Francis School,2450 NE 27th St,Bend,OR,97701.0,2450 NE 27th St,Bend,OR,97701.0,(541) 382-4701, Pre-8,,Mr,David,Stone,(541) 382-4701,info@stfrancisisschool.net,Principal
126,Central Christian Schools,2234 SE 6th,Redmond,OR,97756.0,PO Box 639,Redmond,OR,97756.0,(541) 548-7803, Pre-12,bmahnkeccs@bendbroadband.com,Mr.,William,Mahnke,(541) 548-7803,info2ccs@bendbroadband.com,Administrator
127,Pacific Northwest Academy,27960 SW Canyon Creek Rd,Wilsonville,OR,97070.0,PO Box 683,Wilsonville,OR,97070.0,(503) 582-8838, K-8,j.white@pacificnorthwestacademy.org,Mr,James,White,(503) 582-8838,j.white@pacificnorthwestacademy.org,Head of School
128,New Hope Weekday Preschool,11731 SE Stevens Rd,Portland,OR,97266.0,11731 SE Stevens Rd,Portland,OR,97266.0,(503) 659-5683, Pre,,Ms,Janet,Cotton,(503) 659-5683,janet@newhopecommunitychurch.org,Pastor
129,St Anthony's School,12645 SW Pacific Hwy,Tigard,OR,97223.0,12645 SW Pacific Hwy,Tigard,OR,97223.0,(503) 639-4979, Pre-8,jbloudek!stanthonytigard.org,Ms,Jeananne,Bloudek,(503) 639-4979,jbloudek@stanthonytigard.org,Principal
130,St Agatha School,7960 SE 15th,Portland,OR,97202.0,7960 SE 15th,Portland,OR,97202.0,(503) 234-5500, Pre-8,,Mr,Joseph,Bridgman,(503) 234-5500,jbridgeman@stagatha.us,Principal
131,Our Lady of the Lake School,716  A  Ave,Lake Oswego,OR,97034.0,716  A  Ave,Lake Oswego,OR,97034.0,(503) 636-2121, K-8,jcodd@ollschool-lakeoswego.org,Ms.,Joan,Codd,(503) 636-2121,jcodd@ollschool-lakeoswego.org,Principal
132,Columbia Christian School,413 NE 91st Ave,Portland,OR,97220.0,413 NE 91st Ave,Portland,OR,97220.0,(503) 252-8577, K-12,,Mr,Joel,Davis,(503) 252-8577,jdavis@columbiachristian.com,Superintendent
133,Providence/Benedictine Nursing Center Child Development,560 S Main St,Mt Angel,OR,97362.0,560 S Main St,Mt Angel,OR,97362.0,(503) 845-2662, Pre,jean.brougher@providence.org,Mrs,Jean,Brougher,,jean.brougher@providence.org,Director
134,The Neighborhood School,21065 SW Stafford Rd,Tualatin,OR,97062.0,PO Box 2000,Wilsonville,OR,97070.0,(503) 638-8765, Pre-3,debbiem@theneighborhoodchurch.org,Mr,Jeff,Wiedenmeyer,(503) 638-8765,jeffw@theneighborhoodchurch.org,Administrator
135,Pacific Crest Community School,116 NE 29th,Portland,OR,97232.0,116 NE 29th,Portland,OR,97232.0,(503) 234-2826, 7-12,jenny@pcrest.org,Ms,Jennifer,Osborne,,jenny@pcrest.org,Director
136,Tualatin Valley Junior Academy,21975 SW Baseline Rd,Hillsboro,OR,97123.0,21975 SW Baseline Rd,Hillsboro,OR,97123.0,(503) 649-5518, Pre-10,jessee@tvja.org,,Jesse,Cone,(503) 649-5518,jessec@tvja.org,Principal
137,Saint Anne Catholic School,1131 NE 10th St,Grants Pass,OR,97526.0,1131 NE 10th St,Grants Pass,OR,97526.0,(541) 479-1582, Pre-8,,Ms,Jacqueline,Henry,(541) 479-1582,jhenry@archdpdx.org,Principal
138,De La Salle North Catholic High School,7654 N Delaware St,Portland,OR,97217.0,7654 N Delaware St,Portland,OR,97217.0,(503) 285-9385, 9-12,,Mr.,John,Huelskamp,(503) 285-9385,jhuelskamp@delasallenorth.org,Principal
139,Faith Bible Christian School,,,,,16860 SW Blanton St,Aloha,OR,97007.0,(503) 642-4112, Pre-12,,Mr,Jim,Cochran,(503) 642-4112,jim.cochran@faithkids.org,Superintendent
140,Milwaukie Covenant Preschool,12201 SE Linwood Ave,Milwaukie,OR,97222.0,12201 SE Linwood Ave,Milwaukie,OR,97222.0,(503) 654-4138, Pre-K,jmjarmoore@comcast.net,"Mrs
Ms",Maureen,Moore,,jmjarmoore@comcast.net,Director/Teacher
141,Bridges Academy,67030 Gist Rd,Bend,OR,97701.0,67030 Gist Rd,Bend,OR,97701.0,(541) 318-9345, 9-12,gayle@bridgesboysacademy.com,,Joan ,McOmber,,joan@bridgesboysacademy.com,Executive Director
142,Oregon State University Child Development Center,26th & Orchard,Corvallis,OR,97331.0,130 Bates Hall,Corvallis,OR,97331.0,(541) 737-2516, Pre,joanne.sorte@oregonstate.edu,Ms.,Joanne,Sorte,(541) 737-2516,joanne.sorte@oregonstate.edu,Director
143,North Clackamas Christian School,19575 Sebastian Way,Oregon City,OR,97045.0,19575 Sebastian Way,Oregon City,OR,97045.0,(503) 655-5961, Pre-12,,Mr,Joe,Morgan,(503) 655-5961,joe_morgan@ncchristianschool.com,Administrator
144,St Ignatius School,3330 SE 43rd Ave,Portland,OR,97206.0,3330 SE 43rd Ave,Portland,OR,97206.0,(503) 774-5533, K-8,johnm@stignatiusschool.org,Mr,John,Matcovich,(503) 774-5533,johnm@stignatiusschool.org,Principal
145,Salem Montessori School,2140 16th St NE,Salem,OR,97303.0,PO Box 7724,Salem,OR,97303.0,(503) 364-6615, Pre-K,kapila@salemmontessorischool.com,Mr,Kapila,Liyanage,(503) 364-6615,kapila@salemmontessorischool.com,Administrator
146,St John the Baptist School,10956 SE 25th Ave,Milwaukie,OR,97222.0,10956 SE 25th Ave,Milwaukie,OR,97222.0,(503) 654-0200, K-8,katievinc@netscape.net,Mrs,Kathleen,Vincent,(503) 654-0200,katievinc@netscape.net,Principal
147,St Paul Parish School,1201 Satre St,Eugene,OR,97401.0,1201 Satre St,Eugene,OR,97401.0,(541) 344-1401, Pre-8,kbraud@saintpaul-school.org,MS,Kelli,Braud,(541) 344-1401,kbraud@saintpaul-school.org,Principal
148,St John Lutheran School,1350 Court St NE,Salem,OR,97301.0,1350 Court St NE,Salem,OR,97301.0,(503) 588-0171, Pre-K,,Ms,Kelly,Crabtree,(503) 588-0171,kcrabtree_sjlc@hotmail.com,Administrator
149,West Hills Schools - Montessori and Elementary Programs,4920 SW Vermont St,Portland,OR,97219.0,4920 SW Vermont St,Portland,OR,97219.0,(503) 246-5495, Pre-K,tressieb@aol.com,Ms,Barbara,Bennink,(503) 246-5495,kehlbeck@hotmail.com,Teacher/Administrator
150,West Hills Schools-Montessori II Garden Home Campus,7475 SW Garden Home Rd,Portland,OR,97223.0,4920 SW Vermont St,Portland,OR,97219.0,(503) 246-5495, Pre-K,kehlbeck@hotmail.com,Ms,Mary Ann,Parker,(503) 246-5495,kehlbeck@hotmail.com,Teacher/Administrator
151,West Hills Schools-Montessori II Multnomah Campus,3824 SW Troy St,Portland,OR,97219.0,4920 SW Vermont St,Portland,OR,97219.0,(503) 246-5495, Pre-K,kehlbeck@hotmail.com,Ms,Barbara,Bennink,(503) 246-5495,kehlbeck@hotmail.com,Teacher/Administrator
152,Keizer Happy Days,481 Sunset Dr N,Keizer,OR,97303.0,PO Box 9220,Salem,OR,97305.0,(503) 393-4542, Pre-3,keizerhappydays@aol.com,Ms,Beverly,Johnson,(503) 393-4542,keizerhappydays@aol.com,Director
153,Gaarde Christian School,11265 SW Gaarde St,Tigard,OR,97224.0,11265 SW Gaarde St,Tigard,OR,97224.0,(503) 639-5336, Pre-8,kellie.h@tigardassembly.org,Mrs.,Kellie,Hooper,(503) 639-5336,kellie.h@tigardassembly.org,Administrator
154,"Klamath-Lake County Youth Ranch, Inc",5800 Happy Hollow Ln,Bonanza,OR,97623.0,5800 Happy Hollow Ln,Bonanza,OR,97623.0,(541) 545-6742, 9-12,,Mr,James,Yoder,,KFallsYthRanch@aol.com,Executive Director
155,Head Start of Lane Co-Bethel,1801 Echo Hollow Rd,Eugene,OR,97402.0,221 B St,Springfield,OR,97477.0,(541) 461-6401, Pre,,Mrs,Karen,Hamilton,(541) 747-2425,khamilton@head-start.lane.or.us,Program Director
156,Head Start of Lane Co-Holly,725 42nd St,Springfield,OR,97477.0,221 B St,Springfield,OR,97477.0,(541) 747-2425, Pre,,Mrs,Karen,Hamilton,(541) 747-2425,khamilton@head-start.lane.or.us,Program Director
157,Head Start of Lane Co-Cottage Grove,305 Coop Ct,Cottage Grove,OR,97424.0,221 B St,Springfield,OR,97477.0,(541) 747-2425, Pre,,Mrs,Karen,Hamilton,,khamilton@head-start.lane.or.us,Program Director
158,Head Start of Lane Co-Creswell Creslane Elem School Rm 2,996 W  A  St,Creswell,OR,97426.0,221 B St,Springfield,OR,97477.0,(541) 747-2425, Pre,,Mrs,Karen,Hamilton,,khamilton@head-start.lane.or.us,Program Director
159,Head Start of Lane Co-Howard,790 Howard Ave,Eugene,OR,97404.0,,,,,(541) 747-2425, Pre,khamilton@head-start.lane.or.us,Ms.,Karen,Hamilton,,khamilton@head-start.lane.or.us,Program Director
160,Head Start of Lane Co-Junction City,722 W 5th St,Junction City,OR,97477.0,221 B St,Springfield,OR,97477.0,(541) 747-2425, Pre,,Mrs,Karen,Hamilton,,khamilton@head-start.lane.or.us,Director
161,Head Start of Lane Co-Ross Lane,2648 Ross Ln,Eugene,OR,97402.0,221 B St,Springfield,OR,97477.0,(541) 607-5965, Pre,,Mrs,Karen,Hamilton,,khamilton@head-start.lane.or.us,Program Director
162,Head Start of Lane Co-The Park at Emerald Village,1950 N Second St,Springfield,OR,97477.0,221 B St,Springfield,OR,97477.0,(541) 746-9771, Pre,,Mrs,Karen,Hamilton,,khamilton@head-start.lane.or.us,Program Director
163,Head Start of Lane Co-University of Oregon,901 E 18th #157,Eugene,OR,97403.0,221 B St,Springfield,OR,97477.0,(541) 346-2646, Pre,,Mrs,Karen,Hamilton,,khamilton@head-start.lane.or.us,Program Director
164,Head Start of Lane Co-Village,320 W Fairview,Springfield,OR,97477.0,221 B St,Springfield,OR,97477.0,(541) 747-2425, Pre,,Mrs,Karen,Hamilton,,khamilton@head-start.lane.or.us,Program Director
165,Head Start of Lane Co-Whiteaker,21 N Grand,Eugene,OR,97402.0,221 B St,Springfield,OR,97477.0,(541) 343-7585, Pre,,,Karen,Hamilton,,khamilton@head-start.lane.or.us,Program Director
166,St Cecilia School,12250 SW 5th St,Beaverton,OR,97005.0,12250 SW 5th St,Beaverton,OR,97005.0,(503) 644-2619, K-8,,Ms,Kathy,Harp,(503) 644-2691,kharp@stcecilia.pvt.k12.or.us,Principal
167,Grant Avenue Baptist Preschool,1625 NW Grant Ave,Corvallis,OR,97330.0,1625 NW Grant Ave,Corvallis,OR,97330.0,(541) 758-0274, Pre,kim@grantavebc.com,,Kim,Osieczanek,,kim@grantavebc.com,Director
168,Kingsview Christian School,1850 Clark St,North Bend,OR,97459.0,1850 Clark St,North Bend,OR,97459.0,(541) 756-1411, Pre-12,kingsviewchristian@gmail.com,Ms,Rick,Wetherell,(541) 756-1411,kingsviewchristian@gmail.com,Superintendent
169,Laurelwood Adventist Elementary School,39300 SW Laurelwood Rd,Gaston,OR,97119.0,PO Box 39,Gaston,OR,97119.0,(503) 985-7289, K-9,laes7@juno.com,Mrs.,Kathy,Parish,(503) 985-7289,laes7@juno.com,Head Teacher
170,Crossroads Christian,2505 NE 102nd Ave,Portland,OR,97220.0,2505 NE 102nd Ave,Portland,OR,97220.0,(503) 254-1431, Pre-8,,,Larry,Whittlesey,(503) 254-1431,Larry.Whittlesey@Crossroadsportland.com,Principal
171,"The Next Door, Inc",The Klahre House,Hood River,OR,97031.0,PO Box 661,Hood River,OR,97031.0,(541) 386-5520, 7-12,larryj@nextdoorinc.org,Mr,Larry,James,(541) 386-5520,larryJ@nextdoorinc.org,Program Administrator
172,Sacred Heart School,515 7th St,Gervais,OR,97026.0,PO Box 215,Gervais,OR,97026.0,(503) 792-4541, K-8,,Ms,Lucy,Shindler,(503) 792-4541,lashindler@gervais.com,Principal
173,SCAR/Jasper Mountain Center,37875 Jasper-Lowell Rd,Jasper,OR,97438.0,37875 Jasper-Lowell Rd,Jasper,OR,97438.0,(541) 747-1235, Pre-8,,Mr,Milo,Holden,(541) 747-1235,lbholden@comcast.net,Coordinator
174,Chemawa Indian School,3700 Chemawa Rd NE,Salem,OR,97305.0,3700 Chemawa Rd NE,Salem,OR,97305.0,(503) 399-5721, 9-12,,Mr,Larry,Byers,(503) 399-5721,lbyers@bia.edu,Supervisor
175,Miss Muffet's Learning Center,2802 Altamont Dr,Klamath Falls,OR,97603.0,2802 Altamont Dr,Klamath Falls,OR,97603.0,(541) 884-8415, Pre-K,,Ms,Linda,Cook,(541) 884-8415,lcook@charterinternet.com,Director
176,The Dalles SDA School,3339 E 13th St,The Dalles,OR,97058.0,3339 E 13th St,The Dalles,OR,97058.0,(541) 296-2692, K-8,learnersinc@earthlink.net,Ms,Patricia,Perry,,learnersinc@earthlink.net,Head Teacher
177,Learning Link LLC,795 NE Lookout Ave,Prineville,OR,97754.0,795 NE Lookout Ave,Prineville,OR,97754.0,(541) 447-6814, K-12,learninglinkllc@msn.com,Ms,Leola,Hensley,(541) 447-6814,learninglinkllc@msn.com,Manager
178,Linfield Pre-Kindergarten School Unit V Linfield College,1045 S Davis,McMinnville,OR,97128.0,"900 SE Baker St, A482",McMinnville,OR,97128.0,(503) 883-2268, Pre,lelmer@linfield.edu,Ms,Lucetta,Elmer,,lelmer@linfield.edu,Director/Teacher
179,Salem Academy Elementary,255 College Dr NW B,Salem,OR,97304.0,255 College Dr NW B,Salem,OR,97304.0,(503) 378-1221, Pre-5,lgardner@salemacademy.org,Ms,Lois,Gardner,(503) 378-1221,lgardner@salemacademy.org,Principal
180,De Paul Treatment Centers Inc,4310 NE Killingsworth St,Portland,OR,97218.0,PO Box 3007,Portland,OR,97208.0,(503) 535-1150, 9-12,lindac@depaultreatmentcenters.org,,Linda,Craft-Coleman,(503) 535-1181,lindac@depaultreatmentcenters.org,Director of Youth Services
181,Eugene Christian School,2895 Chad Drive,Eugene,OR,97405.0,2895 Chad Drive,Eugene,OR,97405.0,(541) 686-9145, Pre-8,,Ms,Leo,Limoges,,Llimoges@eugenechristianschool.com,Principal
182,Christ the Vine Early Childhood Center,18677 SE Hwy 212,Clackamas,OR,97015.0,18677 SE Hwy 212,Clackamas,OR,97015.0,(503) 658-5650, Pre-K,,Mrs,Lori,Waetzig,(503) 658-5650,lori@christthevinelutheran.org,Director
183,Sylvan Learning Center #107,7809 SW Nyberg Rd,Tualatin,OR,97062.0,PO Box 1472,Tualatin,OR,97062.0,(503) 692-5080, K-12,,Ms,Lucille,VanHouten,(503) 692-5080,lucille@sylvantualatin.com,Owner
184,Maple Street Preschool,1610 Maple St,Lake Oswego,OR,97034.0,1610 Maple St,Lake Oswego,OR,97034.0,(503) 636-3579, Pre,,Ms,Peggy,Goldman,(503) 636-3579,maplest1@msn.com,Owner
185,CS Lewis Academy ,200 S College St,Newberg,OR,97132.0,P O Box 3250,Newberg,OR,97132.0,(503) 538-0114, Pre-12,highschool@cslewisacademy.com,Mr,Mike,McConaughey,,mcconaughey@cslewisacademy.com,Principal
186,Marylhurst Early Childhood Center,817 12th St,Oregon City,OR,97045.0,817 12th St,Oregon City,OR,97045.0,(503) 650-0978, Pre-K,,Ms,Cheryl,Forsberg,(503) 650-0978,mecc@pcez.com,Director
187,Grace Lutheran School,2252 SE 92nd Ave,Portland,OR,97216.0,2252 SE 92nd Ave,Portland,OR,97216.0,(503) 777-8628, Pre-8,mleitzke@grace-wels.net,Mr.,Mark,Leitzke,(503) 777-8628,mleitzke@grace-wels.net,Principal
188,St John the Apostle School,516 5th St,Oregon City,OR,97045.0,516 5th St,Oregon City,OR,97045.0,(503) 742-8230, Pre-8,mnagel@sja.pvt.ker.or.us,Ms,Machelle,Nagel,(503) 742-8230,mnagel@sja.pvt.k12.or.us,Principal
189,St Clare School,1807 SW Freeman,Portland,OR,97219.0,1807 SW Freeman,Portland,OR,97219.0,(503) 244-7600, K-8,,Sr,Maureen,Oliver,(503) 244-7600,moe@aracnet.com,Principal
190,Cascade Christian High School,525 East E,Jacksonville,OR,97530.0,525 East E,Jacksonville,OR,97530.0,(541) 899-2060, 9-12,mperry@gracechristian.org,Mr.,Mark,Perry,(541) 899-2060,mperry@gracechristian.org,Principal
191,Hosanna Christian School,5000 Hosanna Way,Klamath Falls,OR,97603.0,5000 Hosanna Way,Klamath Falls,OR,97603.0,(541) 882-7732, Pre-12,,Mr,Daniel,Dickey,(541) 882-7732,mrdickey@hosannachristian.org,Administrator
192,Rocking Horse Day School,15750 SW Upper Boones Ferry Rd,Lake Oswego,OR,97035.0,15750 SW Upper Boones Ferry Rd,Lake Oswego,OR,97035.0,(503) 639-0231, K,terry.meisenburg@providence.org,Mr.,Matt,Rotkowski,(503) 639-0231,mrotkowski@comcast.net,Administrator
193,Pilgrim Lutheran School,5650 SW Hall Blvd,Beaverton,OR,97005.0,5650 SW Hall Blvd,Beaverton,OR,97005.0,(503) 644-8697, Pre-8,mschuldheisz@pilgrimbeaverton.com,Ms,Mary,Schuldheisz,(503) 644-8697,mschuldheizs@pilgrimbeaverton.com,Principal
194,Oregon Museum of Science and Industry,1945 SE Water Ave,Portland,OR,97214.0,1945 SE Water Ave,Portland,OR,97214.0,(503) 797-4000, Pre-12,,Mr.,Mat,Sinclair,(503) 797-4000,msinclair@omsi.edu,President/Executive Director
195,Park Academy,17600 Pacific Hwy (Hwy 43),Marylhurst,OR,97036.0,P O Box 34,Marylhurst,OR,97036.0,(503) 697-6213, 1-12,msoule@parkacademy.org,Ms,Myrna,Soule,(503) 697-6213,msoule@parkacademy.org,Director of Education
196,KinderCare Learning Centers Inc,4600 NE Cornell Rd,Hillsboro,OR,97124.0,4600 NE Cornell Rd,Hillsboro,OR,97124.0,(503) 648-2443, Pre-K,,Ms.,Megan,Thrall,(503) 648-2443,mthrall@k1corp.com,Director
197,Eastmont Community School,62425 Eagle Rd,Bend,OR,97701.0,62425 Eagle Rd,Bend,OR,97701.0,(541) 382-2049, Pre-3,mwelch1020@aol.com,Ms,Michelle,Welch,(541) 382-5822,mwelch1020@aol.com,Director
198,CrossRoads School,400 Earhart,Medford,OR,97501.0,400 Earhart,Medford,OR,97501.0,(541) 770-1270, 6-12,mwolfe@crossroadscw.org,Mr,Mark,Wolfe,(541) 770-1270,mwolfe@crossroadscs.org,Principal
199,Life Christian School,5585 SW 209th Ave,Aloha,OR,97007.0,5585 SW 209th Ave,Aloha,OR,97007.0,(503) 259-1329, Pre-12,akronberger@lifeonweb.org,Mr,Adam,Kronberger,(503) 259-1329,nanderson@lifeonweb.org,Principal
200,Willow Learning Center,87898 Laporte Rd,Eugene,OR,97408.0,87898 Laporte Rd,Eugene,OR,97408.0,(541) 485-1770, Pre,ncomeau@comcast.net,Ms,Nathelle,Comeau,(541) 485-1770,ncomeau@comcast.net,Co-Director
201,Banks Christian Academy,22785 NW Fisher Rd,Buxton,OR,97109.0,22785 NW Fisher Rd,Buxton,OR,97109.0,(503) 324-4500, Pre-8,,Mrs,Norma,Heiser,(503) 324-4500,norma.heiser@bankschristianacademy.org,Principal
202,"Cobblestone Children's Center, LLC",63176 Watercress Way,Bend,OR,97701.0,63176 Watercress Way,Bend,OR,97701.0,(541) 318-5455, Pre-K,novagirl@bendcable.com,Mrs,Debi,Smith,(541) 318-5455,novagirl@bendcable.com,Owner/Director
203,Whole Child Montessori Center Inc,5909 SE 40th Ave,Portland,OR,97202.0,5909 SE 40th Ave,Portland,OR,97202.0,(503) 771-6366, Pre-K,,Ms,Nancy,Pribnow,(503) 771-6366,np4wcmc@aol.com,Administrator
204,Canyonville Christian Academy,250 E First St,Canyonville,OR,97417.0,PO Box 1100,Canyonville,OR,97417.0,(541) 839-4401, 7-12,,Ms,Noel,Schaak,(541) 839-4401,nschaak@canyonville.net,Principal
205,Gresham United Methodist Preschool,620 NW 8th,Gresham,OR,97030.0,620 NW 8th,Gresham,OR,97030.0,(503) 665-1192, Pre,,Ms,Christy,Benoit,,office.gumc@frontier.com,Director of Education
206,Albany Christian School,420 3rd Ave SE,Albany,OR,97321.0,420 3rd Ave SE,Albany,OR,97321.0,(541) 928-1110, Pre-8,,Ms,Katie,Miller,(541) 928-1110,office@albanychristianschool.org,Principal
207,All Saints School,601 NE 39th,Portland,OR,97232.0,601 NE 39th,Portland,OR,97232.0,(503) 236-6205, Pre-8,,Ms,"Barbara ""Rose""",Rosinski,(503) 236-6205,office@allsaintsportland.org,Principal
208,St Francis School,15643 SW Oregon St,Sherwood,OR,97140.0,15643 SW Oregon St,Sherwood,OR,97140.0,(503) 625-0497, K-8,,Mr,Michael,Cantu,(503) 625-0497,office@stfrancissherwood.org,Principal
209,Oregon Outreach Inc The Gladys McCoy Academy,3802 NE Martin Luther King Jr Blvd,Portland,OR,97212.0,3802 NE Martin Luther King Jr Blvd,Portland,OR,97212.0,(503) 281-9597, 9-12,000ibecky@gmail.com,Ms,Rebecca,Black,(503) 281-9597,oo1becky@gmail.com,Director
210,Pacific Christian School,2203 4th St,Tillamook,OR,97141.0,PO Box 347,Tillamook,OR,97141.0,(503) 842-4727, K-6,pacificchristian@oregoncoast.com,Mr,Harry,Hewitt,(503) 842-4727,pacificchristian@oregoncoast.com,Principal
211,Catlin Gabel School,8825 SW Barnes Rd,Portland,OR,97225.0,8825 SW Barnes Rd,Portland,OR,97225.0,(503) 297-1894, Pre-12,,Mr,Lark,Palma,(503) 297-1894,palmal@catlin.edu,Head of School
212,The Childrens Hour Academy,14790 SW Boones Ferry Rd,Lake Oswego,OR,97035.0,14790 SW Boones Ferry Rd,Lake Oswego,OR,97035.0,(503) 635-2139, Pre-5,pat@childrens-home.com,Mrs,Patricia,Thomas,(503) 635-2139,pat@childrens-hour.com,Executive Director
213,St Mary's Academy,1615 SW 5th Ave,Portland,OR,97201.0,1615 SW 5th Ave,Portland,OR,97201.0,(503) 228-8306, 9-12,,Mrs,Patricia,Barr,(503) 228-8306,path@stmaryspdx.org,Principal
214,Pathfinder Academy,8010 N Charleston Ave,Portland,OR,97203.0,8010 N Charleston Ave,Portland,OR,97203.0,(503) 307-2270, 9-12,pathfinderacademy@yahoo.com,Mr,Ely,Sanders,(503) 330-7227,pathfinderacademy@yahoo.com,Director
215,Sonshine Express Preschool Mountain Park Church,40 McNary Parkway,Lake Oswego,OR,97035.0,40 McNary Parkway,Lake Oswego,OR,97035.0,(503) 635-3761, Pre-K,pattyh@mtnparkchurch.org,Ms,Patricia,Hottmann,(503) 635-3761,pattyh@mtnparkchurch.org,Director
216,McMinnville Adventist Christian School,1349 Elm St,McMinnville,OR,97128.0,1349 Elm St,McMinnville,OR,97128.0,(503) 472-3336, K-8,paul@macschool.org,,Shawn,Plafker,(503) 472-3336,paul@macschool.org,Principal
217,St Paul Lutheran Church School/Child Care,750 W Keady Ct,Roseburg,OR,97470.0,750 W Keady Ct,Roseburg,OR,97470.0,(541) 673-7982, Pre-8,peter.anderson@stpaul-roseburg.org,Mr,Peter,Anderson,(503) 673-7212,peter.anderson@stpaul-roseburg.org,Principal
218,Montessori School of Beaverton Ltd,11065 NW Crystal Creek Ln,Portland,OR,97229.0,11065 NW Crystal Creek Ln,Portland,OR,97229.0,(503) 439-1597, Pre-6,peter@msb.org,Mr,Peter,Davidson,,peter@msb.org,Administrator
219,Celebration Academy of the Performing Arts,8202 N Denver,Portland,OR,97217.0,PO BOX 17475,Portland,OR,97217.0,(503) 737-2272, Pre-8,capa@ctoregon.org,Ms,Karen,Leighton,(503) 285-7234,pleighton@ctoregon.org,Director
220,Marist High School,1900 Kingsley Rd,Eugene,OR,97401.0,1900 Kingsley Rd,Eugene,OR,97401.0,(541) 686-2234, 9-12,pmartin@marisths.org,Mr,Perry,Martin,(541) 686-2234,pmartin@marisths.org,Principal
221,Redeemer Lutheran Preschool,4663 Lancaster Dr NE,Salem,OR,97305.0,4663 Lancaster Dr NE,Salem,OR,97305.0,(503) 393-7121, Pre,pmhane@comcast.net,Ms,Patricia,Haneberg,,pmhane@comcast.net,Board Chairman
222,Sonrise Christian School dba Sisters Christian Academy,15211 McKinney Butte Rd,Sisters,OR,97759.0,PO Box 1103,Sisters,OR,97759.0,(541) 549-4133, Pre-8,pmiller@sisterschristianacademy.com,Ms,Peggy,Miller,(541) 543-4133,pmiller@sonrisechristianschool.com,Administrator
223,Horizion Christian Schools,7400  SW Sagert St,Tualatin,OR,97062.0,P O Box 4190,Tualatin,OR,97062.0,(503) 692-9312, Pre-12,btinnin@horizoncampus.org,Ms,Pam,Pries,(503) 692-9312,ppries@gcc-tualatin.org,Principal
224,Sacred Heart Catholic School,431 S Ivy,Medford,OR,97501.0,431 S Ivy,Medford,OR,97501.0,(541) 772-4105, Pre-8,preeder@shcs.org,,Patrick,Reeder,(541) 772-4105,preeder@shes.org,Principal
225,Cedar Hills Kindergarten & Preschool,11695 SW Parkway,Portland,OR,97225.0,PO Box 219006,Portland,OR,97225.0,(503) 643-9010, Pre-K,,Ms.,Erika,Hammond,(503) 649-4759,president@cedarhillskp.org,President
226,Archbishop Howard School,5309 NE Alameda,Portland,OR,97213.0,5309 NE Alameda,Portland,OR,97213.0,(503) 281-1912, Pre-8,principal@archbishophoward.org,Ms,Karen,Asbury,(503) 281-1912,principal@archbishophoward.org,Principal
227,Christ The King Parish School,7414 SE Michael Dr,Milwaukie,OR,97222.0,7414 SE Michael Dr,Milwaukie,OR,97222.0,(503) 654-0601, K-8,office@ctkweb.org,Mr,Michael,Doran,(503) 785-2411,principal@ctkweb.org,Principal
228,Emerald Christian Academy,35582 Zephyr Way,Pleasant Hill,OR,97455.0,35582 Zephyr Way,Pleasant Hill,OR,97455.0,(541) 746-1708, K-12,principal@emeraldchristianacademy.org,Mr,Jason,Strack,(541) 746-1708,principal@emeraldchristianacademy.org,Principal
229,Islamic School of Portland,10323 SW 43rd Ave,Portland,OR,97219.0,PO BOX 19895,Portland,OR,97280.0,(503) 244-9607, Pre-8,principal@ispdx.org,,Najah,Abdul-Jawad,(503) 244-9607,principal@ispdx.org,Principal
230,Life Lutheran School,710 E 17th Ave,Eugene,OR,97401.0,710 E 17th Ave,Eugene,OR,97401.0,(541) 342-5433, Pre-8,,Mr,Tim,Adsit,(541) 342-5433,principal@lifeschool.us,Principal
231,Regis High School,550 W Regis St,Stayton,OR,97383.0,550 W Regis St,Stayton,OR,97383.0,(503) 769-2159, 9-12,principal@regishighschool.net,Mr,douglas,Ierardi,(503) 769-2159,principal@regishighschool.net,Principal
232,St James Catholic School,206 NE Kirby St,McMinnville,OR,97128.0,206 NE Kirby St,McMinnville,OR,97128.0,(503) 472-2661, Pre-5,principal@stjamescatholicschool.org,Mrs.,Kelly,Cromwell,(503) 472-2661,principal@saintjamescatholicschool.org,Principal
233,St Joseph School,373 Winter St NE,Salem,OR,97301.0,373 Winter St NE,Salem,OR,97301.0,(503) 581-2147, K-6,principal@stjosephsalem.org,Mrs,Mari,Brooks,,principal@stjosephsalem.org,Principal
234,Trinity Lutheran,5520 NE Killingsworth,Portland,OR,97218.0,5520 NE Killingsworth,Portland,OR,97218.0,(503) 288-6403, Pre-8,principal@trinityportland.org,Mr,James,Riedl,(503) 288-6403,principal@trinityportland.org,Principal
235,Visitation Catholic School,4189 NW Visitation Rd,Forest Grove,OR,97116.0,4189 NW Visitation Rd,Forest Grove,OR,97116.0,(503) 357-6990, K-8,principal@vcsknights.org,Mr,Ted,Havens,(503) 357-6990,principal@vcsknights.org,Principal
236,Bethesda Lutheran Preschool,4445 Royal Ave,Eugene,OR,97402.0,4445 Royal Ave,Eugene,OR,97402.0,(541) 688-9085, Pre,,Ms,Bobbie,Clark,(541) 688-9085,psdirbobbie@comcast.net,Director
237,Patterson Preschool,1717 City View #4,Eugene,OR,97405.0,1717 City View #4,Eugene,OR,97405.0,(541) 345-0515, Pre,pumpkin@msn.com,Ms,Nikki,Siegel,(503) 345-0515,pumpkin@msn.com,Board Chairman
238,Tongue Point Job Corps Center,37573 Old Hwy 30,Astoria,OR,97103.0,37573 Old Hwy 30,Astoria,OR,97103.0,(503) 325-2131, 9-12,pyburn.nancy@jobcorps.org,Ms,Nancy,Pyburn,,pyburn.nancy@jobcorps.org,Center Director
239,Teaching Research Child Development Center,345 N Monmouth Ave,Monmouth,OR,97361.0,345 N Monmouth Ave,Monmouth,OR,97361.0,(503) 838-8769, Pre,raabm@wou.edu,Ms,Amanda,Raab,(503) 838-8769,raabm@wou.edu,Director
240,J Bar J Learning Centers - Boys Ranch Campus,62895 Hamby Rd,Bend,OR,97701.0,62895 Hamby Rd,Bend,OR,97701.0,(503) 389-1409, 8-12,rbuening@jbarj.org,Mr,Rick,Buening,(541) 389-1409,rabuening@bendbroadband.com,Director of Education
241,Milo Adventist Academy,324 Milo Dr,Days Creek,OR,97429.0,324 Milo Dr,Days Creek,OR,97429.0,(541) 825-3200, 9-12,randy.bovee@miloacademy.org,,Randall,Bovee,(541) 825-3200,randy.bovee@miloacademy.org,Principal
242,J Bar J Learning Centers - Sisters Academy Campus,63325 Silvis Rd,Bend,OR,97701.0,63325 Silvis Rd,Bend,OR,97701.0,(503) 389-1409, 8-12,rbuening@jbarj.org,Mr,Rick,Buening,,rbuening@jbarj.org,Director of Education
243,Mt Hood Community College Head Start-Russellville Site,10420 E Burnside,Portland,OR,97216.0,10100 NE Prescott,Portland,OR,97220.0,(503) 262-8710, Pre,,Ms,Roberta,Recken,,reckenr@mhcc.edu,Site Coordinator
244,Central Catholic High School,2401 SE Stark St,Portland,OR,97214.0,2401 SE Stark St,Portland,OR,97214.0,(503) 235-3138, 9-12,redwards@centralcatholichigh.org,Mr.,Ronald,Edwards,(503) 235-3138,redwards@centralcatholichigh.org,Principal
245,St Mary School,1066 N 6th Ave,Stayton,OR,97383.0,1066 N 6th Ave,Stayton,OR,97383.0,(503) 769-2718, Pre-8,rick.schindler@stmary-cs.org,Mr,Richard,Schindler,(503) 769-2718,rick.schindler@stmary-cs.org,Principal
246,Roseburg Junior Academy,1653 NW Troost,Roseburg,OR,97470.0,1653 NW Troost,Roseburg,OR,97470.0,(541) 673-5278, Pre-10,,Mr,Thomas,Harder,(541) 673-5278,rjaadmin@rosenet.net,Principal
247,Grace Christian School,649 Crater Lake Ave,Medford,OR,97504.0,649 Crater Lake Ave,Medford,OR,97504.0,(541) 772-1438, Pre-8,,Mr,M,Johnson,(541) 772-1438,rjohnson@gracechristian.org,Superintendent/Administrator
248,Grants Pass Adventist School,2250 NE Heidi Ln,Grants Pass,OR,97526.0,2250 NE Heidi Ln,Grants Pass,OR,97526.0,(541) 479-2293, Pre-10,rknauff@gpsdaschool.com,Mr,Roger,Knauff,(541) 479-2293,rknauff@gpsdaschool.com,Principal
249,South Lane Christian School,77820 Mosby Cr Rd,Cottage Grove,OR,97424.0,P O Box 698,Cottage Grove,OR,97424.0,(541) 942-0123, 1-12,rloyd@southlanecs.com,Mr,Randy,Loyd,(541) 942-0123,rloyd@southlanecs.com,Principal
250,Portland Waldorf School,2300 SE Harrison St,Milwaukie,OR,97222.0,2300 SE Harrison St,Milwaukie,OR,97222.0,(503) 654-2200, Pre-12,robert.cseko@portlandwaldorfschool.org,Mr.,Robert,Cseko,(503) 654-2200,robert.cseko@portlandwaldorfschool.org,Director
251,McKenzie River Christian School,45581 Vida Park Ln,Vida,OR,97488.0,PO Box I,Vida,OR,97488.0,(541) 896-0554, K-12,,Mr,Russ,Conklin,(541) 896-0554,russgayledee@aol.com,Administrator
252,SCDC-Forest Ridge Site,7905 June Reid Pl NE,Keizer,OR,97303.0,PO Box 7422,Salem,OR,97303.0,(503) 363-9821, Pre,scdcoffice@earthlink.net,Mrs,Sharon,Thompson,(503) 363-9821,scdcoffice@earthlink.net,Executive Director
253,Stayton Christian School,189 E Washington St,Stayton,OR,97383.0,189 E Washington St,Stayton,OR,97383.0,(503) 769-7578, Pre-8,,Mr,Tom,Truka,(503) 769-7578,scelem@wui.com,Administrator
254,Agia Sophia Academy,3131 NE Glisan St,Portland,OR,97232.0,3131 NE Glisan St,Portland,OR,97232.0,(503) 234-7031, Pre-6,schor@agiasophiaacademy.org,,Ingrid,Schor,(503) 234-9031,schor@agiasophiaacademy.org,Head of School
255,Westside Christian High School,4565 Carman Dr,Lake Oswego,OR,97035.0,4565 Carman Dr,Lake Oswego,OR,97035.0,(503) 697-4711, 9-12,,Mr,Andrew,Sears,(503) 697-4711,sears@westsidechristianhs.org,Administrator
256,Salem Christian Day School,1550 Market St NE,Salem,OR,97301.0,1550 Market St NE,Salem,OR,97301.0,(503) 375-2620, Pre-K,scds@salemnaz.org,Ms,Martha,Applegate,(503) 375-2620,seds@salemnaz.org,Director
257,Full Circle Countryside School,16077 SE Hwy 224,Clackamas,OR,97015.0,PO Box 811,Beavercreek,OR,97004.0,(503) 658-4350, Pre-8,shelley@fullcircleschool.org,Ms,Shelley,Urben,(503) 658-4350,shelley@fullcircleschool.org,Director
258,Silverton Christian School,229 Eureka Ave,Silverton,OR,97381.0,PO Box 338,Silverton,OR,97381.0,(503) 873-5131, Pre-8,,Mr,Jim,Farmer,(503) 873-5131,silvertonchristianschool@verizon.net,Administrator
259,Asante Child Development Riverside,945 S Riverside,Medford,OR,97501.0,945 S Riverside,Medford,OR,97501.0,, Pre,skline@asante.org,Ms,Sue,Kline,,skline@asante.org,Manager
260,Asante Child Development Services Jefferson Elementary,311 Holmes Ave,Medford,OR,97501.0,945 S Riverside,Medford,OR,97501.0,(541) 608-5252, Pre,skline@asante.org,Ms,Sue,Kline,,skline@asante.org,Manager
261,Asante Child Development Services Stewart,905 Stewart Ave,Medford,OR,97501.0,945 S Riverside,Medford,OR,97501.0,(541) 608-5252, Pre,skline@asante.org,Ms,Sue,Kline,,skline@asante.org,Manager
262,Asante Child Development Services White City,2830 Maple Ct,White City,OR,97503.0,945 S Riverside,Medford,OR,97501.0,(541) 608-5252, Pre,skline@asante.org,Ms,Sue,Kline,,skline@asante.org,Manager
263,Lents Education Center,4905 SE Woodstock,Portland,OR,97206.0,4905 SE Woodstock,Portland,OR,97206.0,(503) 771-7508, 7-12,,Mrs,Sue,Mowry,,smowry@JYP.org,Program Director
264,Tucker-Maxon Oral School,2860 SE Holgate Blvd,Portland,OR,97202.0,2860 SE Holgate Blvd,Portland,OR,97202.0,(503) 235-6551, Pre-5,snoyce@tmor.org,Mr,Steve,Noyce,(503) 235-6551,snoyce@tmor.org,Executive Director
265,St Paul Parochial School,20327 Christie St,St Paul,OR,97137.0,PO Box 188,St Paul,OR,97137.0,(503) 633-4622, Pre-12,spps@stpaultel.com,Mr,Charles,Geis,(503) 633-4622,spps@stpaultel.com,Principal
266,Solid Rock Christian School,Christmas Valley Rd,Christmas Valley,OR,97641.0,PO Box 745,Christmas Valley,OR,97641.0,(541) 576-2895, K-12,srcs@acninc.net,Ms,Dell,Wilson,(541) 576-2895,srcs@acninc.net,Principal/Teacher
267,Jesuit High School,9000 SW Beaverton Hwy,Portland,OR,97225.0,9000 SW Beaverton Hwy,Portland,OR,97225.0,(503) 292-2663, 9-12,,Ms,Sandra,Satterberg,(503) 292-2663,ssatterberg@jesuitportland.com,Principal
268,The Madeleine School,3240 NE 23rd Ave,Portland,OR,97212.0,3240 NE 23rd Ave,Portland,OR,97212.0,(503) 288-9197, K-8,ssteele@the madeleine.edu,Ms,Susan,Steele,(503) 288-9197,ssteele@themadelein.edu,Principal
269,St Therese School,1260 NE 132nd Ave,Portland,OR,97230.0,1260 NE 132nd Ave,Portland,OR,97230.0,(503) 253-9400, K-8,,Sr,Kathleen,Cordes,(503) 253-9400,st.therese@comcast.net,Principal
270,St Vincent DePaul School,1015 Columbia St NE,Salem,OR,97301.0,1015 Columbia St NE,Salem,OR,97301.0,(503) 363-8457, Pre-6,st.vprincipal@comcast.net,Mrs,Ruth,Whitnah,(503) 363-8457,st.viprincipal@comcast.net,Principal
271,"Sagewalk, The Wilderness School",PMB 333 1604 S Hwy 97 Ste 2,Redmond,OR,97756.0,PMB 333 1604 S Hwy 97 Ste 2,Redmond,OR,97756.0,(541) 316-4800, 8-12,larrys@sagewalk.com,Mr.,Stephen,Moroukian,(541) 316-4800,stevem@sagewalk.com,Director
272,St Mary's Catholic School,815 S Broadalbin St,Albany,OR,97321.0,815 S Broadalbin St,Albany,OR,97321.0,(541) 928-7474, K-8,stmarysch@proaxis.com,Mrs,Christina,Meadows,(541) 928-7474,stmarysch@proaxis.com,Principal
273,St Matthew Elementary School,221 SE Walnut St,Hillsboro,OR,97123.0,221 SE Walnut St,Hillsboro,OR,97123.0,(503) 648-2512, Pre-8,stmatthewprincipal@yahoo.com,Mrs.,Elizabeth,Moore-Mullen,(503) 648-2512,stmatthewprincipal@yahoo.com,Principal
274,St Thomas' Episcopal Preschool,1465 Coburg Rd,Eugene,OR,97401.0,1465 Coburg Rd,Eugene,OR,97401.0,(541) 484-0682, Pre,,Ms,Patricia,Lyon,(541) 484-0682,stthomaspreschool@netscape.com,Director
275,St Thomas Academy,1720 NW 19th St,Redmond,OR,97756.0,1720 NW 19th St,Redmond,OR,97756.0,(541) 923-0597, Pre-1,stthomasschool@aol.com,Supt,Roger,Richmond,(541) 923-0597,stthomasschool@aol.com,Superintendent
276,Childpeace Montessori Community School,1516 NW Thurman St,Portland,OR,97209.0,1516 NW Thurman St,Portland,OR,97209.0,(503) 222-1197, Pre-6,sue@childpeace.org,Ms,Sue,Pritzker,(503) 222-1197,sue@childpeace.org,Administrator
277,Clackamas County Children's Commission,16491 S Springwater Rd,Oregon City,OR,97045.0,16491 S Springwater Rd,Oregon City,OR,97045.0,(503) 631-8035, Pre,suee@cccchs.org,Ms,Sue,Elder,(503) 631-8035,suee@cccchs.org,Director
278,St John Fisher School,7101 SW 46th Ave,Portland,OR,97219.0,7101 SW 46th Ave,Portland,OR,97219.0,(503) 246-3234, K-8,sueh@sjfschool.org,,Sue,Harris,(503) 246-3234,sueh@sjfschool.org,Principal
279,St Mark Child Development Center,790 Marion NE,Salem,OR,97301.0,790 Marion NE,Salem,OR,97301.0,(503) 588-0141, Pre-K,summers4@open.org,Ms,Maureen,Summers,(503) 588-0141,summers4@open.org,Director
280,West Lake Montessori School,16106 SW Lake Forest Blvd,Lake Oswego,OR,97035.0,,,,,(503) 635-1493, Pre-K,sunny@westlakemontessorischool.com,Mrs.,Sunny,Kim,(503) 635-1493,sunny@westlakemontessorischool.com,Director
281,Sunrise Montessori School,22100 SW Grahams Ferry Rd,Tualatin,OR,97062.0,22100 SW Grahams Ferry Rd,Tualatin,OR,97062.0,(503) 885-1460, Pre-K,,Mrs,Katherine (Katie),Schmidt,(503) 885-1460,sunriseMschool@comcast.net,President
282,Oak Tree School,1625 Elm St,Forest Grove,OR,97116.0,PO Box 828,Forest Grove,OR,97116.0,(503) 357-4703, Pre-8,,Mrs,Susan,Rufai,(503) 357-4703,susan@oaktreeschool.org,Director
283,Klamath Falls SDA School,2499 Main St,Klamath Falls,OR,97601.0,2499 Main St,Klamath Falls,OR,97601.0,(541) 882-4151, K-12,,Ms,Susan,Meserall,(541) 882-4151,susan@teachersusan.net,Head Teacher
284,The Warner School,760 NW Hill Ave,Roseburg,OR,97470.0,760 NW Hill Ave,Roseburg,OR,97470.0,(541) 672-7761, 6-12,,Ms,Susan,Buell,(541) 672-7761,susan@ute1stop.org,Vice-President
285,YES House Alternative School,404 NW 23rd St,Corvallis,OR,97330.0,518 SW 3rd St,Corvallis,OR,97330.0,(541) 753-7801, 7-12,tanyapritt@msn.com,Ms,Tanya,Pritt,(541) 753-7801,tanyampritt@msn.com,Program Manager
286,LaSalle High School,11999 SE Fuller Rd,Milwaukie,OR,97222.0,11999 SE Fuller Rd,Milwaukie,OR,97222.0,(503) 659-4155, 9-12,,Mr,Thomas,Dudley,(503) 659-4155,tdudley@lshigh.org,Principal
287,Star of the Sea School,1411 Grand Ave,Astoria,OR,97103.0,1411 Grand Ave,Astoria,OR,97103.0,(503) 325-3771, K-8,,Dr,Terry,Campbell,(541) 325-3771,tecampbell@archdpdx.org,Principal
288,Gately Academy,205 NE 50th ,Portland,OR,97213.0,205 NE 50th ,Portland,OR,97213.0,(503) 215-2672, 5-8,fsalkin@providence.org,,Terry,Meisenburg,(503) 215-2672,terry.meisenburg@providence.org,Director
289,Community Services Consortium Lebanon Learning Opportunities Center,380 Market St,Lebanon,OR,97355.0,380 Market St,Lebanon,OR,97355.0,(541) 451-1071, 8-12,tgreenman@csc.gen.or.us,Ms,Tanarae,Greenman,(541) 451-1071,tgreenman@csc.gen.or.us,Principal
290,St Pius X School,1260 NW Saltzman Rd,Portland,OR,97229.0,1260 NW Saltzman Rd,Portland,OR,97229.0,(503) 644-3244, K-8,thompsonm@stpiusx-pdx.org,Ms,Mary,Thompson,(541) 644-3244,thompsonm@stpiusx-pdx.org,Principal
291,Damascus Christian School,14251 SE Rust Way,Damascus,OR,97089.0,14251 SE Rust Way,Damascus,OR,97089.0,(503) 658-4100, K-12,timoakley@damascuscc.org,Mr,Tim,Oakley,(503) 658-4100,timoakley@damascuscc.org,Administrator
292,Tree of Knowledge,24457 SE Stark St,Gresham,OR,97030.0,,,,,(503) 666-6654, Pre,tok97030@earthlink.net,Ms,Debbie,Curtis,,tok97030@earthlink.net,Director
293,Country Christian School,16975 S Hwy 211,Molalla,OR,97038.0,16975 S Hwy 211,Molalla,OR,97038.0,(503) 829-5503, Pre-12,tom&cheri@the-countrychurch.org,Mr.,Thomas,Axmaker,(503) 829-5503,tom&cheri@the-countrychurch.org,Principal
294,Lifegate School,1052 Fairfield Avenue,Eugene,OR,97402.0,1052 Fairfield Avenue,Eugene,OR,97402.0,(541) 689-5847, Pre-12,to@lifegatechristian.org,Mr,Tom,Gregersen,(541) 689-5847,tom@lifegatechristian.org,Administrator
295,West Hills Schools Montessori & Elem Prog-Lake Oswego,4515 Parkview Dr,Lake Oswego,OR,97035.0,4920 SW Vermont St,Portland,OR,97219.0,(503) 246-5495, Pre-K,tressieb@aol.com,Ms,Anne,Blickenstaff,(503) 246-5495,tressieb@aol.com,Administrator
296,Grace Christian School,649 Crater Lake Ave,Medford,OR,97504.0,649 Crater Lake Ave,Medford,OR,97504.0,(541) 772-1438, Pre-8,,,Terry,Roehl,(541) 772-1438,troehl@gracechristian.org,Principal
297,Treasure Valley Christian School,386 N Verde Dr,Ontario,OR,97914.0,386 N Verde Dr,Ontario,OR,97914.0,(541) 889-4662, Pre-8,,Mr,Roger,Stramel,(541) 889-4662,tvcs@fmtc.com,Principal
298,Unity School Inc,580 N Garden Way,Eugene,OR,97401.0,580 N Garden Way,Eugene,OR,97401.0,(541) 484-0107, Pre-K,bartonunity@comcast.net,Ms,Carol,Barton,,unityschool@peak.org,Executive Director
299,Outside In,1132 SW 13th Ave,Portland,OR,97205.0,1132 SW 13th Ave,Portland,OR,97205.0,(503) 535-3813, 9-12,vivians@outsidein.org,Ms,Vivian,Scott,(503) 535-3813,vivians@outsidein.org,Coordinator
300,Willamette Christian School,2707 Maranatha Ct SE,Turner,OR,97392.0,2707 Maranatha Ct SE,Turner,OR,97392.0,(503) 391-9082, K-8,,Mr,Jerry,Huhn,(503) 391-9082,wcseagles@willamettechristianschool.org,Principal
301,Angell Civilian Conservation Center,335 NE Blodgett Rd,Yachats,OR,97498.0,335 NE Blodgett Rd,Yachats,OR,97498.0,(541) 547-5604, 9-12,whankins@fs.fed.us,Mr.,Wesley,Hankins,(541) 547-5604,whankins@fs.fed.us,Principal/Teacher
302,Willamette Valley Christian School,9075 Pueblo Ave NE,Brooks,OR,97305.0,PO Box 9088,Brooks,OR,97305.0,(503) 393-5236, K-12,,Mr,Gary,Glassco,(503) 393-5236,wvcsoffice@familysafeweb.net,Administrative Principal
303,FCI/FPC/FDC Sheridan Education Dept,27072 Ballston Rd,Sheridan,OR,97378.0,PO Box 8000,Sheridan,OR,97378.0,(503) 843-4442, Nongraded,wxxbrown@bop.gov,Mr,William,Brown Jr,(503) 843-4442,wxxbrown@bop.bov,Principal
304,Zion Lutheran School,2800 NW Tyler,Corvallis,OR,97330.0,2800 NW Tyler,Corvallis,OR,97330.0,(541) 753-7503, Pre-8,zionschool@proaxis.com,Mr,Vincent,Straub,(541) 753-7503,zionschool@proaxis.com,Principal
305,,,,,,,,,,,,,,,,,,
306,,,,,,,,,,,,,,,,,,
