"School Name","Address","City","ST","Zip","County","School #","Contact Person","Phone","Grade Span","# of Students","# of Teachers","E-mail",
"Christian Outreach Academy","535 Oak Ridge Turnpike; PO Box 6139","Oak Ridge","TN","37830","Anderson","9022","Alan Kloefkorn","(865) 481-2519","K-12","72","1","coaor@comcast.net"
"Norris Academy - Camelot Schools","17 Ridgeway Road","Norris","TN","37828","Anderson","9025","Johanna Humphrey Ph.D.","(865) 494-5554","1-12","34","3","jhumphrey@camelotforkids.org"
"Montessori School of Oak Ridge","728 Emory Valley Road, Room #24","Oak Ridge","TN","37830","Anderson","9005","Nafis Ally","(865) 482-5036","Pre K","3","1","mrally@comcast.net"
"St. Mary's School","323 Vermont Avenue","Oak Ridge","TN","37830","Anderson","9010","Sr. Anne Catherine, O.P.","(865) 483-9700","PreK-8","208","21","secretary@stmarysoakridge.org; anne999@aol.com"
"Christian Chapel Academy","1218 B. West Jackson Street; PO Box 906","Shelbyville","TN","37162","Bedford","9020","Donna Warren","(931) 680-1893","K-12","5","1","donnaw931@yahoo.com"
"Victory Baptist Academy","2000 North Main","Shelbyville","TN","37160","Bedford","9090","Lyn Warren","(931) 684-8115","K5-12","95","11","lynwarren@charter.net"
"Sequatchie Valley International Preparatory Academy (SVIPA)","1050 Ray Hixson Road","Dunlap","TN","37327","Bledsoe","9010","Robert Young or Tammy Young","(423) 554-4677","1-12","26",,"info@svpacademy.com"
"Apostolic Christian Academy","1723 William Blount Drive","Maryville","TN","37801","Blount","9006","Cherie Johnson","865.984.0046","K-12","150","12","acaprincipal@hotmail.com"
"New Horizon Montessori School","913 E. Cumberland Drive","Louisville","TN","37777","Blount","9025","Aleta Ledendecker","(865) 970-4322","PK-6","22","2","aletaledendecker@earthlink.net"
"Lake Brook Academy Maryville, Blount Co.","1012 East Lamar Pkwy","Maryville","TN","37804","Blount","9050","Philip M. Dampf III, M.S.","865.681.0552","7-12","12","1","arhea@child-family.org"
"Gateway Center (Helen Ross McNabb)","3845 Holston College Road","Louisville","TN","37777","Blount","9020","Brandon Byrd","(865) 524-5757","7-12 NG","24","2","Brandon.byrd@mcnabb.org"
"The Village School (formerly Peninsula Village School)","PO Box 100, Jones Bend Road","Louisville","TN","37777","Blount","9015","David R. Humphrey","(865) 970-1804","7-12","83","8","dhumphrey@peninsulavillageschool.com"
"Cleveland Christian School","695 South Ocoee Street","Cleveland","TN","37311","Bradley","9022","Linda King","(423) 476-2642","K4-12","98","11","ccslking@aol.com   "
"Bachman Academy","414 Brymer Creek Road","McDonald","TN","37353","Bradley","9004","Paul A Jette","(423) 479-4523","6-12","48","10","info@bachmanacademy.org"
"Montessori Kinder ","500 Tasso Lane","Cleveland","TN","37312","Bradley","9035","Brigitta Hoeferle","(423) 479-7282","Pre-K","33","5","info@montessorikinder.com"
"Landmark Christian School","1802 Lois Street","Cleveland","TN","37311","Bradley","9051","Ron Hyde","(423) 478-1545","K4-12","56","3","lhyde@landmarkchurch.com"
"First Baptist Weekday Ministry","4100 Stephens Road NE","Cleveland","TN","37312","Bradley","9025","Kami Dillon","(423) 472-5001","K","16","1","ntorchick@clevelandfbc.com"
"Shenandoah Baptist Academy","138 Osment Rd., P.O. Box 5207","Cleveland","TN","37320","Bradley","9080","Robert Nelms & Josh Grubbs","(423) 339-0992","PreK-12","129","12","school_office1@yahoo.com"
"Christian Academy of Campbell County ","2709 General Carl W. Stiner Hwy","LaFollette","TN","37766","Campbell","9005","Donnie Poston","(423) 566-5294","PreK-8","124","15","swilloughbyc@comcast.net"
"Carroll Academy","625 High Street","Huntingdon","TN","38344","Carroll","9012","Tara Wade","(731) 986-1350","6-12","66","6","twade@carroll.tn.org",
"Pleasant View Montessori","258 Village Sq. Ste. 100","Pleasant View","TN","37146","Cheatham","9011","Diana Martin","615.497.3569","PreK-K","10","1","pleasantviewmontessori@gmail.com"
"Tri-State Christian Academy","PO Box 206  271 Arthur Road","Arthur","TN","37707","Claiborne","9080","Rev. Audie Miracle","(423) 869-8008","PreK-12","29","5","a3kmiracle@yahoo.com"
"Heritage Christian Academy","PO Box 1467  428 Harmon Rd.","New Tazewell","TN","37825","Claiborne","9004","Gail Leonard","(423) 526-2807","PreK-8","84","11","gail@heritageba.com"
"J. Frank White Academy","6965 Cumberland Gap Parkway","Harrogate","TN","37752","Claiborne","9005","Jarryd Boster","(423) 869-6234","5-12","96","14","jarryd.boster@lmunet.edu "
"Clay County Christian Academy","P.O. Box 534; 150 E. Lake Avenue","Celina","TN","38551","Clay","9010","Tiffany Andrews","931.243.2882","PK-3","13",,"cccacademy@twlakes.net"
"Open Door Outreach Christian Academy","518 Punkton Rd.","Del Rio","TN","37727","Cocke","9070","Jackie S. Allen","(423) 487-3355","1-8","5","1","hughes@bishopbyrne.org"
"Tullahoma Christian Academy","215 Big Springs Ave.","Tullahoma","TN","37388","Coffee","9150","David Adams","(931) 393-6000","K-12","30","3","davidhunteradams@yahoo.com"
"Temple Baptist Christian School","66 Fairlane Drive, PO Box 900","Manchester","TN","37349","Coffee","9060","Jeff Stewart","(931) 728-4911","K4-9","43","8","secretary@templeministries.com"
"St. Paul the Apostle School","306 West Grizzard Street","Tullahoma","TN","37388","Coffee","9005","Susan Molvik","(931) 455-4221","K-8","96","13","stpaulcc@cafes.net"
"Christian Academy of the Cumberlands ","325 Braun St.","Crossville","TN","38555","Cumberland","9001","Alicia Jones","(931) 707-9540","PK-9","55","17","ajones@cacknights.com"
"Crossville Christian School","28 Rock Quarry Road","Crossville","TN","38555","Cumberland","9020","Julia Palumbo","(931) 484-0026","PK-6","68",,"jpalumbo@crossvillechristian.org"
"Cumberland Mountain School","73 Methodist Campground Loop","Crossville","TN","38555","Cumberland","9015","Michael W. Adkins","931.707.1077","7-12","16","1","madkins@VBHCS.org"
"Family Christian Academy","925 Industrial Dr","Old Hickory","TN","37138","Davidson","9037","Belinda Scarlata","(615) 847.3999","K-12","5112","3007","administrator@familychristianacademy.com"
"Hermitage Hall","1220 8th Avenue South","Nashville","TN","37203","Davidson","9105","Art Taylor","(615) 742-3000","K-12","100","9","art.taylor@uhsinc.com"
"Davidson Academy","1414 Old Hickory Boulevard","Nashville","TN","37207","Davidson","9045","Bill Chaney, Headmaster","(615) 860-5300","Pk-12","781","79","bchaney@davidsonacademy.com"
"Nashville International Academy","7335 Charlotte Pike","Nashville","TN","37209","Davidson","9222","Berthena McKinney","(615) 352-5903","PreK-6","91","10","berthena.McKinney@gmail.com
"
"Casa dei Montessori","7646 Hwy. 70 S.","Nashville","TN","37221","Davidson","9443","Amber Jennings","(615) 673-8000","PreK-5","20","4","casadeimont@gmail.com"
"Christ the King School","3105 Belmont Boulevard","Nashville","TN","37212","Davidson","9030","Dr. Christine Caron Gebhardt","(615) 292-9465","K-8","241","18","ccaron.gebhardt@CTK.org"
"Bambini Montessori","27 Fairway Drive","Nashville","TN","37214","Davidson","9335","Lori A. Eldridge","615.885.8772","PreK-K","15","2","clgjwong21@aol.com"
"Father Ryan High School","700 Norwood Drive","Nashville","TN","37204","Davidson","9070","Paul Davis","(615) 383-4200","9-12","908","82","davisp@fatherryan.org; mcintyrej@fatherryan.org"
"Ezell-Harding Christian School","574 Bell Road","Antioch","TN","37013","Davidson","9060","Donald W. Hutchison","(615) 367-0532","PK-12","860","74","dhutchison@ezellharding.com"
"Nashville Christian School","7555 Sawyer Brown Road","Nashville","TN","37221","Davidson","9155","Suzie Estes","(615) 356-5600","PK-12","515","43","estess@employees.nashvillechristian.org; bishopb@employees.nashvillechristian.org"
"River Road Academy (formerly Community High School)","8283 River Road; P.O. Box 907227","Nashville","TN","37209","Davidson","9255","Ginger Goad","(615) 432-3175","7-12","24","2","ginger_goad@cumberlandheights.org"
"Montgomery Bell Academy","4001 Harding Road","Nashville","TN","37205","Davidson","9145","Bradford Gioia","(615) 298-5514","7-12","712","97","gioiab@montgomerybell.edu"
"Nashville Christian Advancement School","3551 Dickerson Pike","Nashville","TN","37207","Davidson","9067","Glenda Lyles","(615-860-3740","K-12","30","3","glenda@ncaacademy.org"
"Lighthouse Christian School","610 West Due West Ave.","Madison","TN","37115","Davidson","9515","Dr. Greg Mutsch","(615) 612-5200","1-12","19","4","gmutsch@aceministries.com"
"Holy Rosary Academy","190 Graylynn Drive","Nashville","TN","37214","Davidson","9110","Tim Keogh","(615) 883-1108","K-8","489","33","hartmary@holyrosary.edu"
"Linden Waldorf School","3201 Hillsboro Road","Nashville","TN","37215","Davidson","9308","Shelby B. Strickland","(615) 354-0270","PK-8","135","10","info@lindenwaldorf.org"
"St. Bernard Academy","2020 24th Avenue, South","Nashville","TN","37212","Davidson","9260","Carl Sabo","(615) 385-0440 x203","K-8","232","20","info@stbernard.org"
"Monroe Carell Jr. Children's  Hospital at Vanderbilt","2200 Children's Way, Suite 2116","Nashville","TN","37232-9002","Davidson","9295","Janet Cross, Tina Wood","(615) 343-4299","K-12",,"1","janet.cross@vanderbilt.edu;  tina.c.woods@vanderbilt.edu"
"Smithson Craighead Preparatory School","3307 Brick Church Pike","Nashville","TN","37207","Davidson","9383","Myron Oglesby-Pitts","615.228.9886","9","20","6","jca2047@gmail.com"
"University School of Nashville","2000 Edgehill Avenue","Nashville","TN","37212","Davidson","9445","Vincent W. Durnan","(615) 327-3812","K-12","1012","108","jdouglas@usn.org"
"David Lipscomb Campus School","3901 Granny White Pike","Nashville","TN","37204-3951","Davidson","9035","Dr. Keith Nikolaus","(615) 269-1828","PreK-12","1365","125","keith.nikolaus@lipscomb.edu"
"St. Henry School","6401 Harding Road","Nashville","TN","37205","Davidson","9210","Sister Ann Hyacinth, O.P.","(615) 352-1328","K-8","667","43","lbailey@sthenry.org"
"Montessori Academy","6021 Cloverland Drive","Brentwood","TN","37027","Davidson","9020","Linda Bernstorf","(615) 833-3610","PK-8","215","30","lbernstorf@montessoriacad.org"
"Genesis Academy Nashville","430 Allied Drive","Nashville","TN","37211","Davidson","9055","Susan Sawyer","(615) 832-4222","K-12","90","10","madams@genesislearn.org; tadams@genesislearn.org; mpyle@genesislearn.org"
"Montessori East","701 Porter Road, Suite J","Nashville","TN","37206","Davidson","9006","Austin Presler","615.226.4588","K","12","1","monteastnash@gmail.com"
"Ensworth School","211 Ensworth Avenue","Nashville","TN","37205","Davidson","9120","William N. Moseley","(615) 383-0661","K-12","884","76","moseleyw@ensworth.com"
"Lighthouse Christian School","5100 Blue Hole Road","Antioch","TN","37013","Davidson","9125","Brian Sweatt","(615) 331-6286","PreK-12","559","47","mshsoffice@lighthouseministries.org"
"Abintra Montessori School","914 Davidson Drive","Nashville","TN","37205","Davidson","9005","Sherry L. Knott","(615) 352-4317","PK-8","141","9","office@abintra.org  "
"Children's House of Nashville Montessori School","3404 Belmont Blvd.","Nashville","TN","37215","Davidson","9270","Anne T. Colley","(615) 298-5647","PK-K","75","7","office@childrenshousenashville.com"
"Jonathan Edwards Classical Academy","1377 Old Hickory Blvd","Nashville","TN","37207","Davidson","9505","Ryan Boomershine","615.876.7291","K5-5","18","6","office@jecanashville.org"
"Montessori Centre","4608 Granny White Pike","Nashville","TN","37220","Davidson","9430","Deborah ""Oma"" Harris","(615) 373-0897","PK-K","102","13","oma@montessoricentre.org"
"Otter Creek Kindergarten & Preschool","5253 Granny White Pike (mailing address:  409 Franklin Rd. Brentwood, TN 37027)","Nashville","TN","37220","Davidson","9170","Pat Ward","(615) 373-0282","PreK-K","162","21","pat@ottercreek.org"
"Lighthouse Christian Academy","P.O. Box 160328 ","Nashville","TN","37216","Davidson","9056","Patricia Gilbey","(615) 612-5202","K-12","144","12","pgilbey@aceministries.com"
"Mercy Ministries of America","15328 Old Hickory Boulvard","Nashville","TN","37211","Davidson","9062","Ruth Mercer","(615) 831-6987","7-12","18","1","rmercer@mercyministries.com"
"Learning Lab of Green Hills","3815 Cleghorn Avenue","Nashville","TN","37205","Davidson","9510","Wendy Bergman","615-321-7272","K-12","50","20","rrosenblatt@mylearnlab.com"
"Children First, A Montessori Community","3420 Belmont Blvd.","Nashville","TN","37215","Davidson","9024","Samanthia Anderson","(615) 292-8151","K","45","3","sam@childrenfirstmontessori.org"
"St. Edward School","190 Thompson Lane","Nashville","TN","37211","Davidson","9205","Dr. Sue Baumgartner","(615) 833-5770","PK-8","479","31","sbaumgartner@stedward.org"
"St. Ann School","5105 Charlotte Avenue","Nashville","TN","37209","Davidson","9305","John Foreman","(615) 269-0568","K-8","192","19","school@stannnash.org"
"Schrader Lane Child Care Center","1234 Schrader Lane","Nashville","TN","37208","Davidson","9285","Shirlee McCleskey","(615) 329-9830","K","20","1","schraderchildcare@hotmail.com"
"St. Joseph School","1225 Gallatin Road, South","Madison","TN","37115","Davidson","9211","Sister Martha Ann, O.P.","(615) 865-1491","PK-8","398","31","sjprincipal@sjsandchurch.com"
"Overbrook School","4210 Harding Road","Nashville","TN","37205","Davidson","9175","Sister Marie Blanchette Cummings, O.P.","(615) 292-5134","PK-8","326","33","srmblanchette@overbrook.edu; admissions-os@overbrook.edu"
"St. Clement Coptic Orthodox Christian Academy","476 McMurray Drive","Nashville","TN","37211","Davidson","9078","Fr Boutros Boutros","(615) 530.6086","PreK-4","41","7","stclementacademy@suscopts.org"
"St. Pius X Classical Academy","2750 Tucker Road","Nashville","TN","37218","Davidson","9220","David Carey","(615) 255-2049","PK-8","155","14","stpiusxschool@yahoo.com"
"Mama Lere (National Center for Childhood Deafness & Family Communication Oral School for the Deaf & Hard of Hearing)","Vanderbilt University Medical Center, NCCDFC, Medical Center East, SouthTower, Room 6209","Nashville","TN","37232","Davidson","9157","Tamala S. Bradham","(615) 936-5262","PK-1","27","6","tamala.bradham@vanderbilt.edu"
"The Covenant School","33 Burton Hills Drive","Nashville","TN","37215","Davidson","9088","Bobby Huff","(615) 467-2313","PreK3-5","110",,"thecovenantschool@covenantpres.com   "
"Our Savior Lutheran Academy and Preschool","5110 Franklin Road","Nashville","TN","37220","Davidson","9435","Wendy Morris","(615) 833-3779","PK-5","66","10","wendy.morris@oslanashville.org"
"Indian Mound Boys Residential Center","3916 Indian Mound Road","Sparta","TN","38583","DeKalb","9005","Leslie Watson","(931) 761-5335","7-12","16","2","lwatson@uchra.com"
"United Christian Academy","784 Highway 46 South","Dickson","TN","37055","Dickson","9022","Faith Bybee","(615) 446-0322","PreK-12","122","16","fbybee@ufwb.org"
"New Life Academy","P.O. Box 430","Burns","TN","37029","Dickson","9010","Marta P. Berryhill","(615) 441-5098","8-12","41","3","kharris@crchealth.com"
"Dickson Academy","2612 White Bluff Rd. PO Box 205","Burns","TN","37029","Dickson","9025","Robbie Mason","615-446-3740","6-8","21",,"mason@dicksonacademy.com"
"Christ Classical Academy","1005 Hwy. 51 ByPass","Dyersburg","TN","38024","Dyer","9020","Janice Young","(731) 285-3727","PK-8","153","16","ccaadmin@cableone.net "
"McDowell Center for Children","711 Highway 51 Bypass South","Dyersburg","TN","38024","Dyer","9015","Denise Lester","(731) 286-2861","6-12","27","2","denise.lester@wetec.com"
"Emmanuel Christian Academy","92 Kendall Lane","Dyersburg","TN","38024","Dyer","9025","Sheila Kendall","731-676-8708","PreK-10","13",,"sheilakendall@hotmail.com"
"Rossville Christian Academy","P O. Box 369    280 High St.","Rossville","TN","38066","Fayette","9010","Mike Coggins","(901) 853-0200","K4-12","298","24","mcoggins@rossvillechristian.com"
"Fayette Academy","15090 Highway 64, PO Box 130","Somerville","TN","38068","Fayette","9005","Ron Canada","(901) 465-3241","PreK-12","728","52","rcanada@fayetteacademy.com"
"Faith Christian Academy","627 S. Main St., P.O. Box 313","Jamestown","TN","38556","Fentress","9315","Jane H. Smith","(931) 879-9137","PreK-7","59","9","JHS@teacher.com"
"Good Shepherd School","2037 Decherd Boulevard","Decherd","TN","37324","Franklin","9010","Kelly Doyle","(931) 967-5673","PK-7","91","12","mrskdoyle@comcast.net"
"Pathways Turning Point","200 Hospital Drive","Trenton","TN","38382","Gibson","9005","Amanda Turner","(731) 855-7982","5-8","12","1","amanda.turner@wth.org"
"Bright Beginnings Christian School","1827 Mill Street","Pulaski","TN","38478","Giles","9300","Tina Jett","(931) 363-4144","PreK-5","81","14","bbcp@bellsouth.net"
"Lester Christian Academy","625 E. Washington","Pulaski","TN","38787","Giles","9305","Dr. Joyce Anderson","931.363.3049","K-12","12","1","jeanean48@hotmail.com"
"New System School, Inc.","Rt. 1, Box 183","Rutledge","TN","37861","Grainger","9070","Brenda Young","(865) 828-4488","K-12","401","143","brenda@newsystemschool.org"
"Kingswood School","PO Box 5000","Bean Station","TN","37708","Grainger","9005","Rebecca Shumate","865.767.3074","6-12","50","3","r.shumate@charter.net"
"Towering Oaks Christian","1985 Buckingham Road","Greeneville","TN","37745","Greene","9020","Gail Celeste Ingram","(423) 639-0791","K-8","91","12","gingram@toweringoaks.org"
"Beacon  (Holston Home)","PO Box 188, 404 Holston Drive","Greeneville","TN","37744","Greene","9005","Margaret Seaton","(423) 787-8708","K-12","51","7","martyseaton@holstonhome.org"
"Faith Missionary Academy","495 Red Barn Road","Gruetli-Laager","TN","37339","Grundy","9026","Stacey D. Smith","(931) 779-3338","K-12","99","7","info@faithmissionaryacademy.com"
"Cumberland Heights SDA School ","67 Old Hwy 56","Coalmont","TN","37313","Grundy","9005","Pam Cross","931-692-3982","1-8","4","1","pcross@grundyadventist.org "
"All Saints' Episcopal School","3275 Maple Valley Road","Morristown","TN","37813","Hamblen","9005","Dr. Henry G. Selby","(423) 586-3280","K-8","93","10","headofschool.ases@charter.net"
"Morristown Covenant Academy","PO Box 1737 502 S. Jackson St.","Morristown","TN","37816","Hamblen","9060","Debra Cooper","(423) 587-3247","K4-12","52","10","mca@mcovenantacademy.net"
"Gateway PEACE Academy","320 W. 3rd North St.","Morristown","TN","37814","Hamblen","9035","Sharon Reid","423.581.4761","7-12","8","1","melissa.cupp@mcnabb.org"
"Speech and Hearing ACHIEVE Center","600 N Holtzclaw Avenue, Suite 200","Chattanooga","TN","37411","Hamilton","9170","Marty Dunagan","(423) 629-5899","PK-K","11","1","achievecenter@comcast.net"
"The Montessori School","300 Montessori Way","Chattanooga","TN","37404","Hamilton","9066","Roberta Spink","(423) 622-6366","PK-8","129","3","admissions@themontessorischool.net; jblaes@camelotforkids.org"
"Berean Academy","441 Berean Lane","Hixson","TN","37343","Hamilton","9020","Joey Harmon","(423) 877-1288","PreK,K-12","230","17","berean_eagles@yahoo.com"
"Calvary Christian School","4601 North Terrace.","Chattanooga","TN","37411","Hamilton","9021","Tim Rowe","(423) 622-2181","PreK-12","111","10","calvary4601@mybluelight.com"
"Annoor Academy of Chattanooga","5502 Brainerd Rd","Chattanooga","TN","37411","Hamilton","9181","Debbie Die","423.894.1637","K-12","22","3","debbiedie@msn.com"
"Avondale SDA School","1201 North Orchard Avenue","Chattanooga","TN","37406","Hamilton","9010","Mari-Edi Gardner","(423) 698-5028","K-8","38","4","dmarshall81@comcast.net"
"Orange Grove Center","615 Derby Street","Chattanooga","TN","37404","Hamilton","9055","Darcy Owens","(423) 493-2947","NonG","81","13","dowens@orangegrove.org"
"Bethel Bible Village Campus School","3001 Hamill Road","Hixson","TN","37343","Hamilton","9180","Ellen Flemmons","(423) 842-5757","K-12","0","1","ellenf@bethelbiblevillage.org"
"Belvoir Christian Academy","800 Belvoir Ave.","Chattanooga","TN","37412","Hamilton","9090","Frank Streufert","(423) 622-3755","PK-8","175","15","fstreufert@bcalions.org"
"Siskin School -- Downtown ","1101 Carter Street","Chattanooga","TN","37402","Hamilton","9070","Gayle Coleman","423-648-1788","PK-K","151","11","gayle.coleman@siskin.org"
"Siskin School -- East Brainerd","1612 Gunbarrel Road","Chattanooga","TN","37421","Hamilton","9071","Gayle Coleman","423-648-1788","PK-K","104","10","gayle.coleman@siskin.org"
"Signal Center - Chattanooga","109 North Germantown Road","Chattanooga","TN","37411","Hamilton","9125","Dr. A Graham Parker","(423) 698-8528","PK-K","37","5","graham_parker@signalcenters.org"
"Boyd-Buchanan School","4626 Bonnieway Drive","Chattanooga","TN","37411","Hamilton","9025","Lanny Witt","(423) 624-9064","PK-12","962","70","hshull@bbschool.org"
"Wildwood Adventist School","800 Ethel Lane","Chattanooga","TN",,"Hamilton","9171","Joyce Grivas","423-503-5343","K-8","11","2","joycegrivas@gmail.com"
"Scholze Center","911 Pineville Road","Chattanooga","TN","37405","Hamilton","9265","Marsha Miller","(423) 425-0215","7-12","40","1","marsha.miller@cadas.org"
"Parkridge Valley Academy (Hospital School)","2200 Morris Hill Road","Chattanooga","TN","37421","Hamilton","9160","Mary McDougall","(423) 499-2391","K-12","50","4","maryalice.lory@hcahealthcare.com"
"Our Lady of Perpetual Help School","505 South Moore Road","Chattanooga","TN","37412","Hamilton","9115","Jeri McInturff","(423) 622-1481","K-8","319","30","olphschooloffice@catholicweb.com"
"Baylor School","171 Baylor School Road","Chattanooga","TN","37405","Hamilton","9015","Scott A. Wilson","(423) 267-8505","6-12","1050","250","sawilson@baylorschool.org"
"Brainerd Baptist School","PO Box 8099  300 Brookfield Ave.","Chattanooga","TN","37414","Hamilton","9030","Sean M. Corcoran","(423) 622-3873","PK-5","300","32","scorcoran@brainerdbaptist.org"
"Signal Mtn.Christian School","2502 Fairmount Pike","Signal Mtn.","TN","37377","Hamilton","9006","Danette Kelley","(423) 886-1115","K-5","42",,"smcs@smcstn.org"
"Notre Dame High School","2701 Vermont Avenue","Chattanooga","TN","37404","Hamilton","9325","Perry Storey","(423) 624-4618","9-12","471","38","storeyp@myndhs.com"
"Tennessee Aquarium","One Broad Street, PO Box 11048","Chattanooga","TN","37401-1023","Hamilton","9161","Tim W. Baker","(423) 785-4058","Ung.",,"12","twb@tnaqua.org"
"Scenic Land School, Inc.","1200 Mountain Creek Road Suite 300","Chattanooga","TN","37405-6104","Hamilton","9120","Herbert Anderson","(423) 877-9711","K-8","12","3","yanderson@sceniclandschool.org"
"Abundant Life Christian Academy","15774 Hwy. 64 E","Bolivar","TN","38008","Hardeman","9004","Connie Moore, Sandra Collins","(731) 658-4979","K-12","21","4","alcalions@hotmail.com"
"Bolivar Christian Academy","309 Edgewood Street","Bolivar","TN","38008","Hardeman","9012","Cherie Bryant","(731) 658-4213","K-12","19","4","cbryant@aeneas.net"
"Harbert Hills Academy","3575 Lonesome Pine","Savannah","TN","38372","Hardin","9040","Joe Simpson","(731) 925-3098","K-12","47","13","joe@harberthills.org "
"Savannah Christian Academy","P. O. Box 730","Savannah","TN","38372","Hardin","9077","Kristine Smith","(731) 926-1504","K-8","132","13","kris.smith@sbcsavannah.org"
"New Beginnings Homeschool Christian Academy","245 Wayne Rd ste C","Savannah","TN","38372","Hardin","9030","Mary Brown","731-925-6464","K-12","80","5","nbhomeschoolacademy@yahoo.com "
"Lexington Montessori School","49 North Main Street","Lexington","TN","38351","Henderson","9390","Alethea Melton","(731) 968-0664","K","6","1","aletheamelton@yahoo.com"
"Lakeside Christian Academy","P.O. Box 189 2920 Hwy. 641 North","Paris","TN","38242","Henry","9050","Pamela E. Hughes","(731) 644-0111","1-12","4","1","phugs@charter.net"
"Natchez Trace Youth Academy","415 Seven Hawks Lane","Waverly","TN","37185","Humphreys","9010","Robert W. Masoner II, M.Ed.","(931) 296-1183 ext 320","8-12","44","4","robert.masoner@uhsinc.com"
"St. Patrick School","175 St. Patrick Street","McEwen","TN","37101","Humphreys","9005","Sister Francine Bauser, O.P.","(931) 582-3493","PK-8","102","14","stpatsprincipal@bellsouth.net"
"Deo Christian","134 New Bethel Lane, 3450 O.S.R. 85","Gainesboro","TN","38562","Jackson","9060","Diana Lewis","931.704.7766","PreK-12",,,"kjlewis@twlakes.net"
"Jefferson Montessori School","P.O. Box 489","Jefferson City","TN","37760","Jefferson","9005","Lou Anna Dyer","(865) 475-5250","PreK-K","9","1","ldyer49@gmail.com"
"Mountain Youth Academy","332 Hospital Road","Mountain City","TN","37683","Johnson","9010","Jylane Honaker","(423) 727-9898","2-12","32","4","jylanes@yahoo.com"
"Annoor Academy of Knoxville","724 Foxville Road","Knoxville","TN","37922","Knox","9001","Amany Shourbaji","(865) 525.3399","K-5","111","12","Amanyshour@yahoo.com"
"Garden Montessori School","3225 Garden Drive","Knoxville","TN","37918","Knox","9020","Colleen Van Dyke","(865) 688-6776","K-8","59","9","announcements@gardenmontessori.org; melodyboling@gardenmontessori.org "
"West End Academy","5311 McKamy Road","Knoxville","TN","37921","Knox","9110","David Dowling","(865) 690-1720","6-12","31","4","aurora_prophet@yahoo.com"
"St. John Neumann School","625 St. John Court","Knoxville","TN","37922","Knox","9130","Bill Derbyshire","(865) 777-0077","K-8","322","28","bderbyshire@sjncs-knox.org"
"Temple Baptist Academy","1700 Beaver Creek Dr., PO Box 159","Powell","TN","37849","Knox","9085","Dwayne Hickman","(865) 938-8180","PreK-12","271","23","betty.manning@templebaptistacademy.com"
"Tate's School of Discovery","9215 Bob Gray Road","Knoxville","TN","37923","Knox","9125","Brenda Seagraves","(865) 690-4255","PreSch-5","182","20","brenda-Seagraves@tatesschool.com"
"Grace Christian Academy","5914 Beaver Ridge Rd.","Knoxville","TN","37931","Knox","9041","Don Criss","(865) 691-3427","K-12","836","52","dcriss@gracebc.org"
"Thackston School","2023 Lake Avenue","Knoxville","TN","37919","Knox","9090","Kristi Wofford","(865) 522-0729","PK-5","114","7","dwofford@thackstonschool.com"
"Faith Early Learning Center","239 Jamestowne Blve.","Knoxville","TN","37934","Knox","9006","Cheryl Powers","865.675.1530","PreK-K","110","15","faithelc@tds.net"
"First Baptist Academy","7706 Ewing Road","Powell","TN","37849","Knox","9016","Darrell Vandergriff","(865) 947-8503","K-8","101","7","fba@firstbaptistacademy.us"
"Giving Tree Montessori","P.O. Box 22634  7728 Nubbin Ridge Rd.","Knoxville","TN","37933","Knox","9025","Maria Jenkins","(865) 691-2661","PreK-K","35","7","givingtreemontesso@att.net"
"Grace Covenant Baptist Academy","9956 Dutchtown Rd","Knoxville","TN","37923","Knox","9385","Alan Smith","(865) 690-3681","PreK-1","64",,"gracecovenantbaptistchurch@comcast.net"
"Berean Christian School","2329 Prosser Road","Knoxville","TN","37914","Knox","9011","George Waller","(865) 521-6054","K-8","975","36","gwaller@bereanchristian.org"
"Greenway School","544 Canton Hollow Road","Knoxville","TN","37934","Knox","9030","Christine Duncan","(865) 777-0197","6-8","33","4","info@greenwayschool.edu"
"Stanford Eisenberg Jewish Day School","1529 Downtown West Blvd","Knoxville","TN","37919","Knox","9350","Miriam Wilhelm","(865) 560.9922","K-4","23","4","info@kjds.org"
"Knoxville Catholic High School","9245 Fox Lonas Road","Knoxville","TN","37923","Knox","9050","Dickie Sompaytac","(865) 560-0313","9-12","650","50","info@knoxvillecatholic.com"
"Laurel High School","1539 Laurel Ave.","Knoxville","TN","37916-2015","Knox","9210","Shelly Woodrick","(865) 525-3885","9-12","27","3","info@laurelhighschool.org"
"Sacred Heart Cathedral School","711 Northshore Drive","Knoxville","TN","37919","Knox","9080","Mrs. Sedonna Prater","(865) 588-0415","K-8","605","46","info@shcschool.org"
"Paideia Academy","10825 Yarnell Road","Knoxville","TN","37950","Knox","9146","James Cowart","(865) 670-0440","K-6","102","7","jcowart@paideiaknoxville.org"
"Knoxville Baptist Christian School","2434 East Fifth Avenue","Knoxville","TN","37917","Knox","9005","Robert Evans","(865) 524-3211","PreK-12","116","11","kbcs@kbcs.org"
"UT Early Learning Center","1215 W Cumberland ","Knoxville","TN","37996-1912","Knox","9176","Dr. Sean Durham","865-974-0843 ","PreK-K","18","2","kkidd@utk.edu"
"Knoxville Montessori School","4311 Kingston Pike","Knoxville","TN","37919","Knox","9060","Charlie Biggs","(865) 525-6042","PK-5","58","9","kms@knoxvillemontessori.org"
"Apostolic Christian School","5020 Pleasant Ridge Road","Knoxville","TN","37912","Knox","9375","Rev. Mark McCool","(865) 523-5262","K-12","124","10","mamc4000@aol.com"
"Knoxville Christian School","11549 Snyder Road","Knoxville","TN","37932","Knox","9055","Matthew D. Amos","(865) 966-7060","PK-12","123","13","Mamos@knoxvillechristian.org"
"West End Kindergarten","8301 E. Walker Springs Lane","Knoxville","TN","37923","Knox","9115","Miranda Eichman","(865) 690-0900","PreK-K","22","1","mde_tce_1@yahoo.com"
"Garden of Discovery Learning Ctr. (Mt. Olive Christian Academy)","1601 Dandridge Avenue","Knoxville","TN","37915","Knox","9325","Monica Smith-Albright","(865) 524-1601","PK-K","22",,"moca1@bellsouth.net"
"Dayspring Christian School","3541 Cunningham Road","Knoxville","TN    ","37918","Knox","9177","Don Gibson","865.266.9507","PreK-12",,,"mrsgib@hotmail.com "
"Nature's Way Montessori School","4710 Murphy Road","Knoxville","TN","37918-9157","Knox","9300","Mary K. Smith","(865) 689-8976","K-8","102","7","natureswaymontessori@comcast.net"
"Lake Brook Academy","3006 Lake Brook Boulevard","Knoxville","TN","37909","Knox","9040","Philip M. Dampf III, M.S.","(865) 588.4382","K-12NG","28","2","pdampf@child-family.org"
"Pride & Joy Children's Academy","4418 Kingston Pike","Knoxville","TN","37919","Knox","9200","Rebecca Brown","(865) 524-7907","PK-1","11","1","pridejoychildren@bellsouth.net"
"First Lutheran School","1207 Broadway, NE","Knoxville","TN","37917","Knox","9015","Roger Tessendorf","(865) 524-0308","PK-8","230","9","rtessendorf@firstlutheranschool.com"
"Episcopal School of Knoxville (The)","950 Episcopal School Way","Knoxville","TN","37932","Knox","9100","James J. Secor III","(865) 777-9032","K-8","254","25","secor@esknoxville.org",
"St. Joseph School","1810 Howard Road","Knoxville","TN","37918","Knox","9135","Dr. Aurelia Montgomery","(865) 689-3424","K-8","194","19","sjs37918@hotmail.com"
"Christian Academy of Knoxville","529 Academy Way","Knoxville","TN","37923","Knox","9045","Scott Sandie","(865) 690-4721","PK-12","1147",,"ssandie@cakmail.org  "
"New Hope Christian School","7602 Bud Hawkins Road","Corryton","TN","37721","Knox","9075","Ralph Waggoner","(865) 688-5330","K-8","60","5","stutler@nhafranklin.org"
"Montessori Internationale School, Inc.","10019 Northshore Dr.","Knoxville","TN","37922","Knox","9150","Sue Wimalasena","(865) 675-0545","PK-K","21","1","sue_wimalasena@hotmail.com"
"Cedar Springs Weekday School","9132 Kingston Pike","Knoxville","TN","37923","Knox","9170","Dr. Wanda Mooney","(865) 291-5252","PK-K","14","4","wandamooney@cspc.net"
"West Hills Baptist Church Preschool & Kindergarten","409 N. Winston Road","Knoxville","TN","37909","Knox","9120","Marty W. Troutman","(865) 690-4251","PK-K","150","25","whbcpreschool@whbc.us"
"Mead Montessori School (Formerly Farragut)","2647 Bafford Place","Knoxville","TN","37992","Knoxville","9145","Ella Jones","865.577.0760","K-1","6","1","meadmontessorischool@gmail.com"
"Covenant Academy","962 N. Brace Rd.","Summertown","TN","38483","Lawrence","9031","Bettye Prentice","(931) 964-2423","K-12","7","1","bettye.prentice@cnonline.net"
"Sacred Heart Catholic School","P.O. Box 277 (307 Church Street)","Loretto","TN","38469","Lawrence","9010","Catherine Bradley","(931) 853-4388","1-8","62","7","cvnbradley@hotmail.com"
"Sacred Heart School","220 Berger Street","Lawrenceburg","TN","38464","Lawrence","9015","Rosemary Harris","(931) 762-6125","PreK-8","58","6","rosemaryharris@hotmail.com"
"General Assembly Academy","161 Baker Road","Hohenwald","TN","38462","Lewis","9015","Debbie Landers","(931) 796-4361","K-12","239","4","dlanders@gaahome.com"
"The Farm School","151 Schoolhouse Road","Summertown","TN","38483","Lewis","9080","Peter Kindfield","(931) 964-2325","K-12","30","5","peter@thefarmcommunity.com"
"Lenoir City Christian","2085 Simpson Rd E","Lenoir City","TN","37772","Loudon","9006","Dr. Chris Harding","865-986-9066","Pre-K","114",,"chris@firstbaptistlc.org"
"Macon Christian Academy","PO Box 254  518 Church Street","Lafayette","TN","37083","Macon","9055","Wayne Deering","615.666.8131","PreK-3","24",,"wdeering@nctc.com"
"Madison Oaks Academy","49 Old Hickory Blvd. E.","Jackson","TN","38305","Madison","9325","C. Collins","(731) 668-5880","4-12","20","1","ccollins@amicarebehavioral.com "
"George Thomas Jr. Acad. at Youth Town","3641 Youth Town Road","Pinson","TN","38366","Madison","9030","Jan Coffman","731.265.0769","7-12","32","3","ccollins@youthtown.net"
"Augustine School","1171 Old Humboldt Road","Jackson","TN","38305","Madison","9001","Beth Drown","(731) 660-6822","P-8","106","13","ccs@fbconcord.org"
"New Heights School (West TN Children's Home)","425 Frank Latham Road","Pinson","TN","38366","Madison","9033","Larry Ivery","(731) 983-6097","7-12","12","1","larryivery@yahoo.com"
"Jackson Preparatory School","130 Old Denmark Road","Jackson","TN","38301","Madison","9027","Larry Lowrance","731.554.9647","PK-12","153","20","llowrance@charter.net"
"Montessori Center of Jackson","P.O. Box 10516, 278 Cooper Anderson Road","Jackson","TN","38308","Madison","9085","Teri Canaday","(731) 668-9197","K-6","18","2","office@mcoj.net"
"Therapy and Learning Center ","34 Garland Drive","Jackson","TN","38305","Madison","9010","Ron Kwasigroh","(731) 668-3322","PreK-12","8","1+","ron.kwasigroh@wth.org"
"Trinity Christian Academy","10 Windy City Road","Jackson","TN","38305","Madison","9020","Dr. Sam Botta","(731) 668-8500","PK-12","795","45","sbotta@tcalions.com"
"St. Mary's School","1665 Hwy. 45 By-Pass","Jackson","TN","38305","Madison","9080","Sr. Mary Evelyn Potts, OP","(731) 668-2525","K-8","370","30","sme@stmarys.tn.org"
"Sacred Heart of Jesus High School","1119 Old Humboldt Road","Jackson","TN","38305","Madison","9075","Father Wheatley","(731) 660-4774","9-10","55","5","wheat703@earthlink.net"
"Lewisburg Christian Academy","1041 South Ellington Parkway","Lewisburg","TN","37091","Marshall","9010","Steve Wakham","931-359-6112","K-2","0","1","board@lewisburgca.org"
"Magnolia Academy - Lewisburg ","120 Freeman Drive","Lewisburg","TN","38460","Marshall","9005","Linda Harvey","(931) 359-3592","7-12","20","1","lharvey@rescare.com"
"Agathos School of Columbia","1201 Mapleash Ave","Columbia","TN","38401","Maury","9007","Howard Vosburgh","(931) 388-0556","PK-7","68","8","agathosschool@att.net"
"Hopewell Christian Covenant Family School","3886 Hopewell Road","Culleoka","TN","38451","Maury","9050","Charles Mangum","(931) 381-2605","1-12","29",,"cmangum@charter.net"
"Columbia Academy","1101 West 7th Street","Columbia","TN","38401","Maury","9005","Dr. James A. Thomas","(931) 388-5363","K-12","565","47","jamesthomas@colacademy.com "
"King's Daughters' School","412 West Ninth Street","Columbia","TN","38401","Maury","9030","Jennifer Ballard","(931) 388-3810","NonG","67","10","jennifer.ballard@tkds.org"
"Cornerstone School, TN Children's Home","PO Box 10","Spring Hill","TN","37174","Maury","9025","Mr. Chris McElvain","(931) 486-2274","6-12","27","4","rachel@cornerstonetch.org"
"Magnolia Academy - Columbia ","1428 Rock Springs Rd.","Columbia","TN","38401","Maury","9035","Sandra Crick","(931) 359-3592","7-12","20","2","smneely@rescare.com"
"Zion Christian Academy","6901 Old Zion Road","Columbia","TN","38401","Maury","9020","Donald Wahlman","(931) 388-5731","PK-12","443","27","zionadmin@charterbn.com"
"Advent Home Learning Center","900 Country Road 950","Calhoun","TN","37309","McMinn","9006","Jana Marlow","(423) 336-5052","6-12","27","3","info@adventhome.org"
"Christ's Legacy Academy","964 County Road 180","Athens","TN","37303","McMinn","9012","Robert McCready","423.649.0040","K-8","12",,"mccready@clak12.org "
"Fairview Christian Academy","261 County Road 439","Athens","TN","37303","McMinn","9015","Greg Ranck","(423) 745-6781","PreK-12","143","11","office@fairviewchristianacademy.org"
"Faith Baptist School","1301 Peach Street","Selmer","TN","38375","McNairy","9021","Freed Ware","(731) 645-7411","K5-12","27","7","fbware@hotmail.com"
"Cross Creek Christian School Inc.","501 E. North Street","Sweetwater","TN","37874","Monroe","9035","Randy L. Nelson","(423) 337-9330","K-12","122","11","rnelson@crosscreekschool.org"
"St. Mary's Catholic School","1901 Madison Street","Clarksville","TN","37043","Montgomery","9040","Denise Tucker","(931) 645-1865","PK-8","227","21","dtucker@stmaryscatholicschool.com"
"FAITH Academy","P.O. Box 2265  131 Dean Drive","Clarksville","TN","37042","Montgomery","9073","Tonya White","(931) 551-9200","K-12","6","1","faith@lmcneese.com  "
"Montgomery Christian Academy","1186 Fort Campbell Blvd.","Clarksville","TN","37042","Montgomery","9067","Cathy Hester","(931) 648-4762","K3-12","20","4","info@clarksville1ag.net"
"Academy for Academic Excellence","1970 Memorial Drive","Clarksville","TN","37043","Montgomery","9005","Mercy Yrabedra","(931) 647-9831","PreK-12","42","6","jackiecarey8@aol.com"
"Oak Plains Academy (formerly Chad Youth Enhancement Center)","1751 Oaks Plains Road","Ashland City","TN","37015","Montgomery","9015","Jenelle L. Robinson, M.S. Ed.","(931) 362-4723   ext 253 ","K-12 (Sp Ed)","12","1","jenelle.robinson@uhsinc.com"
"Unity Christian Academy","256 Uffelman Drive","Clarksville","TN","37043","Montgomery","9095","Jacqueline Hale","(931) 645-6003","K-12","34","7","jhale231699@aol.com"
"Academy for Keener Minds","420-D Madison St.","Clarksville","TN","37040","Montgomery","9005","Stefanni Keener","(931) 249-1600","K-12","100","3","keener.minds@att.net"
"Little Country Schoolhouse (The)","840 Hwy 76","Clarksville","TN","37043","Montgomery","9050","Deborah Respass","(931) 358-5775","K-1","10","1","littlecountrysc@gmail.com"
"Clarksville Christian School","501 Hwy. 76","Clarksville","TN","37043","Montgomery","9022","Lisa Tucker","(931) 647-8180","PK-8","137","6","ltucker@clarksvillechristianschool.org"
"Weems Academy","812 Greenwood Avenue","Clarksville","TN","37040","Montgomery","9030","Anne L. O'Shea","(931) 920-7370","K-12","46","7","malinda.mitchell@centerstone.org; anne.o'shea@centerstone.org"
"Genesis Teen Learning Center @ Montgomery County","1881 D Fort Campbell Blvd.","Clarksville","TN","37042","Montgomery","9025","Pam Byrd","(931) 647-8474","7-12","36","4","pbyrd@genesislearn.org"
"Tabernacle Christian School","301 Market Street","Clarksville","TN","37042","Montgomery","9046","Katobwa Stallworth","(931)552-9431","PK-5","53",,"tcsstallworth@aol.com"
"The Settlement Preschool and Kindergarten","2724 Trenton Road","Clarksville","TN    ","37040","Montgomery","9086","Joy Huggins","931.647.1900","PreK-5","195","20","thesettlement@charter.net"
"Little Scholars","1751 Huskey Drive","Clarksville","TN","37040","Montgomery","9085","Vicki Hunley","931.320.3640","PreK-1","19","5","tiffany@pantherallstars.net"
"Redemption Baptist Academy","109 Jim Goad Road","Lancing","TN","37770","Morgan","9025","Bobby Stewart","(423) 628-3733","K-12","24","5","rbabstewart@highland.net"
"Sylvan Learning Center 1026","600 East Veterans Drive","Cookeville","TN","38501","Putman","9030","Brandi Jones","931.528.2543","K-12","146","25","sylvanck@earlyscholars.com"
"Chance Transitional School (Formerlsy Chance Girls Residential Center)","1744 Deberry Road, P.O. Box 8","Bloomington Springs","TN","38545","Putnam","9005","Rhonda Coleman","(931) 526-4565","7-12","16","1","chanceschool@frontiernet.net"
"Endeavor","1200 S. Willow Ave. ","Cookeville","TN","38506","Putnam","9075","Dana Draughon","(931) 432-7883","7-12","12","1","ddraughon@vbhcs.org"
"Heritage Academy","23100 Clarkrange Highway","Monterey","TN","38574","Putnam","9050","Doug Baker","(931) 839-6675","9-12","55","18","dougbaker@heritagetn.org"
"Highland Rim Academy","P.O. Box 3022","Cookeville","TN","38502","Putnam","9021","Daniel Bailey","(931) 526-4472","K-8","53","3","info@highlandrimacademy.org"
"Daniel One Academy ","1654 Burgess Falls Road","Cookeville","TN","38506","Putnam","9011","Jack Holman","(931) 432-1496","3-12","69","0","jdholman@d1academy.org"
"Heavenly Host Lutheran School","777 South Willow Avenue","Cookeville","TN","38501","Putnam","9020","Elizabeth Wickersham","(931) 520-3766","K-8","80","11","lizw@hhlutheran.org"
"Rhea County Academy","P. O. Box 925","Dayton","TN","37321","Rhea","9070","Tim Wehse","(423) 775-2826","K-6","16","3","rca@rheacountyacademy.org"
"Laurelbrook Elementary School","114 Campus Drive","Dayton","TN","37321","Rhea","9051","Shymone Moses","(423) 775-0563","K-8","16","3","s_r_moses@yahoo.com"
"Laurelbrook Academy","114 Campus Drive","Dayton","TN","37321","Rhea","9050","Wanda Sarr","(423) 775-3339","9-12","42","13","wrsarr@laurelbrook.org"
"Sail Away Learning Academy","106 Armour Road","Kingston","TN","37763","Roane","9043","Brenda Murphy","(865) 376-7005","K-12","11","7","administration@sailawaylearning.com; bmurphy@sailawaylearning.com"
"Camelot Kingston Academy","183 Fiddler's Lane","Kingston","TN","37763","Roane","9017","Dan Froemel","(865) 376-2296 ","K-12","65","7","daniel.froemel@kingstonacademy.org "
"Calvary Baptist School, Kingston","900 Sturgess St., PO Box 844","Kingston","TN","37763","Roane","9010","Jeff Plemmons","(865) 376-5850","K-12","64","8","nrtapp@juno.com"
"Faith Christian Academy","864 Popular Creek Road","Oliver Springs","TN","37840","Roane","9021","Rev. Dr. Paul Cates","(865) 435-6185","K-12","23","3","pcates@att.net"
"Michael Dunn Center","629 Gallaher Road","Kingston","TN","37763","Roane","9005","Vicki Hix","(865) 376-3416","1-12","32","2","vicki.hix@michaeldunncenter.org"
"Day Spring Academy","P.O. Box 1568  2838 Heights Circle Dr.","White House","TN","37188","Robertson","9010","Monecca Brewer","(615) 672-9650","PreK-12","95","11","mbrewer@dayspringacademyk12.org"
"Gideon Academy","2948 Union Road","White House","TN","37188","Robertson","9040","Paul Iannello","(615) 672-1121","1-10","22","0","rick.dunnam@gmail.com"
"South Haven Christian School","112 Academy Drive","Springfield","TN","37172","Robertson","9080","Dr. Steve Blaser","(615) 384-5073","PreK-12","359","19","sblaser@southhavenbaptistchurch.com"
"Victory Academy","P.O. Box 478  805 South Main Street","Springfield","TN","37172","Robertson","9090","Larry Herbert","(615) 384-3521","K-12","70","2","va@faithcovenantchurch.net"
"Bankston Christian Preschool, LLC","5154 Almaville Road","Smyrna","TN","37167","Rutherford","9057","Tristea Bankston","615-653-8545","PreK-K","5","4","bankstonchristianpreschool@yahoo.com"
"Bill Rice Christian Academy","627 Bill Rice Ranch Road","Murfreesboro","TN","37128","Rutherford","9014","Nathan Reeves","(615) 893-2767 x101","K-7","42","7","BRCA@billriceranch.org"
"Providence Christian Academy"," 410 DeJarnette Lane","Murfreesboro","TN","37130","Rutherford","9070","William (Butch) Vaughn","(615) 904-0902","K12","311","39","bvaughn@providencechristian.com",
"Cedar Grove School","1640 Lascassas Highway","Murfreesboro","TN","37130","Rutherford","9005","Donnie Hitchcock","(615) 895-9590","NonG","36","4","donnie.hitchcock@comcast.net"
"Genesis Rutherford Co. TLC","802 S. Church Street","Murfreesboro","TN","37130","Rutherford","9071","Debra Wood, Administrator","(615) 898-0051","6-12","36","3","dwood@genesislearn.org"
"Franklin Road Christian School","3124 Franklin Road","Murfreesboro","TN","37128","Rutherford","9010","David Justice","(615) 890-0894","K4-12","285","22","frcs@frbc.com"
"Cedar Hall School","3552 Rock Springs Road","Christiana","TN","37037","Rutherford","9021","Gilbert Gordon","(615) 893-4015","K-12","51","8","gordonchs@juno.com    "
"Community Christian Day School","185 Enon Springs Rd. West","Smyrna","TN","37167","Rutherford","9007","Jenny Sanders","615.220.2237","PK-K","17",,"jennysanders@comcast.net"
"Lancaster Christian Academy","150 Soccer Way","Smyrna","TN","37167","Rutherford","9052","Mrs. Sherry Lancaster","(615) 223-0451","PreK-12","503","20","lcaodea@gmail.com      "
"Montessori Weaver School","111 East MTCS Dr.","Murfreesboro","TN","37129","Rutherford","9026","Joye Weaver","615.895.9140","PreK-1","14","3","montessoriweaver@bellsouth.net"
"Rutherford Co. Community Learning Ctr","1710 S. Church St. Suite #5","Murfreesboro","TN","37130","Rutherford","9040","Dr. Michael Payne","(615) 896-4501","10-12","18","3","mpayne@rutherfordcounty.org"
"St. Rose of Lima Catholic School","1601 North Tennessee Boulevard","Murfreesboro","TN","37130","Rutherford","9055","Sister Mary Hannah, O.P.","(615) 898-0555","K-8","263","25","principal@saintrose.org; chawkins@saintrose.org "
"Rock Springs Christian Academy","418 Rock Springs-Midland Road","Christiana","TN","37037","Rutherford","9077","Melba Halbrooks","(615) 867-8285","K5-12","4","1","rockspringshouse@bellsouth.net"
"New System School, Inc.","606 Indian Park Dr.","Murfreesboro","TN","37128","Rutherford","9043","Stan Myers","865.849.3464","K-12","10","2","schoolcity@comcast.net"
"Genesis Rutherford Academy","2320 Southgate Blvd.","Murfreesboro","TN","37128","Rutherford","9045","Susan Sawyer","(615) 895-1961","6-12","49","7","ssawyer@genesislearn.org"
"Alpha Educational Learning Center","449 McCarn Circle","Sevierville","TN","37862","Sevier","9325","Nathan Strand","(865) 453-4644","6-12","0","1","cpeacock@smch.cc"
"St. Andrew's School","3601 Lyon Springs Road","Sevierville","TN","37862","Sevier","9080","James P. Wood, Headmaster","(865) 429-5437","K-12","18",,"jwood@wvr.org"
"Seymour Community Christian School","994 Old Sevierville Pike, P.O. Box 849","Seymour","TN","37865","Sevier","9005","Patrick Koster","(865) 577-5500","PreK-12","120","8","principal@seymourcommunitychurch.org"
"King's Academy, The","202 Smothers Road","Seymour","TN","37865","Sevier","9050","Walter Grubb","(865) 573-8321","PK-12","350",,"wgrubb@thekingsacademy.net"
"HomeLife Academy (Home Life)","P. O. Box 34758","Memphis","TN","38184","Shelby","9051","David Parkerson","(901) 380-9220","K-12","8286",,"admin@homelifeacademy.com"
"Nicholas Hobbs Acad.-Youth Villages","7526 Memphis Arlington Road","Memphis","TN","38135","Shelby","9120","Anne Cannon","(901) 252-7749","1-12","171","22","anne.coggin@youthvillages.org"
"Bornblum Solomon Schechter School of Memphis","6641 Humphreys Blvd.","Memphis","TN","38120","Shelby","9305","Brenda Bluestein","(901) 747-2665","1-8","200","30","bbluestein@bsssmemphis.com"
"St. Agnes Acadmey-St. Dominic School","4830 Walnut Grove Road","Memphis","TN","38117","Shelby","9175","Barbara H. Daush, President","(901) 767-1356","PK-12","857","67","bdaush@saa-sds.org"
"St. Francis of Assisi Elementary School","2100 N. Germantown Parkway","Cordova","TN","38016","Shelby","9090","Beth York","(901) 388-7321","Pk-8","873","71","beth.york@sfaschool.cdom.org"
"My Cup Runneth Over","864 W Shelby Dr","Memphis","TN","38109","Shelby","9655","Bobby Hawkins","901-552-5913","PreK-K","8",,"bhawk1245@aol.com",
"Briarcrest Christian School -HS","76 S. Houston Levee","Eads ","TN","38028","Shelby","9019","Eric Sullivan","(901) 765-4613","9-12","136","38","bswearengen@uchra.com"
"Creative Life Preparatory School","1222  Riverside Boulevard","Memphis","TN","38106","Shelby","9060","Dr. Carolyn Bibbs","(901) 775-0304","PK-10","58","3","cdbibbs@bellsouth.net"
"Idlewild Presbyterian Kindergarten","1750 Union Avenue","Memphis","TN","38104","Shelby","9110","Cheryl Ward","(901) 726-4681","K","13","1","cherylbward@att.net; mms@discoveret.org"
"St. Michael School","3880 Forrest Avenue","Memphis","TN","38122","Shelby","9197","Christina Ostrowski","(901) 323-2162","K-8","192","15","christina.ostrowski@stmike.cdom.org"
"Evangelical Christian School-Forest Hill","1920 Forest Hill","Germantown","TN","38139","Shelby","9031","Chuck Smith","(901) 754-4420","PK-5","199","25","chucksmith@ecseagles.com"
"Heritage Baptist Academy","711 N. Houston-Levee Rd.","Cordova","TN","38018","Shelby","9205","Rich Sevilla","(901) 322-6300","PreK-12","71","15","churchoffice@heritageministries.org"
"Evergreen Presbyterian Playschool","613 University","Memphis","TN","38107","Shelby","9075","Amy Dixon","(901) 725-4159","K","14","1","cindyw@evergreenmemphis.org"
"Lambs and Ivy","1185 Macon View Dr.","Cordova","TN","38018","Shelby","9064","Pat Gale","(901) 507-6971","K-2","6","1","corporate@thelambsivy.com"
"Holy Rosary Elementary School","4841 Park Avenue","Memphis","TN","38117","Shelby","9049","Mr. Darren Mullis","(901) 685-1231","Pk3-8","435","39","darren.mullis@hr.cdom.org"
"St. Louis School","5192 Shady Grove Road","Memphis","TN","38117","Shelby","9186","Richard M. Orians","(901) 682-9692","K-8","482","29","dick.orians@stlouis.cdom.org"
"Holy Names of Jesus and Mary School","709 Keel Avenue","Memphis","TN","38107","Shelby","9015","Sr. Donna Banfield, SBS","(901) 507-1503","3-8","89","12","donna.banfield@holynamesschool.cdom.org"
"Cotton Tail Christian Academy (site 3)","3643 New Tchulahoma","Memphis","TN","38118","Shelby","9475","Michelle Cottrell","(901)-795-0854","PK-2","33","3","ecott4236@bellsouth.net"
"Lords Tabernacle Christian Academy","2833 Midland Ave","Memphis","TN","38111","Shelby","9650","Eddis Cole","901-4540470","PreK-6","102",,"eddiscole@gmail.com "
"Brunswick Day Sch./Lakeside Behavioral Hlth","2911 Brunswick Road","Memphis","TN","38133","Shelby","9020","Edna Weiner ","(901) 373-0931","K-12","146","13","Edna.Weiner@uhsinc.com"
"Emmanuel United Meth. Kindergarten","2404 Kirby Road","Memphis","TN","38119","Shelby","9310","Elizabeth Jordan","(901) 754-3607","K","20","2","ejordan@emmanuelmemphis.org"
"Memphis University School","6191 Park Avenue","Memphis","TN","38119-5399","Shelby","9145","Mr. Ellis Haguewood","(901) 260-1300","7-12","665","78","ellis.haguewood@musowls.org"
"1st Class Montessori","1336 Peabody Avenue","Memphis","TN","38104","Shelby","9005","Evelyn C. Thorpe-Hibbler","(901) 274-5622","PreK-K","22","3","evefirstclass@earthlink.net"
"1st Class Montessori","1725 Appling Road","Cordova","TN","38016","Shelby","9327","Evelyn C. Thorpe-Hibbler","(901) 385.7425","PreK-3","24","4","evefirstclass@earthlink.net"
"Evergreen Montessori School","751 N. Trezevant St. (side entrance)","Memphis","TN","38112","Shelby","9012","Angela Feathers","(901) 304.4159","PreK, K-8","85","5+","evergreenmontessori@juno.com"
"Arete Christian Academy","538 E. Holmes Road","Memphis","TN","38109","Shelby","9011","Kathon A. Kelly","(901) 398-1162","1-12","1","1","evgkathonkelly@yahoo.com"
"Cotton Tail Christian Academy (site 1)","3533 Ridge Meadow Parkway","Memphis","TN","38115","Shelby","9032","Michelle Cottrell","(901) 566-9970","PK-2","58","6","executivedirectorctca@yahoo.com"
"Cotton Tail Christian Academy (site 2)","7440 East Holmes Rd.","Memphis","Tn","38125","Shelby","9038","Michelle Cottrell","(901)-751-3324","PK-2","59","3","executivedirectorctca@yahoo.com"
"Cotton Tail Christian Academy (site 4)","5225 Shady Ridge Drive","Memphis","TN","38141","Shelby","9476","Michelle Cottrell","901.362.2224","PK-2","40","4","executivedirectorctca@yahoo.com"
"Memphis Heritage Christian School","3802 Gragg Avenue","Memphis","TN","38108","Shelby","9021","Toxis St. Clair","(901) 377-7536","P2-3","13","1","faithca@bellsouth.net"
"Frayser Academy of Christian Education","3820 North Watkins","Memphis","TN","38127","Shelby","9028","Matt Greer","(901) 358-8025","2-10","8","4","frayserbiblechur@bellsouth.net"
"St. George's Day School - Memphis","3749 Kimball Avenue","Memphis","TN","38111","Shelby","9081","Ginny Henderson","(901) 261-2200","PK-K","55","8","ghenderson@sgis.org"
"Olivia's Montessori School, Inc.","2755 Appling Road","Memphis","TN","38133","Shelby","9150","Olivia Flasdick","(901) 377-3081","PreK-K","8","1","gochildren@aol.com"
"Hutchison School","1740 Ridgeway Road","Memphis","TN","38119","Shelby","9105","Dr. Annette C. Smith","(901) 762-6665","PK-12","856","110","gstollar@hutchisonschool.org"
"Harding Academy, Cordova Elem.","8360 Macon Road","Memphis","TN","38018","Shelby","9044","Charline Helm","(901) 624-0522","1-6","352","18","helm.charlene@hardinglions.org"
"Bodine School (The)","2432 Yester Oakes Dr.","Germantown","TN","38139","Shelby","9055","Rene Friemoth Lee","(901) 754-1800","1-8","85","13","info@bodineschool.org"
"Faith Heritage Christian Academy","4274 Duncan Road","Millington","TN","38053","Shelby","9037","M.O. Eckel, Jr.","(901) 872-0828","K-12","625","13","info@faithheritage.com"
"Margolin Hebrew Acad./Feinstone Yeshiva of the South","390 South White Station","Memphis","TN","38117","Shelby","9062","Rabbi Dr. Gil Perl","(901) 682-2400","PK-12","204","49","info@mhafyos.org"
"Harding Academy, White Station","1106 Colonial Road","Memphis","TN","38117","Shelby","9095","Mrs. Bonnie Jamerson","(901) 767-2093","K-6","170","10","jamerson.bonnie@hardinglions.org"
"Collegiate School of Memphis","675 National","Memphis","TN","38122","Shelby","9112","Jennifer Isom","901.591.8299",,,,"jisom@collegiatememphis.org"
"Evangelical Christian School-Fisherville","11893 Macon Road","Eads","TN","38028","Shelby","9029","Joanne Lamberth","(901) 850-9652","PK-5","86","5","jlamberth@ecseagles.com "
"Central Day School","2005 Winchester Blvd.","Collierville","TN","38017","Shelby","9023","John Spice","(901) 255-8134","K-8","333","26","johnspice@centraldayschool.com"
"Concord Academy","4942 Walnut Grove Road","Memphis","TN","38117","Shelby","9030","Joyce A. Teague","(901) 682-3115","6-12","47","8","joyceteague@concord-academy.org"
"Memphis Catholic Middle/High School","61 North McLean Boulevard","Memphis","TN","38104","Shelby","9130","Jim Pohlman","(901) 276-1221","7-12","154","16","jpohlman@memphiscatholic.org"
"Tipton-Rosemark Academy, Inc.","8696 Rosemark Road","Millington","TN","38011","Shelby","9210","John Scott","(901) 829-4221","Pk-12","670","55","jscott@rebelmail.net "
"St. George's Independent School - Germantown","8250 Poplar Avenue","Germantown","TN","38138","Shelby","9059","Judy Shelton","(901) 261-2300","PK-5","377","36","jshelton@sgis.org"
"St. Ann School - Bartlett","6529 Stage Road","Bartlett","TN","38134","Shelby","9082","Kathryn Brooks","(901) 386-3328","PK-8","574","42","kathy.brooks@stann.cdom.org"
"Daybreak Specialized School","2262 S. Germantown Road","Germantown","TN","38138","Shelby","9295","Karyn Bednarek","(901) 753-4300","K-12","17","1","kbednarek@daybreaktreatment.com"
"Harding Academy, Southwind","8220 East Shelby Drive","Memphis","TN","38125","Shelby","9180","Ms. Carol Knight","(901) 755-5662","K-6","22","9","knight.carol@hardinglions.org"
"Evangelical Christian School-Ridgelake","735 Ridgelake Boulevard","Memphis","TN","38120","Shelby","9034","Dr. Barbara Harris","(901) 683-9013","P-5","206","23","kpritchard@eceagles.com"
"Christ the Rock Christian Academy","8800 Winchester Road","Memphis","TN","38125","Shelby","9035","Karen Swihart","(901) 751-7122","PreK-8","200","9","ks@christtherockmemphis.org"
"St. Jude School Program","St. Jude Children's Research Hospital MS101,  332 N. Lauderdale","Memphis","TN","38105","Shelby","9091","Laurie D. Leigh","(901) 595.3346","K-12","60",,"laurie.leigh@stjude.org"
"Word of Faith Christian Academy","3528 Sharpe Avenue","Memphis","TN","38111","Shelby","9225","Debra Smith","(901) 744-4061","PreK-12","99","6","lecoleman@bellsouth.net     "
"Focus Placement & Treatment Services (Paragon Residential School)","1101 Chamblis Road","Memphis","TN","38116","Shelby","9646","Melinda Barber","901.396.3601","7-12","0","2","lindabarber744@gmail.com"
"Cornerstone Preparatory School","4488 Poplar Avenue","Memphis","TN","38117","Shelby","9070","Lisa Settle","901.261.4329","K-5","30",,"lsettle@cornerstoneprepmemphis.org"
"Madonna Learning Center","7007 Poplar Avenue","Germantown","TN","38138","Shelby","9067","Jo Ann Hinkle","(901) 752-5767","K-12",,,"madonna@madonna-learning.org; sharon.reid@mcnabb.org "
"Compass Academy - Shelby Co.","7900 Lowrance Road","Memphis","TN","38125","Shelby","9025","Dr. Mark S. Monroe","(901) 758-2002","1-12","75","6","mark.monroe@uhsinc.com"
"Memphis Jewish Community Ctr. Kind.","6560 Poplar Avenue","Memphis","TN","38138","Shelby","9640","Rose Marie Rossman","(901) 761-0810","K","30","3","mgross@jccmemphis.org"
"Memphis Recovery Center","219 N. Montgomery","Memphis","TN","38104","Shelby","9240","Mary Honey","901.274.5662","9-12/GED","29","4","mhoney@memphisrecovery.com"
"Maria Montessori School","740 Harbor Bend Road","Memphis","TN","38103","Shelby","9025","Maria Cole","(901) 527-3444","PreK - 8","47","5","mms1986@bellsouth.net"
"St. Mary's Episcopal School","60 Perkins Extended","Memphis","TN","38117","Shelby","9195","Marlene R. Shaw","(901) 537-1472","PK-12","850","110","mshaw@stmarysschool.org"
"Christian Brothers High School","5900 Walnut Grove Road","Memphis","TN","38120-2174","Shelby","9045","Chris Fay","(901) 261-4900","9-12","858","71","nlanigan@cbhs.org"
"Brinkley Heights Urban Academy","3275 Rosamond Ave.","Memphis","TN","38122","Shelby","9415","Rev. Tim Cox","(901) 324-3022","PK-5","78","14","pastortim@brinkleyheights.com"
"Lighthouse Christian Academy","PO Box 637 3660 Shelby Rd.","Millington","TN","38053","Shelby","9057","Tim VanDouser","(901) 873-3353","K-12","188","13","pfiveash@lcaps.org; bfrans@lcaps.org"
"Cordova Christian Academy, LLC","8200 Macon Road","Cordova","TN","38018","Shelby","9154","Pamela Strong","(901) 758-8877","PreK-4","190","6","pghstrong@gmail.com",
"Phoenix School of Creative Learning (The)","2404 Arthur Road","Germantown","TN","37138-5910","Shelby","9155","Peggy Morris","(901) 757-4360","6-12","30","4","phoenix-school@comcast.net"
"Evangelical Christian School - Macon","P.O. Box 1030     2000 North Main","Cordova","TN","38088","Shelby","9070","Paul Norby  Joanne Lamberth","901.754.7217","6-12","752",,"pnorby@ecseagles.com; jlamberth@ecseagles.com"
"Harding Academy, Sycamore View","1910 Sycamore View Road","Memphis","TN","38134","Shelby","9047","Marcie Pratt","(901) 372-1818","K-6","96","7","pratt.marcie@hardinglions.org"
"Breath of Life Christian Academy","3608 Hawkins Mill Rd.","Memphis","TN","38168","Shelby","9016","Yvette Williams","(901) 373-7363","PreK-8","54","4","principal@bolcaeagles.org   "
"Resurrection Catholic School","5475 Newberry","Memphis","TN","38115","Shelby","9081","Dr. Rafael Rondon","(901) 546-9926","Pk-K",,,"rafaelrondon@msn.com"
"Central Baptist School","5470 Raleigh LaGrange","Memphis","TN","38134","Shelby","9245","Russell Holcomb","(901) 386-8161","K-12","214","20","rholcomb@centralbaptistministries.org"
"Youth Dimensions","3385 Austin Peay Hwy.","Memphis","TN","38128","Shelby","9600","Roderick Scott","(901) 213-9000","5-12","40","3","rodscott@youthdimensions.com"
"Macon Road Baptist School-East Campus","11017 Highway 64 East","Memphis","TN","38002","Shelby","9137","Daniel Webb","(901) 867-8161","PreK-10","383","20","rrush@maconroadbaptist.org"
"Farmington Presbyterian Church Kindergarten","8245 Farmington","Germantown","TN","38139","Shelby","9300","Ruth Chandler","(901) 754-2794","PreK-K","18","1","ruthlyn@farmingtonpres.org"
"Immanuel Lutheran","6319 Raleigh LaGrange Road","Memphis","TN","38134","Shelby","9115","Scott Browning","(901) 388-0205","PK-8","199","13","sbrowning@immanuelmemphis.org"
"Briarcrest Christian HL Elem","76 S. Houston Levee","Cordova","TN","38028","Shelby","9017","Carol Hughey","(901) 765-4628","PK-5","321","25","sdwatson@briarcrest.com"
"Sensational Enlightenment Academy","2735 South Mendenhall Suite 8","Memphis","TN","38115","Shelby","9168","K. Pruitt","(901) 363-2820","PK-8","42","4","sensationalEn23@bellsouth.net"
"Shady Oaks School","2000 N. Germantown Parkway","Cordova","TN","38016","Shelby","9170","Sue Martin","(901) 737-3355","1-8","18","2","shadyoaksschool@bellsouth.net"
"Gateway Christian Schools","4070 Macon","Memphis","TN","38122","Shelby","9039","Shaun Thompson","(901) 452.3176","1-12","3418","60","shaun.gateway@gmail.com"
"Harding Academy, Cordova Kindergarten","8350 Macon Road","Memphis","TN","38018","Shelby","9046","Debbie Simpson","(901) 757-1008","K","126","8","simpson.debbie@hardinglions.org"
"Kadima Memphis Jewish High School","1203 Ridgeway Suite 203","Memphis","TN","38119","Shelby","9020","Adrienne Wiseman","(901)-767-4818","4-12","12","5","slewis@mjhschool.org"
"Morris Wilson-Youth Villages","2890 Bekemeyer","Arlington","TN","38002","Shelby","9230","Susan M. Blackwell","(901) 252-7250","1-12","84","9","susan.blackwell@youthvillages.org"
"Barbara K. Lipman Early Learning Center (Temple Israel)","1376 East Massey Road","Memphis","TN","38120","Shelby","9014","Susan Feld","901-937-2784","K","12","1","susanf@timemphis.org"
"Varangon Academy","3030 Brunswick Road","Bartlett","TN","38133","Shelby","9350","Susie Carlson, M. Ed.","(901) 531-1950","7-12","48","2.5","susiecarlson@yahoo.com"
"The Academy of Creative Learning, Christian Academy","2943 Cela Road","Memphis","TN","38128","Shelby",,"Tiffany Glover","901-386-9973","PreK-K",,"1","tglover@aclinc.net"
"The Neighborhood School","175 N. Tillman Street","Memphis","TN","38111","Shelby","9188","Taraniese Harris","(901) 323-4092","PK-8","133",,"tharris@tnsmemphis.org"
"Le Bonheur Children's Medical Center Hospital  School","50 North Dunlap Street","Memphis","TN","38103","Shelby","9092","Thomas Hobson","901.287.5038","K-12","25","2","thomas.hobson@lebonheur.org"
"St. Luke's Day School","480 South Highland Street","Memphis","TN","38111","Shelby","9190","Tracy Knox","(901) 324-8271","K","20","2","tracy.knox@stlukesumc.org"
"Westminster Academy","2500 Ridgeway Road","Memphis","TN","38119","Shelby","9097","Timothy Russell","(901) 380-9192","K-12","313",,"trussell@wamemphis.com"
"Lamplighter Montessori School","8563 Fay Road","Cordova","TN","38018","Shelby","9275","Terrie Sampson","(901) 751-2000","PK-8","150","13","tsampson@lamplighterschool.org"
"Memphis Oral School for the Deaf","7901 Poplar Avenue","Germantown","TN","38138","Shelby","9140","Teresa Schwartz","(901) 758-2228","Birth-6 yrs.","26","4","tschwartz@mosdkids.org; lucia.bertrand@uhsinc.com"
"New Hope Christian Academy","3000 University Street","Memphis","TN","38127","Shelby","9071","Trent Williamson","(901) 358-3183","PK-6","360","45","twilliamson@newhopememphis.org"
"St. Benedict Auburndale High School","8250 Varnavas Drive","Cordova","TN","38016","Shelby","9087","George Valadie","(901) 260-2840","9-12","905","60","valadieg@sbaeagles.org"
"Pleasant View School","1888 N. Bartlett Rd.","Memphis","TN","38134","Shelby","9280","Wesam Salem","(901) 380-0122","Pk-8","174","18","wesam@pleasantviewschool.com"
"First Assembly Christian School","8650 Walnut Grove Road","Cordova","TN","38018","Shelby","9080","Wendell W. Meadows","(901) 458-5543","PK-12","804","48","wmeadows@facsmemphis.org"
"St. George's Independent School- Collierville","1880 Wolf River Blvd.","Collierville","TN","38107","Shelby","9135","William W. Taylor","(901) 457-2000","6-12","253","25","wtaylor@sgis.org"
"Grace Christian School","828 Berclair Road","Memphis","TN","38122","Shelby","9041","Zack M. Guess","(901) 683-8014","3-12","7","4","zguess@juno.com"
"Doalnara Academy ","802 Upper Standing Rock Road","Dover","TN","37058","Stewart","9010","Alex Nam","(931) 232-8903","K-8","4",,"doalnaraacademy@yahoo.com"
"Christian Life Academy","2401 John B. Dennis Hwy.","Kingsport","TN","37660","Sullivan","9026","Donald Terry","(423) 288-2211","K-12","67","10","academy@christianlifecenter.com"
"CCS Adolescent Treatment Center","6145 Temple Star Road","Kingsport","TN","37660","Sullivan","9005","Stuart Sigrest","(423) 349-4070","6-12","15","1","ccstreatment@aol.com"
"Cedar View Christian School","1900 Flanders, PO Box 143","Kingsport","TN","37662","Sullivan","9021","Dr. Jim Fields","(423) 245-6341","PreK-12","169","20","cvcsseahawks@aol.com"
"The Academy at King","5825 Old Jonesboro Road","Bristol","TN","37620","Sullivan","9065","Susan A. Melkowski","423.573.9960","9-12","22","8","melkowski@academyatking.org"
"New Hope Academy","223 Hwy 75 Ste A","Blountville","TN","37617","Sullivan","9062","Angela Meade","413.279.9797","K5-12","125","2","newhopeacademytn@gmail.com"
"Appalachian Christian School","1044 New Beason Well Rd.","Kingsport","TN","37660","Sullivan","9010","Newl Dotson","(423) 288-3352","K-12","30","10","newl@harvestccm.org"
"St. Dominic School","1474 East Center Street","Kingsport","TN","37664","Sullivan","9015","Mrs. Debbie DePollo","(423) 245-8491","PreK-5","97","14","stdomschool@charterinternet.com"
"St. Paul's Day School and Kindergarten","160 E. Sevier Ave.","Kingsport","TN","37660","Sullivan","9020","Glenna Depew","(423) 246-5552","K","10","1","stpaulsdayschool@earthlink.net"
"Tennessee Avenue Christian Academy","806 Tennessee Avenue","Bristol","TN","37620","Sullivan","9025","Rhonda DeVoe","(423) 989-4346","K-11","116","9","tacacademy@embarqmail.com"
"Country Day Montessori","162 New Shackle Island Rd.","Hendersonville","TN","37075","Sumner","9011","Labenia Holman","(615) 264-3401","PK-1",,,"admin@countrydaymontessori-tn.com"
"                                                                                                                                                         ","211 Highland Circle Drive","Portland","TN","37148-4918","Sumner","9015","Becky Patrick","(615) 325-2036","9-12","96","15","bpatrick@highland-academy.com"
"Hendersonville Bible Kindergarten","107 Rockland Road, P.O. Box 38","Hendersonville","TN","37075","Sumner","9040","Connie H. Perkins","(615) 264-0308","K","14","2","cperkins@hendcoc.com "
"Aaron Academy","645 E. Main Street","Hendersonville","TN","37075","Sumner","9104","David Longoria","(615) 826-2595","K-12","3498",,"david@aaronacademy.com"
"Honeysuckle Montessori","112 Honeysuckle Drive","Hendersonville","TN","37075","Sumner","9085","Darlene M. Estes-Del Re","(615) 264-1235","PK-K","21","1","estesdelre@gmail.com"
"Pope John Paul II High School","117 Caldwell Lane","Hendersonville","TN","37075","Sumner","9200","Faustin Weber","(615) 822-2375","9-12","665","77","faustin.weber@jp2hs.org 
"
"Sumner Academy","464 Nichols Lane","Gallatin","TN","37066","Sumner","9025","William E. Hovenden Ph.D.","(615) 452-1914","PK-8","208","25","hmartin@sumneracademy.org"
"Primrose School of Hendersonville","107 Springhouse Ct.","Hendersonville","TN","37075","Sumner","9375","Lynn Johnson","(615) 338-4361","PreK-K","35","8","ljohnson@primrosehendersonville.com"
"Portland Montessori Academy","613 College Street","Portland","TN","37148","Sumner","9090","Renee Wood","(615) 323-1065","PReK, K-12","9","3","portlandmontessoriacademy@yahoo.com"
"St. John Vianney School","501 North Water St.","Gallatin","TN","37066","Sumner","9081","Jennifer McCormick","(615) 230-7048","K-8","166","17","secy_sjv@bellsouth.net",
"Teaching All Children Academy I","220 South Hickory","Gallatin","TN","37066","Sumner","9325","Towan Siler","615-230-2937","5-12","20","2","t.siler@geffort.com"
"Hendersonville Christian Academy","355 Old Shackle Island Road","Hendersonville","TN","37075","Sumner","9050","William Slater","(615) 824-1550","PreK-12","286","21","w.slater@hcacrusaders.com"
"Tipton Christian Academy","2105 Hwy. 59 S., P.O. Box 148","Covington","TN","38019","Tipton","9026","John Wells","(901) 475-4990","PreK-K","100","9","sharon@fbccovington.org"
"Faith Trinity Academy","14444 State Route 111","Spencer","TN","38585","Van Buren","9020","Scott Agee","(931) 946-3300","K-12","28","3","fta@blomand.net"
"Covenant Academy","1079 Country Club Drive","McMinnville","TN","37357","Warren","9020","Earline Steakley","(931) 668-6185","K","81","6","covenantacad@blomand.net"
"Westwood Kindergarten","511 Morrison Road","McMinnville","TN","37110","Warren","9015","C. N. Womack","(931) 473-8434","K","13","1","pat@westwoodchurchofchrist.com"
"F. C. Boyd, Sr. Christian School","806 Morrison Road","McMinnville","TN","37110","Warren","9005","Bill Marquette","(931) 473-9631","PK-12","213","16","rharper@fcbcs.org"
"Steppen Stone Academy","P.O. Box 278","Limestone","TN","37681","Washington","9055","Allison Fabish","(423) 257-6595","6-12","25","2","allfab@aol.com"
"Ashley Academy","1502 Knob Creek Road","Johnson City","TN","37604","Washington","9005","Matthew Arnold","(423) 929-7888","PreK-8","125","15","headmaster@ashleyacademy.com"
"Providence Academy","2788 Carroll Creek Road","Johnson City","TN","37615","Washington","9030","Jerry Williams","(423) 854-9819","K-12","471","35","jwilliams@providenceacademy.com"
"Tri-City SDA School","314 Delmar Saults Road","Gray","TN","37615","Washington","9015","Mike Colburn","(423) 477-8421","K-8","24","3","mcolburn@gccsda.com"
"Munsey Kindergarten","201 East Market Street","Johnson City","TN","37601","Washington","9060","Linda Buchanan","(423) 232-7094","K","13","1","preschool@munsey.org"
"St. Mary's School","2211 East Lakeview Drive","Johnson City","TN","37601","Washington","9025","Randi McKee","(423) 282-3397","K-8","174","19","rm7350@yahoo.com"
"Woodridge - Willow School ","403 N. State of Franklin Road","Johnson City","TN","37604","Washington","9033","Mellisa Stein","(423) 431-7077","1-12","12","1","SteinMA@msha.com"
"Central Baptist Kindergarten","300 North Roan Street","Johnson City","TN","37601","Washington","9065","Stephanie Gray","(423) 926-3696","K","18","2","weeministries@cbcsite.org"
"Wayne Academy","942 Andrew Jackson Drive","Waynesboro","TN","38485","Wayne","9010","Billie Jean Hollis","(931) 722-3172","7-12","30","3","keatonr@k12tn.net"
"Primrose School of Brentwood","5320 Maryland Way","Brentwood","TN","37027","Williamson","9058","Amy James","615-370-8305","PreK-K","150","30","director@primrosebrentwood.com"
"Franklin Christian Academy","2419 Bethlehem Loop","Franklin","TN","37069","Williamson","9031","Hugh Harris","(615) 599-9229","7-12","89","11","hharris@franklinchristianacademy.com"
"Battle Ground Academy","336 Ernest Rice Lane  P.O. Box 1889","Franklin","TN","37069","Williamson","9006","John Griffith","(615) 567-8376","K-12","930","99","jgriffith@battlegroundacademy.org"
"Currey Ingram Academy","6544 Murray Lane","Brentwood","TN","37027","Williamson","9035","Kathleen G. Rayburn","(615) 507-3242","K-12","262","84","karen.buckner@curreyingram.org"
"Holy Trinity Montessori","525 Sneed Rd. West","Nashville","TN","37221","Williamson","9014","Kate Riley","615.424.4236","PreK-K","27","2","kate.riley@holytrinitymontessori.org"
"St. Matthew Catholic School","533 Sneed Road W.","Franklin","TN","37069","Williamson","9025","Barby Magness","(615) 662-4044","K-8","316","28","mdonnelly@churchofstmatthew.org"
"Brentwood Academy","219 Granny White Pike","Brentwood","TN","37027","Williamson","9010","Curt Masters","(615) 373-0611","6-12","781","86","office@brentwoodacademy.com"
"Franklin Classical School","1215 Hillsboro Rd., P.O. Box 1601","Franklin","TN","37069","Williamson","9032","Mr. Andy Welch","(615) 595-5337","5-12","161","24","office@franklinclassical.com"
"Montessori School of Franklin","1325 West Main St., Suite G","Franklin","TN","37064","Williamson","9055","Kathy Conlin","(615) 794-0567","PK-3","74","4","office@montessorifranklin.org"
"Primrose School of Cool Springs","1010 Windcross Ct.","Franklin","TN","37067","Williamson","9170","Tracy Grant","615-771-3001","K","12","1","prmrose@bellsouth.net"
"Willow Hall Academy","4092 Carters Creek Pike","Franklin","TN","37064","Williamson","9015","Cavalyn N. Muller","(615) 790-1975","K-8","40","12","willowhallacademy@gmail.com"
"TASK  Center (Omni Vision)","3065 Murfreesboro Road","Lebanon","TN","37090","Wilson","9025","Dr. Ann Kelley","(615) 443-7222","7-12","16","2","akelley@omnivisions.com; dhumbert@omnivisions.com"
"Heritage Christian Academy - Mt. Juliet","PO Box 1135","Mt. Juliet","TN","37121","Wilson","9049","Katrina Hagerty","(615) 754-7946","K-12","260","32","busytrina@comcast.net "
"McClain Christian Academy","1662 Leeville Pike","Lebanon","TN","37090","Wilson","9015","Mike Williams","(615) 444-2678","K-12","150","22","d.shaffer@mac.com"
"Mt. Juliet Christian Academy","735 North Mt. Juliet Road","Mt. Juliet","TN","37122","Wilson","9010","Greg Scheck","(615) 758-2427","PK-12","453",,"gscheck@mjca.org "
"Landmark Christian Academy","3762 Murfreesboro Road","Lebanon","TN","37090","Wilson","9055","Jackie Johnson","(615) 453-5323","K-12","27","4","lca@landmarkpc.org"
"Montessori Achievement Academy","5588 Lebanon Road","Lebanon","TN","37087","Wilson","9016","Molly Scovel","615.349.6629","PreK-3","12","2","maa.achieve@gmail.com"
"Cedars Preparatory Academy","410 West Main St.","Lebanon","TN","37087","Wilson","9075","Mary Beard","615.257.1394","PreK-3",,,"mary.beard@pixierealty.com"
"Teaching All Children Academy II","4455 Bender Ferry Road","Mt. Juliet","TN","37122","Wilson","9175","Towan Siler","615-230-2937","5-12","16","1","t.siler@geffort.com"
"Mt. Juliet Montessori Academy","9695 Lebanon Road","Mt. Juliet","TN","37122","Wilson","9300","Debra Miller","(615) 354-1756","PreK-K","47","4","tnmontessori@gmail.com"
,,,,,,,,,
,,,,,,,,,
,,,,,,,,,
,,,,,,,,,
,,,,,,,,,
,,,,,,,,,
