"School Name","Address","City","State","Zip","Phone","Fax","Email","Principal Name"
"Fellowship Christian Academy Fort Worth","1140 Morrison Drive","Fort Worth","TX","76120","817-457-2345","817-457-2347","a.c.@fcafw.org","Angel Cuppett",
"TRINITY SCHOOL OF MIDLAND","3500 W WADLEY AVE","MIDLAND","TX","79707-5748","(432) 697-3281","(432) 697-7403","A_BARR@TRINITYMIDLAND.ORG","ALAN BARR",
"ST MARY'S CATHOLIC SCHOOL","405 HOLLYBROOK DR","LONGVIEW","TX","75605-2424","(903) 753-1657 ext:117","(903) 758-7347","aallen@stmaryslgv.org","AMY AMOS-ALLEN",
"PROVIDENCE HIGH SCH","1215 N ST MARY'S STREET","SAN ANTONIO","TX","78215-1737","(210) 224-6651 ext:15","(210) 224-6214","abilleaud@providencehs.net","SR. ANTOINETTE BILLEAUD",
"PROVIDENCE HIGH SCH","1215 N ST MARY'S STREET","SAN ANTONIO","TX","78215-1737","(210) 224-6651 ext:15","(210) 224-6214","abilleaud@providencehs.net","SR. ANTOINETTE BILLEAUD",
"TRINITY LUTHERAN SCHOOL HOUSTON","800 Houston Avenue","Houston","TX","77007","713-224-7265","713-224-1163","aboatman@trinitydt.org","Amy Boatman",
"TRINITY LUTHERAN SCHOOL HOUSTON","800 Houston Avenue","Houston","TX","77007","713-224-7265","713-224-1163","aboatman@trinitydt.org","Amy Boatman",
"TRINITY LUTHERAN SCHOOL HOUSTON","800 Houston Avenue","Houston","TX","77007","713-224-7265","713-224-1163","aboatman@trinitydt.org","Amy Boatman",
"THE JANE JUSTIN SCHOOL OF THE CHILD STUDY CENTER","1300 W LANCASTER","FT WORTH","TX","76102-3499","(817) 390-2831","(817) 390-2851","acammilleri@cscfw.org ","ANTHONY CAMMILLERI",
"ST MATTHEW CATHOLIC SCH","10703 WURZBACH","SAN ANTONIO","TX","78230-2499","(210) 478-5099","(210) 696-7624","acaro@archdiosa.org","ALVIN CARO",
"HOLY CROSS OF SAN ANTONIO","426 N SAN FELIPE ST.","SAN ANTONIO","TX","78228-6294","(210) 433-2117","(210) 433-1666","acedillo@archdiosa.org","ANGEL CEDILLO",
"AL-HEDAYAH ACADEMY","8602 RANDOL MILL ROAD","FT WORTH","TX","76120","(817) 265-6667","(817) 795-0381","achatila@hedayah.com ","Abir Chatila ",
"THE LAMPLIGHTER SCHOOL","11611 INWOOD RD","DALLAS","TX","75229-3098","(214) 369-9201","(214) 369-5540","ACOHEN@THELAMPLIGHTERSCHOOL.ORG","DR ARNOLD COHEN",
"ANGELO CATHOLIC SCH","19 S OAKES ST","SAN ANGELO","TX","76903-5929","(325) 655-3325","(325) 655-1286","acprincipal@yahoo.com","LUCY THOMAS",
"THE GRIFFIN SCHOOL","710 E 41ST ST","AUSTIN","TX","78751","512-454-5797","512-454-5799","adam@griffinschool.org","ADAM WILSON",
"Continuum Academy","203 E. Calhoun Street","Livingston","TX","77351","800-936-1252","800-936-1252","adjacks@alumni.rice.edu ","Mrs. Amy Jackson",
"HOLY FAMILY OF NAZARETH SCH","2323 CHEYENNE","IRVING","TX","75062-7263","(972) 255-0205","(972) 252-0448","admin@hfns.com","DENNIS R POYANT",
"LONGVIEW CHRISTIAN SCHOOL","2101 W MARSHALL AVENUE","LONGVIEW","TX","75604-5127","903-297-3501","903-759-4415","admin@lcseagles.com","KAREN WILLIAMS",
"RAINARD SCHOOL FOR GIFTED STUDENTS","11059 TIMBERLINE","HOUSTON","TX","77043","713-647-7246","713-365-0372","admin@rainard.org","JUDITH BANTA",
"SPRING CREEK ACADEMY","6000 CLUSTER RD BLDG 5","PLANO","TX","75023","972-517-6730","972-517-8750","admin@springcreekacademy.com","KAREN MORRELL",
"DUCHESNE ACADEMY OF THE SACRED HEART","10202 MEMORIAL DR","HOUSTON","TX","77024-3299","(713) 468-8211","(713) 465-9809","administration@duchesne.org","SISTER JAN E DUNN",
"DUCHESNE ACADEMY OF THE SACRED HEART","10202 MEMORIAL DR","HOUSTON","TX","77024-3299","(713) 468-8211","(713) 465-9809","administration@duchesne.org","SISTER JAN E DUNN",
"DUCHESNE ACADEMY OF THE SACRED HEART","10202 MEMORIAL DR","HOUSTON","TX","77024-3299","(713) 468-8211","(713) 465-9809","administration@duchesne.org","SISTER JAN E DUNN",
"DUCHESNE ACADEMY OF THE SACRED HEART","10202 MEMORIAL DR","HOUSTON","TX","77024-3299","(713) 468-8211","(713) 465-9809","administration@duchesne.org","SISTER JAN E DUNN",
"KEY SCHOOL","4113 WARNOCK CT","FT WORTH","TX","76109-4727","(817) 921-3737","(817) 927-2901","administration@keyschoolfortworth.org","MARY A KEY",
"FIRST BAPTIST ACADEMY","1401 PAT BOOKER RD","UNIVERSAL CITY","TX","78148-3928","210-658-5331","210-658-7024","administrator@fbauc.com","LINN CAGLE",
"Waxahachie Preparatory School","621 North Grand Ave.","Waxahachie","TX","75168","972--93-0440","972-937-5033","administrator@wpacademy.org","John C. Cullen",
"OUR LADY OF MT CARMEL SCH","6703 WHITEFRIARS DR","HOUSTON","TX","77087-6556","(713) 643-0676","(713) 649-1835","adoheny@olmchou.org","JOHN GUZMAN",
"INCARNATE WORD MIDDLE SCH","2917 AUSTIN ST","CORPUS CHRISTI","TX","78404-2498","(361) 883-0857 ext:113","(361) 882-9193","agarza@iwacc.org","ADOLFO GARZA",
"SACRED HEART CATHOLIC SCH","209 E GREENWOOD ST","DEL RIO","TX","78840-5198","(830) 775-3274","(830) 774-2836","aguerra@archdiosa.org","AURORA GUERRA",
"BRAZOS VALLEY ADVENTIST SCHOOL","1350 Earl Rudder Freeway","College Station","TX","77840","979-595-1115",,"ahenderson@txsda.org","Agida Henderson",
"REICHER CATHOLIC H S","2102 N 23RD ST","WACO","TX","76708-3399","(254) 752-8349","(254) 752-8408","ajones@reicher.org","ARLENE ANDERSON JONES",
"ST CLARE OF ASSISI CATHOLIC SCHOOL","3131 ELDORADO BLVD","HOUSTON","TX","77059-5100","(281) 286-3395","(281) 286-1256","al.varisco@saintclare-houston.org","DR AL J VARISCO",
"ST PETER PRINCE OF APOSTLES SCH","112 MARCIA PL","SAN ANTONIO","TX","78209-5896","(210) 824-3171","(210) 822-4504","alauder@archdiosa.org","ANN LAUDER",
"ST ANTHONY CATHOLIC SCHOOL","1015 E HARRISON ST","HARLINGEN","TX","78550-7123","(956) 423-2486","(956) 412-0084","allen_lisette@yahoo.com","LISETTE ALLEN",
"All Saints Episcopal School Beaumont","4108 Delaware","Beaumont","TX","77706","(409) 892-1755","(409) 892-0166","allsaints@sbcglobal.net","Catherine Clark",
"All Saints Episcopal School Beaumont","4108 Delaware","Beaumont","TX","77706","(409) 892-1755","(409) 892-0166","allsaints@sbcglobal.net","Catherine Clark",
"All Saints Episcopal School Beaumont","4108 Delaware","Beaumont","TX","77706","(409) 892-1755","(409) 892-0166","allsaints@sbcglobal.net","Catherine Clark",
"ST LUKE'S CATHOLIC SCH","4603 MANITOU DR","SAN ANTONIO","TX","78228-1819","(210) 434-2011 ext:126","(210) 433-2419","andrew.iliff@stlukecatholic.org","ANDREW ILIFF",
"CANYON CREEK CHRISTIAN ACADEMY","2800 CUSTER PARKWAY","RICHARDSON","TX","75080-1633","972-231-4890","972-234-8414","andy.wright@cccatx.org","ANDY WRIGHT",
"THE ALEXANDER SCHOOL","409 INTERNATIONAL PKY","RICHARDSON","TX","75081-2854","(972) 690-9210","(972) 690-9284","andy@alexanderschool.com ","ANDREW E CODY",
"ALPHA OMEGA ACADEMY","3891 HWY. 30 WEST","HUNTSVILLE","TX","77340-0007","936-438-8833","936-438-8844","aoa123@sbcglobal.net","PAUL DAVIDHIZAR",
"DEVEREUX SCHOOL","1150 DEVEREUX DR","LEAGUE CITY","TX","77573-2043","(281) 335-1000","(281) 332-2301","aoates@devereux.org","ALISE J OATES",
"AUSTIN PEACE ACADEMY","5110 Manor Road","Austin","TX","78723","512-926-1737","512-926-9688","apa_principal@yahoo.com","Dr. Walid Hawana",
"Primrose School of Kelliwood","2402 Westgreen Blvd","Katy","TX","77450","281-828-1600","281-828-9897","audreya@primrosekelliwood.com ","Lou Ann McLauglin",
"CARROLLTON CHRISTIAN ACADEMY","2205 EAST HEBRON PARKWAY","CARROLLTON","TX","75010-4442","(972) 242-6688","(972) 245-0321","award@ccasaints.org","PATRICIA RHEA",
"CARROLLTON CHRISTIAN ACADEMY","2205 EAST HEBRON PARKWAY","CARROLLTON","TX","75010","972-242-6688","972-245-0321","award@ccasaints.org","ALEX WARD",
"CARROLLTON CHRISTIAN ACADEMY","2205 EAST HEBRON PARKWAY","CARROLLTON","TX","75010","972-242-6688","972-245-0321","award@ccasaints.org","ALEX WARD",
"Primrose School of Valley Ranch","577Cimarron Trail","Irving","TX","75063","972-409-9577","na","azmina.shabout@primroseschoolofvalleyranch.invalid","Azmeena Shabout",
"BELIEVERS ACADEMY","13714 LOOKOUT RD","SAN ANTONIO","TX","78233-4518","(210) 656-2999","(210) 656-1226","ba@believers-fellowship.org","ROLLIN MAYES",
"ST JOHN BERCHMANS SCH","1147 CUPPLES RD","SAN ANTONIO","TX","78226-1296","(210) 433-0411","(210) 433-2335","babbott@archdiosa.org","BEVERLY ABBOTT",
"Primrose School of North Lewisville","1480 N. Valley Pkwy","Lewisville","TX","75077","972-424-4001","972-353-8822","baconhammer@hotmail.com","Pat Lee Director/Jamie and Brian Bacon Owners",
"ST GERTRUDE SCH","400 E CAESAR ST","KINGSVILLE","TX","78363-6319","(361) 592-6522","(361) 592-0100","bal@interconnect.net","BEVERLY LANMON",
"ST MARY SCHOOL","520 WASHBURN ST","TAYLOR","TX","76574","512-352-2313","512-365-5313","barbara-gibson@stmarystaylor.org","DR BARBARA GIBSON",
"NORTHEAST CHRISTIAN ACADEMY","1711 HAMBLEN RD","KINGWOOD","TX","77339-4024","281-359-1090","281-359-5560","bbaggett@nca-kingwood.org ","BRAD BAGGETT",
"NORTHEAST CHRISTIAN ACADEMY","1711 HAMBLEN RD","KINGWOOD","TX","77339-4024","281-359-1090","281-359-5560","bbaggett@nca-kingwood.org ","BRAD BAGGETT",
"LORETTO ACADEMY","1300 HARDAWAY","EL PASO","TX","79903-3198","(915) 566-8400","(915) 564-0563","bboesen@loretto.org","SISTER MARY BETH BOESEN",
"LORETTO ACADEMY","1300 HARDAWAY","EL PASO","TX","79903-3198","(915) 566-8400","(915) 564-0563","bboesen@loretto.org","SISTER MARY BETH BOESEN",
"LORETTO ACADEMY","1300 HARDAWAY","EL PASO","TX","79903-3198","(915) 566-8400","(915) 564-0563","bboesen@loretto.org","SISTER MARY BETH BOESEN",
"LORETTO ACADEMY","1300 HARDAWAY","EL PASO","TX","79903-3198","(915) 566-8400","(915) 564-0563","bboesen@loretto.org","SISTER MARY BETH BOESEN",
"LORETTO ACADEMY","1300 HARDAWAY","EL PASO","TX","79903-3198","(915) 566-8400","(915) 564-0563","bboesen@loretto.org","SISTER MARY BETH BOESEN",
"LORETTO ACADEMY","1300 HARDAWAY","EL PASO","TX","79903-3198","(915) 566-8400","(915) 564-0563","bboesen@loretto.org","SISTER MARY BETH BOESEN",
"FORT WORTH ACADEMY","7301 DUTCH BRANCH RD","FORT WORTH","TX","76132-2085","(817) 370-1191","(817) 294-1323","bbroderick@fwacademy.org","BILL BRODERICK",
"ST CECELIA CATHOLIC SCH","11740 JOAN OF ARC","HOUSTON","TX","77024-2602","(713) 468-9515","(713) 468-4698","bcollins@saintcecilia.org","BRIDGET L COLLINS",
"BETHESDA CHRISTIAN SCHOOL","4700 NORTH BEACH ST","FT WORTH","TX","76137","817-281-6446","817-281-1560","bcs@bethesdachristianschool.org","FREDA CHADWICK",
"BETHESDA CHRISTIAN SCHOOL","4700 NORTH BEACH ST","FT WORTH","TX","76137","817-281-6446","817-281-1560","bcs@bethesdachristianschool.org","FREDA CHADWICK",
"O'CONNELL COLLEGE PREPARATORY SCHOOL","1320 TREMONT","GALVESTON","TX","77550-4513","(409) 765-5534","(409) 765-5536","bdoughty@ochsgalv.org","BILL DOUGHTY",
"ST JOSEPH CATHOLIC SCH","2901 EAST RANCIER AVENUE","KILLEEN","TX","76543-3522","(254) 634-7272","(254) 634-1224","becky.kirkland@stjosephkilleen.org","BECKY KIRKLAND",
"Montessori Episcopal School","602 N. Old Orchard Lane","Lewisville","TX","75077","972-221-3533","972-353-5383","behdebo@aol.com","Deborah Herrington",
"AUSTIN JEWISH ACADEMY","7300 HART LANE","AUSTIN","TX","78731","(512) 735-8350","(512) 735-8351","bernice.tabak@austinjewishacademy.org","BERNICE TABAK",
"HIGH POINT PREPARATORY ACADEMY","2500 E. Arbrook Blvd","Arlington","TX","76014","817-394-3130","817-394-3101","beth.featherston@highpointprep.com","Beth Featherston",
"SOUTHWEST ACADEMY","600 S JUPITER RD","ALLEN","TX","75002-4065","(972) 359-6646","(972) 359-8291 ","beverly.dooley@southwestacademy.org","BEVERLY DOOLEY",
"KIRBY HALL SCHOOL","306 W. 29TH ST","AUSTIN","TX","78705","512-474-1771","512 474-1117 ","beverlyrase@yahoo.com","BEVERLY RASE",
"GARLAND COMMUNITY FAITH SCHOOL","1702 E. Centerville Road","Garland","TX","75041","972-271-3403",,"bfederowski@txsda.org","Barbara Federowski",
"CLEAR LAKE CHRISTIAN SCHOOL","14325 CRESCENT LANDING DR","HOUSTON","TX","77062","(281) 488-4883","(281) 480-7721","bguillot@sbcglobal.net","Bruce Guillot",
"HOUSTON LEARNING ACADEMY-CENTRAL CAMPUS","6108 S. Rice Ave #101","Houston","TX","77081","(713) 662-0756","(713) 662-2343","Bill.Watkins@nobellearning.com","Bill Watkins",
"CHINQUAPIN H S","2615 E WALLISVILLE RD","HIGHLANDS","TX","77562","281-426-5551","281-426-5553","bill@chinquapin.org","WILLIAMS W HEINZERLING",
"VANGUARD COLLEGE PREPARATORY SCHOOL","2517 MT CARMEL","WACO","TX","76710","(254) 772-8111 ","(254) 772-8263 ","Bill_Borg@vanguard.org ","BILL BORG",
"SECOND BAPTIST SCHOOL","6410 WOODWAY","HOUSTON","TX","77057-1606","(713) 365-2310","(713) 365-2355","bjacobsen@sbseagles.org","J. BRETT JACOBSEN",
"SECOND BAPTIST SCHOOL","6410 WOODWAY","HOUSTON","TX","77057-1606","(713) 365-2310","(713) 365-2355","bjacobsen@sbseagles.org","J. BRETT JACOBSEN",
"SECOND BAPTIST SCHOOL","6410 WOODWAY","HOUSTON","TX","77057-1606","(713) 365-2310","(713) 365-2355","bjacobsen@sbseagles.org","J. BRETT JACOBSEN",
"SECOND BAPTIST SCHOOL","6410 WOODWAY","HOUSTON","TX","77057-1606","(713) 365-2310","(713) 365-2355","bjacobsen@sbseagles.org","J. BRETT JACOBSEN",
"ST STEPHENS EPISCOPAL SCHOOL","2900 BUNNY RUN","AUSTIN","TX","78746","(512) 327-1213","(512) 327-1311","bkirkpatrick@sstx.org","Robert Kirkpatrick",
"ST STEPHENS EPISCOPAL SCHOOL","2900 BUNNY RUN","AUSTIN","TX","78746","(512) 327-1213","(512) 327-1311","bkirkpatrick@sstx.org","Robert Kirkpatrick",
"HOLY TRINITY CATHOLIC SCH","3750 WILLIAM D TATE AVE","GRAPEVINE","TX","76051-7106","(817) 421-8000","(817) 421-4468","bknapek@holytcs.org","SR BERNICE KNAPEK",
"Good Shepherd Episcopal School","11110 Midway Rd","Dallas","TX","75229-4118","(214) 357-1610","(214) 357-4105","bkohler@gsesdallas.org","Robert Kohler",
"Good Shepherd Episcopal School","11110 Midway Rd","Dallas","TX","75229-4118","(214) 357-1610","(214) 357-4105","bkohler@gsesdallas.org","Robert Kohler",
"Good Shepherd Episcopal School","11110 Midway Rd","Dallas","TX","75229-4118","(214) 357-1610","(214) 357-4105","bkohler@gsesdallas.org","Robert Kohler",
"Good Shepherd Episcopal School","11110 Midway Rd","Dallas","TX","75229-4118","(214) 357-1610","(214) 357-4105","bkohler@gsesdallas.org","Robert Kohler",
"PRIMROSE SCHOOL OF COLUMBUS TRAIL","5330 COLUMBUS TRAIL","FT WORTH","TX","76123","817-423-4000 ","NA","bksmith@primrosecolumbustrail.com ","Bill Smith ",
"BLESSED SACRAMENT SCH","9001 DIANA","EL PASO","TX","79904-1524","(915) 755-2711","(915) 755-0434","BlessedSacramentSchool@hotmail.com","FERMIN TORRES",
"MIDLAND CHRISTIAN ELEMENTARY SCHOOL","2001 CULVER ST","MIDLAND","TX","79705","(432) 694-1661","(432) 694-5281","blinthicum@midlandchristianschool.org","BETTY LINTHICUM",
"MIDLAND CHRISTIAN ELEMENTARY SCHOOL","2001 CULVER ST","MIDLAND","TX","79705","(432) 694-1661","(432) 694-5281","blinthicum@midlandchristianschool.org","BETTY LINTHICUM",
"MIDLAND CHRISTIAN ELEMENTARY SCHOOL","2001 CULVER ST","MIDLAND","TX","79705","(432) 694-1661","(432) 694-5281","blinthicum@midlandchristianschool.org","BETTY LINTHICUM",
"MIDLAND CHRISTIAN ELEMENTARY SCHOOL","2001 CULVER ST","MIDLAND","TX","79705","(432) 694-1661","(432) 694-5281","sfour@wtdschools.org","BETTY LINTHICUM",
"HYDE PARK BAPTIST H S","3901 SPEEDWAY ST","AUSTIN","TX","78751-4625","(512) 465-8338","(512) 371-1433","blittlefield@hpbs.org; sphelps@hpbs.org","unknown",
"HYDE PARK BAPTIST H S","3901 SPEEDWAY ST","AUSTIN","TX","78751-4625","(512) 465-8338","(512) 371-1433","blittlefield@hpbs.org; sphelps@hpbs.org","unknown",
"HYDE PARK BAPTIST H S","3901 SPEEDWAY ST","AUSTIN","TX","78751-4625","(512) 465-8338","(512) 371-1433","blittlefield@hpbs.org; sphelps@hpbs.org","unknown",
"HYDE PARK BAPTIST H S","3901 SPEEDWAY ST","AUSTIN","TX","78751-4625","(512) 465-8338","(512) 371-1433","blittlefield@hpbs.org; sphelps@hpbs.org","unknown",
"ST JOSEPH HIGH SCHOOL","110 E RED RIVER","VICTORIA","TX","77901-5299","(361) 573-2446","(361) 573-4221","bmcardle@stjvictoria.com","WILLIAM H. MCARDLE",
"ST JOSEPH HIGH SCHOOL","110 E RED RIVER","VICTORIA","TX","77901-5299","(361) 573-2446","(361) 573-4221","bmcardle@stjvictoria.com","WILLIAM H. MCARDLE",
"ALLEN ACADEMY","3201 BOONVILLE RD","BRYAN","TX","77802","(979) 776-0731","(979) 774-7769","bmeyer@allenacademy.org","BOB MEYER",
"NOTRE DAME CATHOLIC SCH","2821 Lansing","Wichita FAlls","TX","76309-4999","(940) 692-6041","(940) 692-2811","bob.mcbee@esc9.net","Dr. Robert McBee",
"NOTRE DAME CATHOLIC SCH","2821 Lansing","Wichita FAlls","TX","76309-4999","(940) 692-6041","(940) 692-2811","bob.mcbee@esc9.net","Dr. Robert McBee",
"AMERICAN HERITAGE ACADEMY","2660 E TRINITY MILLS","CARROLLTON","TX","75006","(972) 416-5437","(972) 418-5768","boba@starsaha.org","Robert Anderson",
"AMERICAN HERITAGE ACADEMY","2660 E TRINITY MILLS","CARROLLTON","TX","75006","(972) 416-5437","(972) 418-5768","boba@starsaha.org","Robert Anderson",
"LOCKHART SECURE WORK PRGRAM FACILITIES","1400 INDUSTRIAL BLVD","LOCKHART","TX","78644","(512) 398-3480","(512) 398-6757","bobcox46@hotmail.com","BOB J COX",
"CONCORDIA LUTHERAN HIGH SCHOOL TOMBALL","700 E MAIN ST","TOMBALL","TX","77375-6721","(281) 351-2547","(281) 255-8806","bodej@concordiacrusaders.org","Joel Bode",
"CONCORDIA LUTHERAN HIGH SCHOOL TOMBALL","700 E MAIN ST","TOMBALL","TX","77375-6721","(281) 351-2547","(281) 255-8806","bodej@concordiacrusaders.org","Joel Bode",
"GALLOWAY SCHOOL","3200 W. Bay Area Blvd.","Friendswood","TX","77546","281-286-8616","281-338-9530","bonniecerace@yahoo.com","Bonnie Cerace",
"OUR LADY OF PERP HELP","7625 CORTLAND AVE","DALLAS","TX","75235-3734","(214) 351-3396","(214) 351-9889","bouellette@olphdallas.org","BRIAN OUELLETTE",
"ST MARY'S ELEMENTARY SCH","202 S ORANGE ST","FREDERICKSBURG","TX","78624-3719","(830) 997-3914","(830) 997-2382","bpahl@archdiosa.org","BILLY PAHL",
"ST. FRANCIS SCHOOL","300 East Huntland Dr.","Austin","tx","78752","512-454-0848","512-453-2982","bporter@stfrancis-school.org","Barbara Porter",
"CHILDREN'S UNIVERSITY SCHOOL","4621 PARK SPRINGS BLVD","ARLINGTON","TX","76017","(817) 784-6655","(817) 784-1650","brightminds@childrensuniversity.com ","REGINA WRIGHT",
"SAN MARCOS BAPTIST ACADEMY","2801 RANCH RD 12","SAN MARCOS","TX","78666-9406","(512) 753-8040","(512) 753-8047","bryantb@smba.org","ROBERT H BRYANT",
"SAN MARCOS BAPTIST ACADEMY","2801 RANCH RD 12","SAN MARCOS","TX","78666-9406","(512) 753-8040","(512) 753-8047","bryantb@smba.org","ROBERT H BRYANT",
"SAN MARCOS BAPTIST ACADEMY","2801 RANCH RD 12","SAN MARCOS","TX","78666-9406","(512) 753-8040","(512) 753-8047","bryantb@smba.org","ROBERT H BRYANT",
"SAN MARCOS BAPTIST ACADEMY","2801 RANCH RD 12","SAN MARCOS","TX","78666-9406","(512) 753-8040","(512) 753-8047","bryantb@smba.org","ROBERT H BRYANT",
"GENEVA SCHOOL OF BOERNE","113 Cascade Caverns Road","Boerne","TX","78015","830-755-6101","830-755-6102","BRyden@genevaschooltx.org ","Brad Ryden",
"EL PASO BRIDGES ACADEMY","901 ARIZONA","EL PASO","TX","79902","915-532-6647","915-532-8767","bschool001@elp.rr.com","IRMA KEYS",
"PRESBYTERIAN PAN AMERICAN SCHOOL","P O BOX 1578","KINGSVILLE","TX","78364-1578","(512) 592-4307","(512) 592-6126","bstottlemyer@ppas.org","DR BARBARA G STOTTLEMYER",
"SUNSHINE COTTAGE","103 TULETA DR","SAN ANTONIO","TX","78212-3176","(210) 824-0579","(210) 826-0436","btraut@sunshinecottage.org","BLANE TRAUTWEIN",
"MARINE MILITARY ACADEMY","320 IWO JIMA BLVD","HARLINGEN","TX","78550-3698","(956) 423-6006","(956) 423-7716","butler@mma-tx.org","DR JOHN BUTLER",
"St. Cyprian's Episcopal School","1115 S. John Redditt Dr.","Lufkin","TX","75904-4381","(936) 632-1720","(936) 632-3852","bwilliford@saintcyprians.org ","BRINN WILLIFORD",
"St. Cyprian's Episcopal School","1115 S. John Redditt Dr.","Lufkin","TX","75904-4381","(936) 632-1720","(936) 632-3852","bwilliford@saintcyprians.org ","BRINN WILLIFORD",
"St. Cyprian's Episcopal School","1115 S. John Redditt Dr.","Lufkin","TX","75904-4381","(936) 632-1720","(936) 632-3852","bwilliford@saintcyprians.org ","BRINN WILLIFORD",
"St. Cyprian's Episcopal School","1115 S. John Redditt Dr.","Lufkin","TX","75904-4381","(936) 632-1720","(936) 632-3852","bwilliford@saintcyprians.org ","BRINN WILLIFORD",
"ST MARY S HALL","9401 STARCREST DR","SAN ANTONIO","TX","78217-4162","(210) 483-9100","(210) 483-9299","BWINDHAM@SMHALL.ORG","BOB WINDHAM",
"Calvary Episcopal Preschool","P.O. Box 626","Bastrop","TX","78602","512-321-1610","512-321-1610","calvaryschool@sbcglobal.net","Candace Grigsby",
"ST LOUIS SCHOOL","2114 ST JOSEPH BLVD","AUSTIN","TX","78757-1214","(512) 454-0384 ext:242","(512) 454-7252","carol.bruns@st-louis.org","CAROL BRUNS",
"ST LOUIS SCHOOL","2114 ST JOSEPH BLVD","AUSTIN","TX","78757-1214","(512) 454-0384 ext:242","(512) 454-7252","carol.bruns@st-louis.org","CAROL BRUNS",
"HIGHLAND PARK PRES DAY SCH","3821 UNIVERSITY BLVD","DALLAS","TX","75205","214-525-6500","214-525-6501","carrie.parsons@hppc.org","Carrie Parsons",
"CORAM DEO ACADEMY OF CARROLLTON","2435 EAST HEBRON PARKWAY","CARROLLTON","TX","75007","972 862-8657 ","972 692-5140 ","carrollton@coramdeoacademy.org","SCOTT DAVIS",
"CASSATA HIGH SCHOOL","1400 HEMPHILL ST","FORT WORTH","TX","76104-4796","(817) 926-1745","(817) 926-3132","Cassata@hotmail.com","BILL HARDISTY",
"CASSATA HIGH SCHOOL","1400 HEMPHILL ST","FORT WORTH","TX","76104-4796","(817) 926-1745","(817) 926-3132","Cassata@hotmail.com","BILL HARDISTY",
"ABERCROMBIE ACADEMY","17102 THEISS MAIL RD","SPRING","TX","77379","281-370-0663","281-257-2207","cathy@abercrombieacademy.com","CATHY ABERCROMBIE",
"THE CLARIDEN SCHOOL","100CLARIDEN RANCH RD","ROANOKE","TX","76262","817-481-7597","817-424-5561","cbaccus@claridenschool.org","DAVID DEUEL",
"BAYTOWN CHRIST ACAD","5555 North Main","BAYTOWN","TX","77521","281-421-4150","281-421-4038","cbrock@gobca.org","GAY BROCK",
"ST AUGUSTINE SCH","5500 LAUREL CREEK WAY","HOUSTON","TX","77017-6729","(713) 946-9050","(713) 943-3444","cbruns.sacs@yahoo.com","CAROL BRUNS",
"STEPPING STONE SCHOOL","3105 UNIVERSITY BLVD","TYLER","TX","75701","903-566-1851","903-566-0655","ccb@suddenlink.net","DEBBIE LAUMAN",
"ST JOHN THE APOSTLE CATHOLIC SCH","7421 GLENVIEW DR","NORTH RICHLAND HILLS","TX","76180-8387","(817) 284-2228","(817) 284-1800","ccummins@stjs.org","DR CINDY CUMMINS",
"ADVENTIST CHRISTIAN ACADEMY OF TEXAS","3601 E LOOP 336 East","CONROE","TX","77301","936-756-5078","936-756-5078","cearly@txsda.org","CAROLYN EARLY",
"WESTBURY CHRISTIAN LOWER SCHOOL","10420 HILLCROFT ST","HOUSTON","TX","77096-4704","(713) 723-8377","(713) 551-8108","CFARRIS@westburychristian.org","CASEY FARRIS",
"WESTBURY CHRISTIAN LOWER SCHOOL","10420 HILLCROFT ST","HOUSTON","TX","77096-4704","(713) 723-8377","(713) 551-8108","CFARRIS@westburychristian.org","CASEY FARRIS",
"WESTBURY CHRISTIAN LOWER SCHOOL","10420 HILLCROFT ST","HOUSTON","TX","77096-4704","(713) 723-8377","(713) 551-8108","CFARRIS@westburychristian.org","CASEY FARRIS",
"WESTBURY CHRISTIAN LOWER SCHOOL","10420 HILLCROFT ST","HOUSTON","TX","77096-4704","(713) 723-8377","(713) 551-8108","CFARRIS@westburychristian.org","CASEY FARRIS",
"MERRYHILL SCHOOL TROPHY CLUB","50 VILLAGE TRAIL","DENTON","TX","76262","817-430-8188 ","NA","cfrag16053@aol.com","Kelly Letson",
"MERRYHILL SCHOOL STONEBRIDGE RANCH","6050 ELDORADO PARKWAY","MCKINNEY","TX","75070","972-542-6309 ","na","cfrag16053@aol.com ","Sandy Swango",
"MERRYHILL SCHOOL KELLER","1750 RUFE SNOW DR","KELLER","TX","76248","817-498-4920 ","NA","cfrag16053@aol.com ","JOAN MANSION",
"ST FRANCIS OF ASSISI SCH","5100 DABNEY ST","HOUSTON","TX","77026-3015","(713) 674-1966","(713) 674-9901","cgoodcamp@aol.com","DR CLARICE CAMPBELL",
"TORAH DAY SCHOOL OF DALLAS","6921 FRANKFORD RD","DALLAS","TX","75252","972-964-0090","972-964-0091","chanaruderman@tdsd.org","RABBI YERACHMIEL UDMAN",
"Prince of Peace Christian School Carrollton","4000 N MIDWAY RD","CARROLLTON","TX","75007-5327","(972) 447-9887","(972) 447-0877","CHRIS.HAHN@PRINCEOFPEACE.ORG","CHRIS HAHN",
"Prince of Peace Christian School Carrollton","4000 N MIDWAY RD","CARROLLTON","TX","75007-5327","(972) 447-9887","(972) 447-0877","CHRIS.HAHN@PRINCEOFPEACE.ORG","CHRIS HAHN",
"LEGACY CHRISTIAN ACADEMY - FRISCO","5000 ACADEMY DRIVE","FRISCO","TX","75034-1206","469-633-1330","469-633-1348","chris.harmon@legacyca.com","CHRIS HARMON",
"LEGACY CHRISTIAN ACADEMY - FRISCO","5000 ACADEMY DRIVE","FRISCO","TX","75034-1206","469-633-1330","469-633-1348","chris.harmon@legacyca.com","CHRIS HARMON",
"WACO BAPTIST ACADEMY","6125 Bosque Blvd.","Waco","TX","76710","254.772-2122","254.772-2124","Cindi.Moore@WBAEagles.com","Cindi Moore",
"OAKRIDGE CHRISTIAN ACADEMY","27420 Robinson Rd","Conroe","TX","77387","281.298-5800","281.292-2818","cindy@oakridgechristian.org","Cindy McDonald",
"PRINCE OF PEACE CATHOLIC SCH","5100 PLANO PKWY W","PLANO","TX","75093-3956","(972) 380-5505","(972) 380-2570","cindy_kirsch@hotmail.com","CINDY KIRSCH",
"ST LEO THE GREAT CATHOLIC SCH","119 OCTAVIA PL","SAN ANTONIO","TX","78214-1299","(210) 532-3166","(210) 532-5997","cjohnson@archdiosa.org","CAROL JOHNSON",
"NORTHLAND CHRISTIAN SECONDARY SCHOOL","4363 SYLVANFIELD RD","HOUSTON","TX","77014-1620","(281) 440-1060","(281) 440-7572","ckraner@northlandchristian.org","CLIFF KRANER",
"UNIVERSITY CHRISTIAN CHURCH WEEKDAY SCHOOL","2720 S. UNIVERSITY DR","FT WORTH","TX","76109","817 926-3960 ","817 926-9674 ","claire@uccftw.com ","Claire Graham",
"GRACE ACADEMY OF DALLAS","11306A INWOOD RD","DALLAS","TX","75229-3019","214-696-5648","214-696-8713","clarke@graceacademy.com","REV. JIM CLARKE",
"ST ELIZABETH OF HUNGRY CATHOLIC SCH","4019 S HAMPTON RD","DALLAS","TX","75224-4701","(214) 331-5139","(214) 467-4346","clem@stelizabethofh.org","CHRISTINA CLEM",
"TRINITY SCHOOL OF TEXAS","215 N. TEAGUE ST","LONGVIEW","TX","75601","903 753-0612 ","903 753-4812 ","cmiller@trinityschooloftexas.com ","REV. CHARLENE MILLER",
"TRINITY SCHOOL OF TEXAS","215 N. TEAGUE ST","LONGVIEW","TX","75601","903 753-0612 ","903 753-4812 ","cmiller@trinityschooloftexas.com ","REV. CHARLENE MILLER",
"TRINITY SCHOOL OF TEXAS","215 N. TEAGUE ST","LONGVIEW","TX","75601","903 753-0612 ","903 753-4812 ","cmiller@trinityschooloftexas.com ","REV. CHARLENE MILLER",
"TRINITY SCHOOL OF TEXAS","215 N. TEAGUE ST","LONGVIEW","TX","75601","903 753-0612 ","903 753-4812 ","cmiller@trinityschooloftexas.com ","REV. CHARLENE MILLER",
"HOLY NAME SCH","3814 NASH BLVD","SAN ANTONIO","TX","78223-3442","(210) 333-7356","(210) 333-7642","cmills@archdiosa.org","CHAD MILLS",
"ST MATTHEW CATHOLIC SCHOOL","400 WEST SUNSET","EL PASO","TX","79922","(915) 581-8801","(915) 581-8816","CMONTOYA@SAINTMATTHEWCASHOLLSCHOOL.ORG","CAROL MONTOYA",
"CORPUS CHRISTI CATHOLIC SCH","4005 CHEENA","HOUSTON","TX","77025-4799","(713) 664-3351","(713) 664-6095","cmueller@corpschristihouston.org","CLAIRE MUELLER",
"ST PIUS X CATHOLIC SCH","3030 GUS THOMASSON RD.","DALLAS","TX","75228-3104","972-2792339","972-613-2059","cnewman@spxdallas.org","Dr. Carol Neuman",
"API-CENTRAL CAMPUS","P O BOX 1800","KILLEEN","TX","76540","254-526-1390","254-526-0817","Colvin.Davis@ctcd.edu","COLVIN DAVIS",
"ST LUKE SCH","1023 SCHULZE DR","IRVING","TX","75060-2711","(972) 253-8285","(972) 253-5535","cquattrochi@hotmail.com","CATHY QUATTROCHI",
"BRACKEN CHRISTIAN SCHOOL","670 OLD BOERNE ROAD","BULVERDE","TX","78163","830-438-3211","830-980-2327","craig.walker@brackenchristian.com","CRAIG WALKER",
"FAITH CHRISTIAN ACADEMY","8960 ESCOBAR","EL PASO","TX","79907-3107","(915) 594-3305","(915) 593-5474","cramirez@fcaelpaso.com","CESAR RAMIREZ",
"ST JOHN SCHOOL","701 S PARIS ST","ENNIS","TX","75119-6099","(972) 878-5411","(972) 767-0591","crebucks@stjohncs.org","CHRISTOPHER REBUCK",
"ST PAUL THE APOSTLE SCH","720 S FLOYD","RICHARDSON","TX","75080-7403","(972) 235-3263","(972) 690-1542","cregeci@stpaulschool.org","CAROL REGECI",
"PRIMROSE SCHOOL OF HERITAGE","4700 HERITAGE TRACE PARKWAY","Keller","TX","76248","817-741-5044","817-741-4415","creiser@primroseheritage.com ","CHRISTIE REISER",
"Cross Point Preschool Katy","700 S Westgreen Blvd","Katy","TX","77450","281-398-6464","281-599-9446","crobinson@crosspt.org","Connie Robinson",
"Cross Lutheran School New Bruanfels","2171 East Common St.","New Braunfels","TX","78130","830-625-3969","830-625-5019","cross-school@satx.rr.com","Kevin Dierks",
"ST ANTHONY'S SCH","1302 OAK AVE","DALHART","TX","79022-4408","(806) 244-4811","(806) 244-4811","crusaders@xit.net","CLARISSA EGERTON",
"THE CAMBRIDGE SCHOOL OF DALLAS","3877 WALNUT HILL LANE","DALLAS","TX","75229","214-357-2995","214-2357-0880","csd@cambridgedallas.org","LAINE KOONS",
"Primrose School of Spring-Klein","22003 Bridgestone Lane","Spring","TX","77388","281-350-9595","281-350-9589","csebesta@primrosespringklein.com","Charissa Sebesta",
"PANTEGO CHRISTIAN ACADEMY - MANSFIELD CAMPUS","2351 COUNTRY CLUB DRIVE","MANSFIELD","TX","76063","817-460-3315","817-277-6749","csherrill@pantego.com","CINDY SHERRILL",
"CHRISTIAN SCHOOL OF KINGWOOD","2901 WOODLAND HILLS DR","KINGWOOD","TX","77339-1406","(281) 359-4929","(281) 359-2514","cskadmin@cebridge.net","LINDA COPELAND",
"OUR LADY OF GUADALUPE SCH","2405 NAVIGATION BLVD","HOUSTON","TX","77003-1599","(713) 224-6904","(713) 225-2122","cskowronek@olgschoolhouston.org","CHRISTINA M SKOWRONEK",
"CHRIST THE KING CATHEDRAL SCH","4012 56th Street","LUBBOCK","TX","79413-4699","(806) 795-6477","(806) 795-9715","cwanjura@ctkcathedral.org","CHRISTINE WANJURA",
"THE BRIARWOOD SCH","12207 WHITTINGTON DR","HOUSTON","TX","77077-4999","(281) 493-1070","(281) 493-1343","cwills@briarwoodschool.org","CAROLE WILLS",
"PARAGON PREPARATORY SCHOOL","2001 W. Koenig Lane","Austin","Texas","78756","512-459-5040","512-459-1875","dave@paragonprep.com","Mr. David McGrath",
"ST. ANTHONY ' S SCHOOL","2030 Denton Drive","Carrollton","TX","75006","214-443-1205","972-245-5426","dave@thestanthonyschool.com","Tony Cinquepalmi/David Green",
"DALLAS LUTHERAN SCHOOL","8494 STULTS RD","DALLAS","TX","75243-4006","(214) 349-8912","(214) 340-3095","davidbangert@dallaslutheranschool.com","Dave Bangert",
"LUTHERAN HIGH NORTH HOUSTON","1130 W. 34TH","HOUSTON","TX","77018","713 880-3131 ","(713) 880-5447","davidwaterman@lea-hou.org ","DAVID WATERMAN",
"LUTHERAN HIGH NORTH HOUSTON","1130 W. 34TH","HOUSTON","TX","77018","713 880-3131 ","(713) 880-5447","davidwaterman@lea-hou.org ","DAVID WATERMAN",
"FIRST BAPTIST SCHOOL","1600 BOCA CHICA","BROWNSVILLE","TX","78520-8139","956-542-4854","956-542-6188","dbatsellfbs@yahoo.com","DEBORAH BATSELL",
"Holy Cross Lutheran School Dallas","11425 Marsh Lane","Dallas","TX","75229","214-358-4396","214-350-9133","dboldt@hcdallas.org","Dennis Boldt",
"BRIDGEPORT CORRECTIONAL CENTER","4000 N 10TH ST","BRIDGEPORT","TX","76426-9698","(940) 683-3010","(940) 683-3094","dbollinger@thegeogroupinc.com","DORIS BoLLINGER",
"SAINT ANDREW'S EPISCOPAL SCHOOL","727 HILL ST","GRAND PRAIRIE","TX","75050","(972) 262-3817","(972) 264-3730","ddanhof@comcast.net","Debra Danhof",
"TRINITY EPISCOPAL SCHOOL GALVESTON","720 TREMONT ST","GALVESTON","TX","77550-2202","(409) 765-9391","(409) 765-9491","DDEARMAN@TESGALV.ORG","REV. DAVID DEARMAN",
"TRINITY CHRISTIAN ACAD","17001 ADDISON RD","ADDISON","TX","75001","(972) 931-8325","(972) 931-8923","ddelph@trinitychristian.org","DAVID DELPH",
"I Cento School","1600 River Road","New Braunfels","TX","78132","830-608-9900","830-608-9000","deb.head@att.net","Debra Head",
"NOTRE DAME CATHOLIC SCH","923 MAIN ST","KERRVILLE","TX","78028-3599","(830) 257-6707","(830) 792-4370","debbie.mossman@notredameschool.cc","Sandra Trujillo-Garcia",
"TRINITY UNITED METHODIST SCHOOL","5319 NEWCOME DR","SAN ANTONIO","TX","78229","210-684-5214","210-509-0681","debras@tumcsa.org","DEBRA SCHNEIDER",
"REDD SCHOOL","4820 STRACK RD","HOUSTON","TX","77069-1610","(713) 440-1106","(281) 440-3225","dennabaskin@reddschool.com ","DENNA A BASKIN",
"DESOTO PRIVATE SCHOOL","301 E. BELTLINE RD","DESOTO","TX","75115","(972) 223-6540","(972) 230-0629","desotoprivate@aol.com","Kenneth Larson",
"Pilgrim Lutheran School Houston","8601 CHIMNEY ROCK RD","HOUSTON","TX","77096-1399","(713) 666-3706","(713) 666-6585","dglienke@pilgrimlutheranschool.org","Dave Glienke",
"ST LAURENCE CATHOLIC SCH","2630 AUSTIN PKWY","SUGARLAND","TX","77479-2630","(281) 980-0500","(281) 980-0026","dhaney@stlaurence.org","DEBRA HANEY",
"BRENHAM CHRISTIAN ACADEMY","2111 BLUE BELL ROAD","BRENHAM","TX","77833","979-830-8480","979-830-1687","dheadley@brenhamchristian.org","Dan Headley",
"CHRISTIAN LIFE PREPARATORY","6250 South Freeway","Fort Worth","TX","76134","817-293-1500","817-293-1500","dhenry@christianlifeprep.org","DEBORAH HENRY",
"HOUSTON LEARNING ACADEMY-FORT BEND CAMPUS","3964 Bluebonnet","Stafford","TX","77477","(281) 240-6060","(281) 240-0022","Diana.Monn@nobellearning.com","Diana Monn",
"University of Texas Health Science Center-Child Development Center","7900 Cambridge - CDC 321","Houston","TX","77054","713-500-8454","713-500-8450","diane.d.brooks@uth.tmc.edu","Ms. Diane Brooks",
"PRIMROSE SCHOOL OF FRIENDSWOOD","1409 S. Friendswood Dr.","Friendswood","TX","77546","281-648-7773","281-648-7771","director@primrosefriendswood.com ","Kristy Hirning",
"PRIMROSE SCHOOL OF SIENNA","4400 SIENNA PARKWAY","Missouri City","TX","77459","281-431-8687 ","NA","director@primrosesienna.com ","Wendy Schlicht ",
"OUR LADY QUEEN OF PEACE CATHOLIC SCH","1600 HWY 2004","RICHWOOD","TX","77531-4322","(979) 265-3909","(979) 265-9780","dkyle@olqpschool.org","DEBRA KYLE",
"FIRST BAPTIST DALLAS-DEVELOPMENT CENTER","1701 SAN JACINTO STREET","DALLAS","TX","75201-3213","214-969-2428","214-969-7720","dlc@firstdallas.org","KAREN HUNTER",
"LAKELAND CHRISTIAN ACADEMY","397 SOUTH STEMMONS FREEWAY","LEWISVILLE","TX","75067","972-219-3939","972-219-9601","dmiller@lakelandbaptist.org","DEBRA MILLER",
"LAKELAND CHRISTIAN ACADEMY","397 SOUTH STEMMONS FREEWAY","LEWISVILLE","TX","75067","972-219-3939","972-219-9601","dmiller@lakelandbaptist.org","DEBRA MILLER",
"WESTBURY CHRISTIAN UPPER SCHOOL","10420 HILLCROFT ST","HOUSTON","TX","77096-4704","(713) 723-8100","(713) 551-8117","dmlacey@westburychristian.org ","DAVID M. LACEY",
"WESTBURY CHRISTIAN UPPER SCHOOL","10420 HILLCROFT ST","HOUSTON","TX","77096-4704","(713) 723-8100","(713) 551-8117","dmlacey@westburychristian.org ","DAVID M. LACEY",
"WESTBURY CHRISTIAN UPPER SCHOOL","10420 HILLCROFT ST","HOUSTON","TX","77096-4704","(713) 723-8100","(713) 551-8117","dmlacey@westburychristian.org ","DAVID M. LACEY",
"WESTBURY CHRISTIAN UPPER SCHOOL","10420 HILLCROFT ST","HOUSTON","TX","77096-4704","(713) 723-8100","(713) 551-8117","dmlacey@westburychristian.org ","DAVID M. LACEY",
"CATHEDRAL SCHOOL OF ST. MARY","910 SAN JACINTO BLVD","AUSTIN","TX","78701-2416","(512) 476-1480","(512) 476-9922","doconnell@stmaryscathedral.org","DAVID O'CONNELL",
"FORT WORTH ACADEMY OF FINE ARTS","3901 SOUTH HULEN","FT WORTH","TX","76109","817 924-1482 ","817 926-9932 ","dollie.blevins@fwafa.org ","DOLLIE BLEVINS",
"THE KINKAID SCHOOL","201 KINKAID SCHOOL DR","HOUSTON","TX","77024-7504","(713) 782-1640","(713) 782-3543","DON.NORTH@KINKAID.ORG","DONALD NORTH",
"YAVNEH ACADEMY","12324 MERIT","DALLAS","TX","72751","214-295-3500","214-295-3505","doquinn@cebridge.net","DON O'QUINN",
"GRACE SCHOOL","10219 ELLA LEE LN","HOUSTON","TX","77042-2999","(713) 782-4421","(713) 267-5056","dpagel@graceschool.org","SUZANNE TODD",
"HAPPY HILL FARM ACADEMY","3846 N HWY 144","GRANBURY","TX","76048-5433","(254) 897-4822","(254) 897-7650","dphhf@hcnews.com ","DRU PRUITT",
"AGAPE CHRISTIAN SCHOOL","5600 BURKBURNETT RD","WICHITA FALLS","TX","76306","(940) 851-6727","(940) 851-6592","drburtacs@wfbiz.rr.com","Dr. Paula Burt",
"CYPRESS CHRISTIAN SCHOOL","11123 CYPRESS N HOUSTON RD","HOUSTON","TX","77065-1902","(281) 469-8829","(281) 469-6040","drholzman@cypresschristian.org","DR GLENN HOLZMAN",
"ASCENSION ACADEMY","8201 CANYON DR","AMARILLO","TX","79110","(806) 342-0515","(806) 342-0535","drice@ascensionacademy.org","DOUGLAS RICE",
"BRIGHTER HORIZONS ACADEMY","3145 MEDICAL PLAZA DR","GARLAND","TX","75044","972-675-2062","972-675-2063","dromran@brighterhorizons.org","ADNAN OMRAN",
"WEST ACADEMY ","3825 MCCART AVE","FT WORTH","TX","76110-4621","(817) 924-3535","(817) 926-3399","drsylviawest@yahoo.com","DR SYLVIA WEST",
"NAZARETH ACADEMY SCHOOL","206 W CONVENT ST","VICTORIA","TX","77901-8097","(361) 573-6651","(361) 573-1829","duke_910@hotmail.com","C.R. Alicardi",
"THE BANFF SCHOOL","13726 CUTTEN","HOUSTON","TX","77069","(281) 444-9326","(281) 444-3632","dwasser@banffschool.org","Deborah Wasser",
"THE AWTY INTERNATIONAL SCHOOL","7455 AWTY SCHOOL LN","HOUSTON","TX","77055-5489","(713) 686-4850","(713) 686-4956","DWATSON@AWTY.ORG","DAVID WATSON",
"St. Luke's Day School","3471 Westheimer Rd","Houston","TX","77027","713-402-5030","713-622-7418","dweymouth@stlukes-hou.org","Mrs. Debra Weymouth",
"DALLAS CHRISTIAN ACADEMY","4025 N CENTRAL EXPWY","DALLAS","TX","75204","214--52-6327","214-528-6450","dwhite@txsda.org","DARLENE WHITE",
"ST AUSTIN SCHOOL","1911 SAN ANTONIO","AUSTIN","TX","78705-5517","(512) 477-3751","(512) 477-3079","dwoodard@staustinschool.org","DONNA WOODARD",
"ST AUSTIN SCHOOL","1911 SAN ANTONIO","AUSTIN","TX","78705-5517","(512) 477-3751","(512) 477-3079","dwoodard@staustinschool.org","DONNA WOODARD",
"GOOD SHEPHERD LUTHERAN PRESCHOOL CEDAR PARK","700 W. Whitestone","CEDAR PARK","TX","78613","512-258-7602","512-258-2335","earlychildhoodcenter@gslc.cc","Ann Block",
"BLESSED SACRAMENT SCHOOL","1501 BARTLETT AVE","LAREDO","TX","78043","(956) 722-1222","(956) 712-2002","ebgutierrezbss@yahoo.com","ESTHER B GUTIERREZ",
"URSULINE ACADEMY OF DALLAS","4900 WALNUT HILL LN","DALLAS","TX","75229-6599","(469) 232-1800","(469) 232-1836","ebourgeois@ursulinedallas.org","ELIZABETH C. BOURGEOIS",
"URSULINE ACADEMY OF DALLAS","4900 WALNUT HILL LN","DALLAS","TX","75229-6599","(469) 232-1800","(469) 232-1836","ebourgeois@ursulinedallas.org","ELIZABETH C. BOURGEOIS",
"WESLEY ACADEMY","10570 WESTPARK DR","HOUSTON","TX","77042","(713) 266-3341","(713) 785-9655","ecastanedo@wesleyacademy.net","EMILY CASTANEDO",
"GRACE PREPARATORY ACADEMY","3300 WEST I-20","ARLINGTON","TX","76017","(817) 557-3399","(817) 557-4300","echapman@graceprep.org","ELAINE CHAPMAN",
"CHRIST MEMORIAL LUTHERAN SCHOOL HOUSTON","14200 MEMORIAL DR","HOUSTON","TX","77079-6702","(281) 497-2055","(281) 293-7734","eclc@christ-memorial.org","Barbara Tanz",
"Primrose School of Rockwall","3115 Ridge Road","Rockwall","TX","75032","972-772-0180","972 772-0182 ","ecollins@primroserockwall.com","Teresa Collins",
"Primrose School of Rowlett","8401 Liberty Grove Rd","Rowlett","TX","75089","972-463-2655","972-463-2699","ecollins@primroserowlett.com ","Teresa Collins",
"GRACE LUTHERAN EARLY CHILD MIDLAND","3000 W GOLF COURSE RD","MIDLAND","TX","79701-2998","(915) 694-3063","(915) 697-3536","ecp@marshill.com","MARY WOOD",
"HOLY TRINITY SCHOOL","3815 OAK LAWN AVE","DALLAS","TX","75219-4604","(214) 526-5113","(214) 526-4524","edd@htccd.org","ED DOHERTY",
"CENTRAL TEXAS CHRISTIAN SCHOOL","4141 W FM 93","TEMPLE","TX","76502","254-939-5700","254-939-5733","edthomas@ctcslions.com","ED THOMAS",
"FORT WORTH ADVENTIST JUNIOR ACADEMY","3040 SYCAMORE SCHOOL RD","FORT WORTH","TX","78621-9123","(817) 370-7177","(817) 370-8455","education@txsda.org","BRAD SIMMONS",
"BURLESON ADVENTIST SCH","1635 FOX LN","BURLESON","TX","76028-4336","(817) 295-6812","(817) 295-8001","education@txsda.org","Larry Howerton",
"BURTON ADVENTIST ACAD","4611 KELLY-ELLIOT RD","ARLINGTON","TX","76017-1353","(817) 572-0081","(817) 561-4237","education@txsda.org","GERALD COY",
"CLEBURNE ADV CHR SCH","111 MEADOWVIEW DR","CLEBURNE","TX","76031-4511","(817) 645-4300","817-783-2697","education@txsda.org","Cindy Read",
"JOSHUA ADV MULTI-GR SCH","P O BOX 1077","JOSHUA","TX","76058-1077","(817) 556-2109","817-783-2697","education@txsda.org","DAVID STAIR",
"QUEEN OF PEACE SCH","2320 OAKCLIFF","HOUSTON","TX","77023-5338","(713) 921-1558","(713) 921-0855","educqop@sbcglobal.net","DEENA WOLF",
"Primrose School of Bee Cave","3801 Juniper Trace","Austin","TX","78738","512-263-0388","512-263-8631","eduncan@hughes.net","Shauna Carter",
"MIDLAND CHRISTIAN HIGH SCHOOL","2001 CULVER ST","MIDLAND","TX","79705-8304","(432) 694-1661","(432) 694-5281","efreeman@midlandchristianschool.org","Byron Myers",
"MIDLAND CHRISTIAN HIGH SCHOOL","2001 CULVER ST","MIDLAND","TX","79705-8304","(432) 694-1661","(432) 694-5281","efreeman@midlandchristianschool.org","Byron Myers",
"MIDLAND CHRISTIAN HIGH SCHOOL","2001 CULVER ST","MIDLAND","TX","79705-8304","(432) 694-1661","(432) 694-5281","efreeman@midlandchristianschool.org","Byron Myers",
"MIDLAND CHRISTIAN HIGH SCHOOL","2001 CULVER ST","MIDLAND","TX","79705-8304","(432) 694-1661","(432) 694-5281","efreeman@midlandchristianschool.org","Byron Myers",
"ST RITA CATHOLIC SCH","12525 INWOOD RD","DALLAS","TX","75244-6999","(972) 239-3203","(972) 934-0657","ehines@strita.net","DR ELENA C HINES",
"FELLOWSHIP CHRISTIAN ACADEMY Dallas","1821 W CAMP WISDOM RD","DALLAS","TX","75232","214-672-9200 x 4401","214-672-9201","ejohnson@ocbfchurch.org","ERA JOHNSON",
"FELLOWSHIP CHRISTIAN ACADEMY Dallas","1821 W CAMP WISDOM RD","DALLAS","TX","75232","214-672-9200 x 4401","214-672-9201","ejohnson@ocbfchurch.org","ERA JOHNSON",
"SACRED HEART SCH","545 EAST PEARL ST.","LA GRANGE","TX","78945-2048","(979) 968-3223","(979) 968-5740","elmerfaykus@hotmail.com","ELMER FAYKUS",
"School Name"," Mailing Address Street"," Mailing Address City"," Mailing Address State"," Mailing Address Zip Code"," School Telephone"," School Fax","Email"," School Principal",
"ST JOSEPH CATHOLIC SCH","600 SOUTH COULTER","BRYAN","TX","77803-4057","(979) 822-6643","(979) 779-2810","emiranda@stjosephbcs.org","www.stjosephbcs.org",
"PROVIDENCE CHRISTIAN SCHOOL OF TEXAS","5002 W. Lovers Lane","DALLAS","TX","75209","214-366-2071","214-357-6251","emorse@pcstx.org","Dr. Tony Jeffrey",
"EL PASO COUNTRY DAY SCHOOL","220 E CLIFF DR","EL PASO","TX","79902-4123","(915) 533-4492","(915) 533-9626","epcds@epcds.org","LAURA K ALPERN",
"FORT WORTH COUNTRY DAY","4200 COUNTRY DAY LN","FT WORTH","TX","76109-4201","(817) 732-7718","(817) 738-6392","EPETERSON@FWCDS.ORG","EVAN PETERSON",
"El Paso Jewish Academy","805 Cherry Hill Lane","El Paso","TX","79912","915-833-0808","915-833-0819","epjewishacademy@yahoo.com","Mrs. Ilisa Cappell",
"ST MARY CATHOLIC SCHOOL","507 W SPRUCE","WEST","TX","76504","254-826-5991","254-826-7047","erickasammon@yahoo.com","ERICKA SAMMON",
"SAN ANTONIO CHRISTIAN ELEMENTARY SCHOOL","19202 REDLAND RD BLDG A","SAN ANTONIO","TX","78259-3330","210-248-1635","210-342-0146","es@sachristianschools.org","PHIL PADEN",
"IMMACULATE CONCEPTION SCH","2301 North Bonnie Brae","Denton","TX","76207","(940)381-1155","(940) 381-1837","eschad@runbox.com","ELAINE SCHAD",
"ST PETER THE APOSTLE CATHOLIC SCH","1201 S CHERRY LN","FT WORTH","TX","76108-3297","(817) 246-2032","(817) 246-3686","evadersps@yahoo.com","ERIN VADER",
"BISHOP LYNCH HIGH SCH","9750 FERGUSON RD","DALLAS","TX","75228-3891","(214) 324-3607","(214) 324-3600","Evelyn.Grubbs@bishoplynch.org ","EVELYN GRUBBS",
"BISHOP LYNCH HIGH SCH","9750 FERGUSON RD","DALLAS","TX","75228-3891","(214) 324-3607","(214) 324-3600","Evelyn.Grubbs@bishoplynch.org ","EVELYN GRUBBS",
"Primrose School of Stone Oak","689 Knights Cross Dr","San Antonio","TX","78258","210-481-1913","210-798-0818","evelyn@knightcross.biz","Evelyn Montalvan",
"ST JOSEPH CATHOLIC SCH","535 NEW LAREDO HWY","SAN ANTONIO","TX","78211-1898","(210) 922-0193","(210) 922-2002","ev-rosenthal@archdiosa.org","EDILIA VIDAL-ROSENTHAL",
"EWING EDUCATIONAL CENTER","201 Meredith Drive","SAN ANTONIO","TX","78228","(210) 732-7550","(210) 732-7559","ewingedu@sbcglobal.net","Billy Burchfield",
"LIBERTY-EYLAU CHRISTIAN SCHOOL","4903 EYLAU LOOP RD","TEXARKANA","TX","75501","903-838-8080","903-838-8080","eylauchristian@aol.com","CAROLYN TEEL",
"THE FAIRHILL SCHOOL","16150 PRESTON RD","DALLAS","TX","75248-1897","(972) 233-1026","(972) 233-8205","fairhill@fairhill.org","JANE A SEGO",
"OUR LADY OF FATIMA SCH","1702 9TH ST","GALENA PARK","TX","77547-2931","(713) 674-5832","(713) 674-3877","fatimaprincipal@yahoo.com","FRANCES RAMSEY",
"FAMILY CHRISTIAN ACADEMY","14718 Woodford","Houston","TX","77015","(713) 455-4483","(713) 455-3730","fcahouston.org","ROBERT ANDERSON",
"BAY AREA CHRISTIAN SCH","4800 W MAIN ST","LEAGUE CITY","TX","77573-1730","(281) 332-4814","(281) 554-5495","fcullins@bacschool.org","Melissa Fuqua",
"JESUIT COLLEGE PREPARATORY SCHOOL","12345 INWOOD RD","DALLAS","TX","75244-8064","(972) 387-8700","(972) 661-9349","fdonahue@jesuitcp.org","MICHAEL A EARSING",
"JESUIT COLLEGE PREPARATORY SCHOOL","12345 INWOOD RD","DALLAS","TX","75244-8064","(972) 387-8700","(972) 661-9349","fdonahue@jesuitcp.org","MICHAEL A EARSING",
"JESUIT COLLEGE PREPARATORY SCHOOL","12345 INWOOD RD","DALLAS","TX","75244-8064","(972) 387-8700","(972) 661-9349","fdonahue@jesuitcp.org","MICHAEL A EARSING",
"JESUIT COLLEGE PREPARATORY SCHOOL","12345 INWOOD RD","DALLAS","TX","75244-8064","(972) 387-8700","(972) 661-9349","fdonahue@jesuitcp.org","MICHAEL A EARSING",
"FIRST WOODWAY CHRISTIAN SCHOOL","13000 Woodway Drive","Waco","TX","76712","254.772.1298","254.772.9793","firstwoodwaychristianschool@yahoo.com","Nancy Purdy",
"ST BERNARD OF CLAIRVAUX SCH","1420 OLD GATE LN","DALLAS","TX","75218-4103","(214) 321-2897","(214) 321-4060","fleos@stbernards.us","FAUSTINO LEOS",
"ST MARTHA CATHOLIC SCH","2411 OAK SHORES DR","KINGWOOD","TX","77339-5524","(281) 358-5523","(281) 358-5526","flickinl@stmartha.com","LESLIE FLICKINGER",
"ANN AND NATE LEVINE ACADEMY-A SOLOMON SCHECHTER SCHOOL","18011 HILLCREST RD","DALLAS","TX","75252-5899","(972) 248-3032","(972) 248-0695","fnathan@levineacademy.org","FREDERICK NATHAN",
"FIRST BAPTIST CHRISTIAN ACADEMY","7500 FAIRMONT PKWY","PASADENA","TX","77505","281-991-9191","281-991-7092","fogg@fbcapasadena.org","MICHAEL FOGG",
"ST THERESA CATHOLIC SCH","6622 HASKELL","HOUSTON","TX","77007-2097","(713) 864-4536","(713) 869-5184","fsrgpisd@aol.com","MARY LOU CENATIEMPO",
"ALL SAINTS CATHOLIC EL","2006 N HOUSTON ST","FT WORTH","TX","76106-8195","(817) 624-2670","(817) 624-1221","ftwallsaints@juno.com","XAVIER RODRIGUEZ",
"OUR LADY OF SORROWS SCHOOL","1100 GUMWOOD ST","MCALLEN","TX","78501-4559","(956) 686-3651","(956) 686-1996","fvalle@yahoo.com","FEDERICO VALLE",
"FAITH WEST ACADEMY","2225 PORTER RD","KATY","TX","77493","(281) 391-5683","(281) 391-2606","fwa@faithwest.org","Dr. Raul Hinojosa",
"FAITH WEST ACADEMY","2225 PORTER RD","KATY","TX","77493","(281) 391-5683","(281) 391-2606","fwa@faithwest.org","Dr. Raul Hinojosa",
"MOUNT ST. MICHAEL CATHOLIC SCH","4500 W DAVIS ST","DALLAS","TX","75211-3419","(214) 337-0244","(214) 339-1702","g.montgomery@popcsdallas.com","GRETCHEN MONTGOMERY",
"HOLY CROSS SCHOOL","2001 KATY AVE","BAY CITY","TX","77414-5599","(979) 245-5632","(979) 245-6120","g_pavlik@sbcglobal.net","SISTER M GERALDINE PAVLIK",
"GARY JOB CORPS CENTER","2800 AIRPORT HWY 21","SAN MARCOS","TX","78666","512 396-6561 ","512 396-6666 ","Gary_CD@jobcorps.org","DEAN HOFFMAN",
"KENMONT MONTESSORI SCHOOL","2734 N CORIA","BROWNSVILLE","TX","78520","(956) 542-0500","(956) 542-0591","garzabeth@kenmontschool.com ","BETH ANN GARZA",
"ST THERESA'S SCH","4311 SMALL DR","AUSTIN","TX","78731-3635","(512) 451-7105","(512) 451-8808","gburback@st-theresa.org","GRACIE BURBACK",
"St. James' Episcopal School of Austin","1941 Webberville Road","Austin","TX","78721","512-926-4214","512-926-1215","gburgess@stjamesaustin.org","Glennie Burgess",
"THE KESSLER SCHOOL","1215 TURNER AVE","DALLAS","TX","75208","214-942-2220","214-946-5325","gdobbins@thekesslerschool.com ","GAYLA DOBBINS",
"PRESTONWOOD CRHISTIAN ACADEMY","6801 W PARK BLVD","PLANO","TX","75093","(972) 820-5069","(972) 930-4008","ghobbs@prestonwoodchristian.org","LARRY TAYLOR",
"REDEEMER LUTHERAN SCHOOL","1500 W ANDERSON LN","AUSTIN","TX","78757-1497","(512) 451-6478","(512) 459-6779","gkieschnick@redeemer.net","GLEN A KIESCHNICK",
"ANTONIAN COLLEGE PREPARATORY HIGH SCHOOL","6425 WEST AVE","SAN ANTONIO","TX","78213","(210) 344-9265","(210) 344-9267","glsaenz@aol.com ","DR GILBERT L SAENZ",
"ANTONIAN COLLEGE PREPARATORY HIGH SCHOOL","6425 WEST AVE","SAN ANTONIO","TX","78213","(210) 344-9265","(210) 344-9267","glsaenz@aol.com ","DR GILBERT L SAENZ",
"TRINITY KLEIN LUTHERAN SCHOOL SPRING","18926 KLEIN CHURCH RD","KLEIN","TX","77379-4999","(281) 376-5810","(281) 251-7021","GOEDECKEK@TRINITYKLEIN.ORG","kEITH GOEDECKE",
"ST PIUS X CATHOLIC SCH","1007 GERONIMO DRIVE","EL PASO","TX","79905-2198","915-772-6598","915-722-6598","gomezstpius@sbcglobal.net","CARLOS GOMEZ",
"GOOD SHEPHERD CATHOLIC SCH","214 S GARLAND AVE","GARLAND","TX","75040-6149","(972) 272-6533","(972) 272-0512","goodsh@airmail.net","GAIL RICHARDSON-BASSETT",
"HILL SCHOOL OF FT WORTH","4817 ODESSA AVE","FT WORTH","TX","76133-1640","(817) 923-9482","(817) 923-4894","gowens@hillschool.org ","GREGORY OWENS",
"ST PHILIP OF JESUS SCH","134 E LAMBERT","SAN ANTONIO","TX","78204-2224","(210) 222-2872","(210) 229-1829","graciela.luna@archdiosa.org","GRACIELA LUNA",
"GREENHILL SCHOOL","4141 SPRING VALLEY","ADDISON","TX","75001","(972) 628-5400","(972) 404-8217","GRIGGSS@GREENHILL.ORG","SCOTT GRIGGS",
"THE PARISH EPISCOPAL SCHOOL","4101 SIGMA RD","FARMERS BRANCH","TX","75244","(972) 239-8011","(972) 991-1237","GSNYDER@PARISHEPISCOPAL.ORG","GLORIA H SNYDER",
"THE PARISH EPISCOPAL SCHOOL","4101 SIGMA RD","FARMERS BRANCH","TX","75244","(972) 239-8011","(972) 991-1237","GSNYDER@PARISHEPISCOPAL.ORG","GLORIA H SNYDER",
"GUADALUPE REGIONAL MIDDLE SCHOOL","1214 LINCOLN ST","BROWNSVILLE","TX","78521","(956) 504-5568","(956) 504-9393","guadalupe678@sbcglobal.net","CATHERINE THOMAS",
"LIBERTY CHRISTIAN H S","1500 S BONNIE BRAE","DENTON","TX","76207-2017","(940) 294-2000","(940) 294-2045","hairer@libertyschool.org ","ED COOK",
"ST ANTHONY CATHOLIC HIGH SCH","3200 MCCULLOUGH AVE","SAN ANTONIO","TX","78212-3099","(210) 832-5600","(210) 832-5615","hannon@universe.uiwtx.edu","JOSEPH B. HANNON",
"ST ANTHONY CATHOLIC HIGH SCH","3200 MCCULLOUGH AVE","SAN ANTONIO","TX","78212-3099","(210) 832-5600","(210) 832-5615","hannon@universe.uiwtx.edu","JOSEPH B. HANNON",
"ST ANTHONY CATHOLIC HIGH SCH","3200 MCCULLOUGH AVE","SAN ANTONIO","TX","78212-3099","(210) 832-5600","(210) 832-5615","hannon@universe.uiwtx.edu","JOSEPH B. HANNON",
"Primrose School of Walnut Creek","2201 Matlock Rd","Mansfield","TX","76063","817-477-0880","817-453-3931","hatchm@charter.net","Meredith Hatch",
"HERITAGE CLASSICAL ACADEMY","4100 REPUBLIC","AMARILLO","TX","79109","806-463-2427","806-463-2433","hca@heritageca.us","DENNIS RAWLS",
"HERITAGE CHRISTIAN ACADEMY","510 RIVER ST.","CLEVELAND","TEXAS","77327","281-592-6430","281-592-6659","hca_eagles@yahoo.com","JENNIFER COOPER",
"HOLY CROSS CATHOLIC ACADEMY","4110 S BONHAM ST","AMARILLO","TX","79110-1113","(806) 355-9637","(806) 353-9520","hcca124@swbell.net","REVEREND MOSES KALLARACKAL",
"HILL COUNTRY CHRISTIAN SCHOOL OF AUSTIN","12124 RANCH ROAD 620 NORTH","AUSTIN","TX","78750","512-331-7036","512-257-4190","hccsa@hccsa.org","JOHN REYNOLDS",
"Holy Comforter Episcopal School","P.O. Box 786","Angleton","TX","77515","979-849-4602","na","hces-lori@sbcglobal.net","Lori Logsdon",
"St. Thomas' Episcopal School ","4900 Jackwood","Houston","TX","77096","713-666-3111","713-668-3887","headmaster@stes.org","Michael Cusack",
"MCKINNEY CHRISTIAN ACADEMY","3601 BOIS D'ARC ROAD","MCKINNEY","TX","75071-3237","214-544-2658","972-548-2507 ","headmastersoffice@mckinneychristian.org","KEVIN FIELDS",
"MCKINNEY CHRISTIAN ACADEMY","3601 BOIS D'ARC ROAD","MCKINNEY","TX","75071-3237","214-544-2658","972-548-2507 ","headmastersoffice@mckinneychristian.org","KEVIN FIELDS",
"Grace Episcopal Preschool","1314 E. University Avenue","Georgetown","Texas","78627","512-863-6214","512-864-7778","headofschool@grace-preschool.org","Virginia Herbert",
"MOST PRECIOUS BLOOD SCH","3502 SARATOGA BLVD","CORPUS CHRISTI","TX","78415-5807","(361) 852-4800","(361) 855-8707","healdmls@aol.com","MARTIN SCHOONOVER",
"JOHN PAUL II CATHOLIC SCHOOL Houston","1400 PKWY PLAZA RD","HOUSTON","TX","77077","281-496-1500","281-496-2943","hengst@jp2.org","JANIE HENGST",
"ST ANTHONY'S SCH","120 W. PARK AVENUE","HEREFORD","TX","79045-4202","(806) 364-1952","(806) 364-0969","hfdsas@wtrt.net","ANN LUEB",
"IMAN ACADEMY SOUTHEAST","10929 ALMEDA GENOA","HOUSTON","TX","77034","713 910-3626 ","713 910-5955 ","hisham_a_youssef@hotmail.com","HISHAM YOUSSEF",
"THE WESTWOOD SCHOOL","14340 PROTON RD","DALLAS","TX","75244","972-239-8598","972-239-1028","hlourcey@westwoodschool.org ","HEATHER LOURCEY",
"OUR LADY OF GUADALUPE SCHOOL","400 CALLAGHAN ST","LAREDO","TX","78040-3834","(956) 722-3915","(956) 727-2840","hmartinezolg@yahoo.com","HERLINDA MARTINEZ",
"KEYSTONE SCHOOL","119 E CRAIG PL","SAN ANTONIO","TX","78212-3415","(210) 735-4022","(210) 734-5508","HMCINTOSH@KEYSTONESCHOOL.ORG","HUGH MCINTOSH",
"ST MARK LUTHERAN SCHOOL HOUSTON","1515 HILLENDAHL","HOUSTON","TX","77055-3411","(713) 468-2623","(713) 468-6735","hmock@stmarkhouston.org","Herb Mock",
"ST MARK S SCHOOL OF TEXAS","10600 PRESTON RD","DALLAS","TX","75230-4047","(214) 346-8000","(214) 346-8002","HOLTBERG@SMTEXAS.ORG","ORG",
"HOLY ROSARY CATHOLIC SCHOOL","2015 SW GREEN OAKS BLVD","ARLINGTON","TX","76017","(817) 419-6800","(817) 419-7080","holy_rosary@hotmail.com","L LYNN DAY",
"HOLY FAMILY CATHOLIC SCH","2526 SOLEDAD ST","CORPUS CHRISTI","TX","78416-1698","(361) 884-9142","(361) 884-1750","holyfamilyschool@interconnect.net","SISTER PATRICIA RODRIGUEZ",
"THE BRANCH SCHOOL","1424 SHERWOOD FOREST","HOUSTON","TX","77043","(713) 465-0288","(713) 465-0337","hos@thebranchschool.org","EMILY SMITH",
"ZION WALBURG LUTHERAN SCHOOL GEORGETOWN","6121 6101 FM 1105","Georgetown","TX","78626","512-863-5345","512-869-5659","howard.voelker@zionwalburg.org","Howard Voelker",
"YORKSHIRE ACADEMY","14120 Memorial Drive","HOUSTON","TX","77079","281-531-6088","281-531-6097","howard@yorkshireacademy.com","JANET HOWARD",
"SAN ANTONIO CHRISTIAN MIDDLE SCHOOL & HIGH SCHOOL","19202 REDLAND RD BLDG F","SAN ANTONIO","TX","78259-3330","210-248-1645","210-530-9624","hs@sachristianschools.org","TODD HOLZMANN",
"IMMANUEL CHRISTIAN SCHOOL","1201 HAWKINS BLVD","EL PASO","TX","79925-4941","915-778-6160","915-772-8207","ibcsadmin@aol.com","MICHAEL DEWEY",
"IMMANUEL LUTHERAN SCHOOL GIDDINGS","382 N Grimes","Giddings","TX","78942","979-542-3319","979-542-9084","ilschool@verizon.net","Davn Schaefer",
"IMMANUEL LUTHERAN SCHOOL HOUSTON","306 E 15th St","Houston","TX","77008","713-861-8787","713-861-8787","immanuelschool@ilc-ils.org","Cheryl Burmeister",
"SAN JACINTO CHRISTIAN ACADEMY AMARILLO","501 SOUTH CAROLINA","AMARILLO","TX","79106","806-372-2285","806-376-6712","inf@sanjac.org","MARK MCKNIGHT",
"ABILENE CHRISTIAN SCHOOL","2550 N JUDGE ELY BLVD","ABILENE","TX","79601-2111","(325) 672-1200","(325) 672-1262","info@abilenechristian.com","EDSEL HUGHES AND MARK COLEY",
"ABILENE CHRISTIAN SECONDARY SCHOOL","2550 N JUDGE ELY BLVD","ABILENE","TX","79601-2111","(325) 672-6200","(325) 672-1262","info@abilenechristian.com","MARK COLEY",
"AKIBA ACADEMY OF DALLAS","6210 CHURCHILL WAY","DALLAS","TX","75230-1898","(214) 295-3400","(214) 295-3405","info@akibaacademy.org","Mark Stolovitsky",
"ALEDO CHRISTIAN SCHOOL","PO Box 117","Aledo","TX","76008","817-441-7357","817-441-7476","info@aledochristianschool.org","Kay Ross",
"BENDING OAKS SCH","11884 GREENVILLE AVE # 120","DALLAS","TX","75243-1011","(972) 669-0000","(972) 669-8149","info@bohs.com","BETH MARELLA",
"COVENANT CHRISTIAN SCHOOL","4503 INTERSTATE 45 NORTH","CONROE","TX","77304","936-890-8080","936-890-5343","info@ccsconroe.org","DR CHARLES LOYD",
"COMMUNITY CHRISTIAN SCHOOL","2501 GARRETT MORRIS PARKWAY","MINERAL WELLS","TX","76067","940-328-1333","940-328-1277","info@ccsmw.org","KAREN HORTON",
"COMMUNITY CHRISTIAN SCHOOL","2501 GARRETT MORRIS PARKWAY","MINERAL WELLS","TX","76067","940-328-1333","940-328-1277","info@ccsmw.org","KAREN HORTON",
"Christian Life Center Academy","600 Charles Street","Humble","Texas","77338","281/319-0077","281/446-5501","info@clc-church.com","Chelliah Soundar",
"CORNERSTONE CHRISTIAN SCHOOL","4802 Vance Jackson","San Antonio","TX","78230","210-979-6161","210-979-0310","info@CornerstoneChristianSchool.org","Jerry Eshelman",
"CORNERSTONE CHRISTIAN SCHOOL","4802 VANCE JACKSON","SAN ANTONIO","TX","78230","210-979-9203","210-979-0310","info@cornerstonechristianschools.org","WINTHROD HEAD",
"CORNERSTONE CHRISTIAN SCHOOL","4802 VANCE JACKSON","SAN ANTONIO","TX","78230","210-979-9203","210-979-0310","info@cornerstonechristianschools.org","WINTHROD HEAD",
"FAITH ACADEMY","12177  Hwy 36","Bellville","TX","77418","979-865-1811","979-865-2454","info@faithacademybellville.org","Merlene Byler",
"THE FOURTH STREET SCHOOL","1401 CAPLIN DR","ARLINGTON","TX","76018","(817) 275-2314","(817) 274-9174","info@fourthstreetschool.com","STEPHANY COCHRAN",
"HARVEST CHRISTIAN ACADEMY","7200 DENTON HWY","FORT WORTH","TX","76148-1202","817-485-1660","817-514-6279","info@hcasaints.org","TERRY CAYWOOD",
"HOLY TRINITY ACADEMY","13555 HILLCREST RD","DALLAS","TX","75240","972-490-7060","972-991-3424","info@holytrinityacademy.com","EVELYN FREEMAN",
"LIGHTHOUSE CHRISTIAN ACADEMY","5525 W ILLINOIS AVE","DALLAS","TX","75211-6612","214-339-2207","214-337-9636","info@lighthouseacademy.org","MARY SARIEGO",
"LIVE OAK CLASSICAL SCHOOL","500 WEBSTER","WACO","TX","76706","254 714-1007 ","254 756-2237 ","info@liveoakclassical.com","ALISON MOFFATT",
"LYDIA PATTERSON INSTITUTE","517 S FLORENCE","EL PASO","TX","79901-0011","(915) 533-8286","915 533-5236 ","info@lydiapattersoninstitute.org","HECTOR LACHICA",
"Northstar School","4620 Park Springs Road","Arlington","TX","76017","817-478-5852","817-478-7252","info@nsschool.org","Jane Hunn",
"ODYSSEY SCHOOL","4407 Red River ","AUSTIN","TX","78751","512-472-2262","512-236-9385","info@odysseyschoo.com","JOHN BRINSON",
"OVILLA CHRISTIAN SCHOOL","3251 OVILLA RD","RED OAK","TX","75154-3403","972-617-1177","469-218-0135","info@ovillachristianschool.org","KEN MATHIESON",
"PRIMROSE SCHOOL OF BEDFORD","3916 Central Dr","Bedford","TX","76021","817-545-5485","817-868-7722","info@primrosebedford.com","Robin Wilder",
"Primrose School of Breckinridge Park","4301 East Renner","Richardson","TX","75082","972-671-5437","972-671-5438","info@primrosebreckinridgepark.com","Mrs. Guy Siebenthal Director/Kelly Davis Owner",
"Primrose School of Keller","905 Bear Creek Pkwy","Keller","TX","76248","817-337-0717","817-337-0718","info@primrosekeller.com","Patti Merryman",
"Primrose School of Old Orchard","1253 W. Round Grove Rd","Lewisville","TX","75067","972-315-9495","972-459-4626","info@primroseoldorchard.com","Michaelanne Cangelosi",
"Primrose School of Stone Brooke","5651 West Virginia Pkwy","McKinney","TX","75070","972-712-0983","972-712-0985","info@primrosestonebrooke.com","Wendy Ghattas",
"ROLLING HILLS ACADEMY","21240 GATHERING OAK","SAN ANTONIO","TX","78258","(210) 497-0323","(210) 497-1440","info@rhacademy.org","SERGIO TERAN",
"RIVER OAKS ACADEMY","10600 RICHMOND AVE","HOUSTON","TX","77042","(713) 783-7200","(713) 783-7286","info@riveroaksacademy.com","LUIS VALDES",
"THE RUBICON ACADEMY","14211 HORSESHOE BEND","THE WOODLANDS","TX","77384","(936) 273-9111","(936) 321-6539","info@rubiconacademy.com","FRANCI ROBERTS",
"ST MARY OF CARMEL SCH","1716 SINGLETON BLVD","DALLAS","TX","75212-3855","(214) 748-2934","(214) 760-9052","info@smcschool.org","DEE SANTINI",
"SUMMIT CHRISTIAN ACADEMY OF CEDAR PARK","2121 CYPRESS CREEK ROAD","CEDAR PARK","TX","78613-3504","512-250-1369","512-259-0814","info@summiteagles.org","DEREK CORTEZ",
"TORAH DAY SCHOOL","10900 FONDERN","HOUSTON","TX","77096","713-777-2000","713-771-0036","info@tdshouston.org","C LAZAROFF",
"TEXOMA CHRISTIAN SCHOOL","3500 WEST HOUSTON ST","SHERMAN","TX","75092-1599","903-893-7076","903-891-8486","info@texomachristian.org","JEFF BURLEY",
"TEXOMA CHRISTIAN SCHOOL","3500 WEST HOUSTON ST","SHERMAN","TX","75092-1599","903-893-7076","903-891-8486","info@texomachristian.org","JEFF BURLEY",
"THE HARRIS SCHOOL","900 Lovett Blvd","Houston","TX","77006","713-526-4046","713-526-9126","info@theharrisschool.com","Susan Spencer",
"UNITED DAY SCHOOL","1701 SAN ISIDRO PKWY","LAREDO","TX","78045","956-723-7261","956-718-4048","info@unitedday.com","RITA PETERS",
"VERITAS CHRISTIAN ACADEMY OF HOUSTON","7000 FERRIS STREET","BELLAIRE","TX","77401-3921","713-773-9605","713-773-9753","info@veritasca.org","LAMIA RAAD",
"VERITAS CHRISTIAN ACADEMY OF HOUSTON","7000 FERRIS STREET","BELLAIRE","TX","77401-3921","713-773-9605","713-773-9753","info@veritasca.org","LAMIA RAAD",
"WEATHERFORD CHRISTIAN SCHOOL","111 East Columbia","Weatherford","TX","76086","817-596-7807","817-596-0529","info@wcslions.org","Van Gravitt",
"WEATHERFORD CHRISTIAN SCHOOL","111 East Columbia","Weatherford","TX","76086","817-596-7807","817-596-0529","info@wcslions.org","Van Gravitt",
"SCHOOL FOR EDUCATIONAL ENRICH","7310 BISHOP FLORES","EL PASO","TX","79912","915-584-9499","915-585-8814","iris_see@hotmail.com","ROB FURRER",
"RADFORD SCHOOL","2001 RADFORD ST","EL PASO","TX","79903-1599","(915) 565-2737","(915) 565-2730","j.doran@radfordschool.org ","DR. JOHN DORAN",
"TMI: THE EPISCOPAL SCHOOL OF TEXAS","20955 W Tejas Trail","SAN ANTONIO","TX","78257-9708","(210) 698-7171","(210) 698-0715","J.FREEMAN@TMI-SA.ORG","Dr. James Freeman",
"KID'S DAY OUT CHRISTIAN LEARNING CENTER","1615 WEST BELTLINE ROAD","CARROLLTON","TX","75006-6633","972-245-8054","972-245-1978","j.moore@northchurch.org","PASTOR JANICE MOORE",
"The Crisman School","2455 N. Eastman Road","Longview","TX","75605","903-758-9741","903-758-9767","jabbott@crismanschool.org","John Abbott",
"MERRYHILL SCHOOL PLANO","2121 BAY HILL DR","PLANO","TX","75023","972-867-1234","972-769-2964","jaime.higgs@nlcinc.com","JAIME HIGGS",
"CATHEDRAL CHRISTIAN SCHOOL","2350 EASTEX FREEWAY","BEAUMONT","TX","77703-4626","(409) 892-1503","(409) 898-1506","jairey@cathedralwarriors.org","JEB AIREY",
"CATHEDRAL CHRISTIAN SCHOOL","2350 EASTEX FREEWAY","BEAUMONT","TX","77703-4626","(409) 892-1503","(409) 898-1506","jairey@cathedralwarriors.org","JEB AIREY",
"ST JOHN S SCHOOL","2401 CLAREMONT LN","HOUSTON","TX","77019-5811","(713) 850-0222","(713) 622-2309","JALLMAN@SJS.ORG","JOHN ALLMAN",
"THE WOODLANDS CHRISTIAN ACADEMY","5800 ALDEN WOODS DR N","THE WOODLANDS","TX","77384","(936) 273-2555","(936) 271-3115","jambler@twca.net ","JULIE AMBLER",
"ST ELIZABETH ANN SETON CATHOLIC SCHOOL","6646 ADDICKS-SATSUMA RD","HOUSTON","TX","77084","(281) 463-1444","(281) 463-8707","jan_kram@yahoo.com","JAN KRAMETBAUER",
"THE WESTVIEW SCHOOL","1900 KERSTEN DRIVE","HOUSTON","TX","77043","(713) 973-1900","(713) 973-1970","janes@westviewschoo.org","Jane Stewart",
"ST GABRIEL'S CATHOLIC SCHOOL","2500 WIMBERLY LN","AUSTIN","TX","78735","(512) 327-7755","(512) 327-4334","janet.ickert@sgs-austin.org","www.sgs-austin.org",
"ST GABRIEL'S CATHOLIC SCHOOL","2500 WIMBERLY LN","AUSTIN","TX","78735","(512) 327-7755","(512) 327-4334","janet.ickert@sgs-austin.org","www.sgs-austin.org",
"ACHIEVERS CENTER FOR EDUCATION","5084 DeZavala Road","San Antonio","TX","78249","210-690-7328","210-696-7723","janet@uchurch.tv","Janet Roper",
"PARK ROW CHRISTIAN ACADEMY","915 West Park Row Drive","Arlington","Texas","76013","817-277-1021","817-277-1365","janrogers@parkrow.net","Jan Rogers",
"PARK ROW CHRISTIAN ACADEMY","915 West Park Row Drive","Arlington","Texas","76013","817-277-1021","817-277-1365","janrogers@parkrow.net","Jan Rogers",
"ST MARY'S  CENTRAL CATHOLIC SCH","1703 N ADAMS ST","ODESSA","TX","79761-1396","(432) 337-6052","(432) 337-6052","jaramillo@pbol.net","MARY L JARAMILLO",
"CHRISTIAN HERITAGE ELEMENTARY","16316 SAN PEDRO","SAN ANTONIO","TX","78232","210-496-1644","210-496-1993","jbrandt@chs-kids.com","JAHNNETTE BRANDT",
"CHRISTIAN HERITAGE JUNIOR/SENIOR HIGH","16316 SAN PEDRO","SAN ANTONIO","TX","78232-5233","(210) 496-1644","(210) 496-1993","jbrandt@chs-kids.com","JAHNNETTE BRANDT",
"CENTER FOR HEARING AND SPEECH","3636 W DALLAS ST","HOUSTON","TX","77019-1799","(713) 523-3633","(713) 926-8035","jcastillo@centerhearingandspeech.org","JODY CASTILLO",
"GLENVIEW CHRISTIAN SCHOOL","4805 NE LOOP 820","FORT WORTH","TX","76137-2801","817-281-5155","817-514-0760","jchenausky@glenviewchristianschool.org","JERRY CHENAUSKY",
"GLENVIEW CHRISTIAN SCHOOL","4805 NE LOOP 820","FORT WORTH","TX","76137-2801","817-281-5155","817-514-0760","jchenausky@glenviewchristianschool.org","JERRY CHENAUSKY",
"CASTLE HILLS FIRST BAPTIST SCHOOL","2220 NW MILITARY PKWY","SAN ANTONIO","TX","78213-1815","210-377-8485","210-377-8473","jchew@chfbs.org","JACK CHEW",
"LIFESTYLE CHRISTIAN SCHOOL","3993 I-45 NORTH","CONROE","TX","77304","936-756-9383","936-760-3003","jdavenport@lifestyleconroe.org","JOSHUA DAVENPORT",
"Primrose School of Eagle Ranch","3125 Eagle Ranch Rd","Ft. Worth","TX","76179","817-236-6760","817-236-6750","jfielder@primroseeagleranch.com ","JESSICA FIELDER",
"BISHOP T K GORMAN CATHOLIC SCH","1405 ESE LOOP 323","TYLER","TX","75701-9130","(903) 561-2424","(903) 561-2645","jfranz@tkgorman.net","JAMES FRANZ",
"BISHOP T K GORMAN CATHOLIC SCH","1405 ESE LOOP 323","TYLER","TX","75701-9130","(903) 561-2424","(903) 561-2645","jfranz@tkgorman.net","JAMES FRANZ",
"ST AMBROSE SCH","4213 MANGUM RD","HOUSTON","TX","77092-5599","(713) 686-6990","(713) 686-6902","jfritsch@sashornets.org","JUDY FRITSCH",
"THE FULTON SCHOOL","1623 LAURENCE DR","HEATH","TEXAS","75032","972-772-4445","972-772-9558","jgreenwalt@thefultonschool.org","JOY GREENWALT",
"DESOTO ADVENTIST CHRISTIAN SCHOOL","235 N. Cockrell Hill Road","DeSoto","TX","75115","972 274 9789",,"jgriffitt@txsda.org","Jean Griffitt",
"CALVARY LUTHERAN","9807 CHURCH RD","DALLAS","TX","75238","214-343-7457","214-348-1424","jhenrickson@caltex.org","JIM HENRICKSON",
"GRACE LUTHERAN SCHOOL BRENHAM","1212 Jefferson Street","Brenham","TX ","77833","979-836-2030","979-836-0510","jhollitz@glcbren.org","Jake Hollitz",
"ST MARY MAGDALENE SCHOOL","530 FERGUSON ST","HUMBLE","TX","77338","(281) 446-8535","(281) 466-8527","jjohnson@smmcs.org","JEAN JOHNSON",
"ST AUGUSTINE CATHOLIC SCH","1064 N ST AUGUSTINE DR","DALLAS","TX","75217-4014","(214) 391-1381","(214) 391-8781","jkein@stdallas.com","JOHN P. KLEIN",
"THE OAKRIDGE SCHOOL","5900 W PIONEER PKWY","ARLINGTON","TX","76013-2840","(817) 451-4994","(817) 457-6681","jkellam@THEOAKRIDGESCHOOL.ORG","Jonathan Kellam",
"JAMES L COLLINS CATHOLIC SCH","3000 W HWY 22","CORSICANA","TX","75110-2438","(903) 872-1751","(903) 872-1186","jlccs@airmail.net","PHILIP R RILEY JR",
"BRENTWOOD CHRISTIAN SECONDARY SCHOOL","11908 N LAMAR BLVD","AUSTIN","TX","78753-2143","(512) 835-5983","(512) 835-2184","jlee@brentwoodchristian.org","JARED LEE",
"BRENTWOOD CHRISTIAN SECONDARY SCHOOL","11908 N LAMAR BLVD","AUSTIN","TX","78753-2143","(512) 835-5983","(512) 835-2184","jlee@brentwoodchristian.org","JARED LEE",
"LIFEGATE CHRISTIAN SCHOOL","395 LIFEGATE Lane","SEGUIN","TX","78155-0948","(830) 372-0850","(830) 372-0895","jlee@lifegatefalcons.org","Jacob Lee",
"ST CATHERINE'S MONTESSORI SCH","9821 TIMBERSIDE","HOUSTON","TX","77025","(713) 665-2195","(713) 665-1478","jmmcullough@stcathmont.org","JUDITH MCCULLOUGH",
"ST MARY MAGDALEN CATHOLIC SCH","1700 CLOWER ST","SAN ANTONIO","TX","78201-3540","(210) 735-1381","(210) 735-2406","jmuniz@archdiosa.org","JOSE MUNIZ",
"PRIMROSE SCHOOL OF BARKER CYPRESS","16555 Dundee Rd","Cypress","TX","77429","713-838-0882","281-225-0125","jnstanner@msn.com","JAMES TANNER",
"ST THOMAS HIGH SCH","4500 MEMORIAL DR","HOUSTON","TX","77007-7332","(713) 864-6348","(713) 864-5750","john.huber@sths.org","FATHER JOHN B HUBER",
"ST THOMAS HIGH SCH","4500 MEMORIAL DR","HOUSTON","TX","77007-7332","(713) 864-6348","(713) 864-5750","john.huber@sths.org","FATHER JOHN B HUBER",
"THE POST OAK SCHOOL","4600 BISSONNET","Bellaire","TX","77401","(713) 661-6688","(713) 661-4959","JOHNLONG@POSTOAKSCHOOL.ORG","JOHN LONG",
"VILLAGE SCHOOL","13077 WESTELLA","HOUSTON","TX","77077","281-496-7900","281-496-7799","jones@thevillageschool.com","Betty K. Moore",
"COUNTRY DAY SCHOOL OF ARLINGTON-MONTESSORI","1300 ROOSEVELT ST","ARLINGTON","TX","76011-4837","(817) 275-0851",,"joyce.hunt@cdsa.org ","JOYCE HUNT",
"The Shelton School","15720 Hillcrest Road","Dallas","TX","75248","972-774-1772","972-991-3977","jpickering@shelton.org","Joyce Pickering",
"DALLAS ACADEMY","950 TIFFANY WAY","DALLAS","TX","75218-2744","(214) 324-1481","(214) 327-8537","jrichardson@dallas-academy.com","JAMES RICHARDSON",
"HOLY FAMILY CATHOLIC SCH","6146 Pershing Avenue","Fort Worth","TX","76107-4697","(817)7374201","(817)738-1542","jshreve@hfsfw.org","DR. JOHN SHREVE",
"EAGLE HEIGHTS CHRISTIAN ACADEMY","3005 Pearland Parkway","Pearland","TX","77581","281-485-6330","281-485-8682","jstahl@eagle-heights.org","John W. Stahl",
"TEXAS CHRISTIAN ACADEMY","4600 SANGER AVENUE","WACO","TX","76710-4861","254-772-5474","254-772-4485","jstuard@tcastars.com","Jim Stuard",
"TENNEY H S","2055 S GESSNER","HOUSTON","TX","77063-2707","(713) 783-6990","(713) 783-6992","jtenney@tenneyschool.com","JUDITH TENNEY",
"LIVING STONES CHRISTIAN SCHOOL","1407 VICTORY LN","ALVIN","TX","77511-8532","(281) 331-0086","(281) 331-6747","jthompson281@sbcglobal.net","Dr. Judy Thompson",
"Primrose School of Round Rock","15925 Great Oaks Dr","Round Rock","TX","78681","512-733-2020","512-733-2030","judy.martinez@primroseroundrock.com","Judy Martinez Director/Jay and Robin Fisher Owners",
"HOLY FAMILY CATHOLIC SCHOOL","9400 NEENAH AVE","AUSTIN","TX","78717","(512) 246-4455","(512) 246-4454","jwagner@holyfamilycs.org","DR. JOAN WAGNER",
"FIRST BAPTIST ACADEMY DALLAS","P.O. Box 868","DALLAS","TX","75221","(214) 969-2488","(214) 969-7797","jwalters@firstdallas.org","Jared Roan",
"FIRST BAPTIST ACADEMY DALLAS","P.O. Box 868","DALLAS","TX","75221","(214) 969-2488","(214) 969-7797","jwalters@firstdallas.org","Jared Roan",
"FIRST BAPTIST ACADEMY DALLAS","P.O. Box 868","DALLAS","TX","75221","(214) 969-2488","(214) 969-7797","jwalters@firstdallas.org","Jared Roan",
"DALLAS CHRISTIAN ELEMENTARY","P O BOX 570249","DALLAS","TX","75357-0249","(972) 270-5495","(972) 270-7581","jwebb@dallaschristian.com","Jennifer Webb	",
"DALLAS CHRISTIAN ELEMENTARY","P O BOX 570249","DALLAS","TX","75357-0249","(972) 270-5495","(972) 270-7581","jwebb@dallaschristian.com","Jennifer Webb	",
"DALLAS CHRISTIAN ELEMENTARY","P O BOX 570249","DALLAS","TX","75357-0249","(972) 270-5495","(972) 270-7581","jwebb@dallaschristian.com","Jennifer Webb	",
"DALLAS CHRISTIAN ELEMENTARY","P O BOX 570249","DALLAS","TX","75357-0249","(972) 270-5495","(972) 270-7581","jwebb@dallaschristian.com","Jennifer Webb	",
"SAN ANTONIO ACADEMY","117 E FRENCH PL","SAN ANTONIO","TX","78212-5802","(210) 733-7331","(210) 734-0711","JWEBSTER@SA-ACADEMY.ORG","JOHN WEBSTER",
"THE HOCKADAY SCHOOL","11600 WELCH RD","DALLAS","TX","75229-2999","(214) 363-6311","(214) 363-0942","JWHITMAN@MAIL.HOCKADAY.ORG","JEANNE WHITMAN",
"CAMBRIDGE SQUARE","1121 E PLEASANT RUN RD","DESOTO","TX","75115","972-224-5596","972-224-0724","jwilhite@cambridgesquare.org","DEBRA WILHITE",
"Primrose School of Lake Houston","20027 W. Lake Houston Pkwy","Humble","TX","77346","281-812-6361","281-812-6212","jwilkerson2003@yahoo.com","Jeremy Wilkerson",
"Harvest Christian School","7501 Crowley Road","Fort Worth","TX","76134","817/568-0021","817/568-1395","jwinner@harvest-ag.org","John Winner",
"CLEVELAND CORRECTIONAL CENTER","P O BOX 1678","CLEVELAND","TX","77328","(281) 592-9559","(281) 592-9552","jwmartin@thegeogroupinc.com","RICHARD GOTT",
"ST. PAUL'S PREP ACADEMY","6900 US HWY 287","ARLINGTON","TEXAS","76001","817-561-3500","817-561-3408","jwood@stpaulsprep.com","JANICE WOOD",
"CAPITOL SCHOOL OF AUSTIN","2011 W KOENIG LN","AUSTIN","TX","78756","(512) 467-7006","(512) 467-7025","jyoung@capitolschool.com","JEANNETTE YOUNG",
"ROCKWALL CHRISTIAN ACADEMY","6005 SOUTH DALROCK RD","ROWLETT","TX","75088-4390","(972) 412-8266","(972) 463-3746","jzakem@citcdallas.org","JEANNE ZAKEM",
"TYLER ST CHR ACAD H S","927 W 9TH ST","DALLAS","TX","75208-5099","(214) 941-9717","(214) 941-0324","KarenEgger@tsca.org","KAREN J EGGER",
"THE WINSTON SCHOOL SAN ANTONIO","8565 EWING HALSELL","SAN ANTONIO","TX","78229","(210) 615-6544","(210) 615-6627","KARULAK@WINSTON-SA.ORG","DR CHARLES J KARULAK",
"THE WINSTON SCHOOL SAN ANTONIO","8565 EWING HALSELL","SAN ANTONIO","TX","78229","(210) 615-6544","(210) 615-6627","KARULAK@WINSTON-SA.ORG","DR CHARLES J KARULAK",
"THE WINSTON SCHOOL SAN ANTONIO","8565 EWING HALSELL","SAN ANTONIO","TX","78229","(210) 615-6544","(210) 615-6627","KARULAK@WINSTON-SA.ORG","DR CHARLES J KARULAK",
"THE WINSTON SCHOOL SAN ANTONIO","8565 EWING HALSELL","SAN ANTONIO","TX","78229","(210) 615-6544","(210) 615-6627","KARULAK@WINSTON-SA.ORG","DR CHARLES J KARULAK",
"ST ANNE CATHOLIC SCH","2120 WESTHEIMER","HOUSTON","TX","77098-1493","(713) 526-3279 ext:226","(713) 526-8025","kbarnosky@saintanne.org","KATHY BARNOSKY",
"PRIMROSE SCHOOL OF CHAMPIONS","16811 SHADOW VALLEY DR","SPRING","TX","77379","281-655-7444 ","NA","kbclevenger@comcast.net ","Karen B. Clevenger ",
"ST ELIZABETH ANN SETON SCHOOL","2016 WILLIS LN","KELLER","TX","76248","(817) 431-4845","(817) 431-1865","kburrell@seascc.org","KAY BURRELL",
"ST PIUS X SCHOOL","737 ST PIUS DR","CORPUS CHRISTI","TX","78412-3049","(361) 992-1343","(361) 992-0329","kcarkl@stpiusxschoolcc.org","KATHY CLARK",
"SOUTHMINSTER SCHOOL","4200 Cartwright Rd","Missouri City","TX","77459","281-261-8872","281-499-4430","Kcorrell@southminsterschool.org","Kristin Correll",
"BISHOP DUNNE CATHOLIC HIGH SCH","3900 RUGGED DR","DALLAS","TX","75224-4157","(214) 339-6561","(214) 339-1438","kdailey@bdhs.org","KATE DAILEY",
"BISHOP DUNNE CATHOLIC HIGH SCH","3900 RUGGED DR","DALLAS","TX","75224-4157","(214) 339-6561","(214) 339-1438","kdailey@bdhs.org","KATE DAILEY",
"ST PIUS X CATHOLIC SCH","7734 ROBIN REST DR","SAN ANTONIO","TX","78209-3145","(210) 824-6431","(210) 824-7454","kdupree@archdiosa.org","KAREN DUPREE",
"PLAINVIEW CHRISTIAN ACAD","310 S ENNIS ST","PLAINVIEW","TX","79072-9708","(806) 296-6034","(806) 296-0074","kearhart@pcaeagles.org","Brent Patton",
"ST ANTHONY CATHOLIC SCH","205 W HUISACHE","SAN ANTONIO","TX","78212-2997","(210) 732-8801","(210) 732-5968","kennedy@stanthonysa.org","DR JOHN P. KENNEDY",
"CALVARY CHRISTIAN SCH","1815 N 7TH ST","HARLINGEN","TX","78550-4340","(956) 425-1882","(956) 412-0324","KEZ112576@aol.com","KAREN E ZEISSEL",
"GALVESTON CATHOLIC SCHOOL","2601 URSULINE AVE","GALVESTON","TX","77550-4398","(409) 765-6607","(409) 765-5154","kgilbert@galvestoncatholicschool.org","KATHRYN GILBERT",
"YELLOWSTONE ACADEMY","3000 TRULLEY ST","HOUSTON","TX","77004","713-741-8000","713-975-7648","khansen@comcast.net","KIMBERLY HANSEN",
"NORTHLAND CHRISTIAN ELEMENTARY SCHOOL","2700 F M 1960 W","HOUSTON","TX","77068","(281) 440-1377","(281) 893-8531","khart@northlandchristian.org","KENT HART",
"ARBOR CHRISTIAN ACADEMY","5000 HOLLYWOOD RD","AMARILLO","TX","79118-5000","806-355-7207","806-355-8969","kileymurray@arborchristianacademy.com","KILEY MURRAY",
"ST MARY'S SCHOOL ","1200 S WASHINGTON","AMARILLO","TX","79102-1645","(806) 376-9112","(806) 376-4314","klewis@stmarysamarillo.com","KATHI LEWIS",
"ST JOSEPH CATHOLIC SCHOOL","119 W FAY ST","EDINBURG","TX","78539-4533","(956) 383-3957","(956) 318-0681","kmurray@stjoseph-edinburg.org","SISTER KATHLEEN MURRAY",
"CORNERSTONE CHRISTIAN ACADEMY GRANBURY","603 MEADER ROAD","GRANBURY","TX","76049-5550","817-573-6485","817-573-7604","kotton@ccagranbury.com","ELLIE KOTTON",
"SACRED HEART SCH","1007 TRL ST","FLORESVILLE","TX","78114-1799","(830) 393-2117","(830) 393-6968","kpatek@archdiosa.org","KIMBERLY A. PATEK",
"ST PIUS V CATHOLIC SCH","812 S MAIN ST","PASADENA","TX","77506-3532","(713) 472-5172 ext:313","(713) 473-2731","kpillone@houston.rr.com","SR. KRYSIA PILLON",
"THE COVENANT SCHOOL","7300 VALLEY VIEW LANE","DALLAS","TX","75240","214-358-5818","214-358-5809","kqueal@covenantdallas.com","KYLE QUEAL",
"THE COVENANT SCHOOL","7300 VALLEY VIEW LANE","DALLAS","TX","75240","214-358-5818","214-358-5809","kqueal@covenantdallas.com","KYLE QUEAL",
"TRINITY VALLEY SCHOOL","7500 DUCTCH BRANCH RD","FT WORTH","TX","76132-4110","(817) 321-0100","(817) 321-0105","KRAHNG@TRINITYVALLEYSCHOOL.ORG","GARY KRAHN",
"Primrose School of The Woodlands at Sterling Ridge","6069 Lake Woodlands Dr","The Woodlands","TX","77382","281-681-3500","281-419-0668","krismayo1@sbcglobal.net ","Kris Mayo Director/Arlena McLaughlin Owner",
"ST JOHN PRESCHOOL CYPRESS","15238 Huffemeister","Cypress","TX","77410","281-304-5546","281-304-5598","kschulz@stjohn-lutheran.net","Karen Schulz",
"ST GREGORY CATHOLIC SCHOOL","500 S COLLEGE","TYLER","TX","75702-8194","(903) 595-4109","(903) 592-8626","ksharry@stgregory.info","KATHY SHIELDES HARRY",
"ST GERARD CATHOLIC HIGH SCH","521 S NEW BRAUNFELS","SAN ANTONIO","TX","78203-1798","(210) 533-8061","(210) 533-3697","kstanbridge@archdiosa.org","KATHY STANBRIDGE",
"NAZARENE CHRISTIAN ACADEMY","2001 E MAIN","CROWLEY","TX","76036","(817) 297-7003 x 104","(817) 297-1509","kstarks@fwf.org","Kathy Starks",
"CLAY ACADEMY","3303 POTTER'S HOUSE WAY","DALLAS","TX","75236","214-467-4143","972-296-3029","kstroy@clayacademy.org","KELVIN STROY",
"CLAY ROAD BAPTIST SCHOOL","9151 CLAY RD","HOUSTON","TX","77080","(713) 939-1023","(713) 939-8121","kthames@crbs.org","Kevin Thames",
"SACRED HEART CATHOLIC SCH","615 MCDADE STREET","CONROE","TX","77301-2753","(936) 756-3848","(936) 756-4097","kubelka@shconroe.org","GERARD KUBELKA",
"DALLAS CHRISTIAN J H","P O BOX 570249","DALLAS","TX","75357-0249","(972) 270-5495","(972) 270-7581","kwade@dallaschristian.com","Kirk Wade",
"GLORIA DEI LUTHERAN EARLY CHILDHOOD CENTER HOUSTON","18220 UPPER BAY RD","HOUSTON","TX","77058-4108","(281) 333-2223","(281) 335-0574","kwalker@gdlc.org","KATHIE WALKER",
"WICHITA CHRISTIAN SCHOOL","4729 NETA LANE","WICHITA FALLS","TX","76309","940-763-1347","940-687-0744","kwallace@wichitachristian.org","DON WALLACE",
"Holy Word Lutheran School","10601 Bluff Bend Drive","Austin","TX","78753","512-836-0660","512-836-2135","kyleraymond@sbcglobal.net","Mr. Kyle Raymond",
"OUR LADY OF GUADALUPE CATHOLIC SCHOOL","611 DUNLAP","MISSION","TX","78572","(956) 585-6445",,"lallen@cdob.org","SR. CINDY MELLO",
"WESLEY PREP","9200 Inwood Road","Dallas","TX","75220","214-706-0571","214-346-3462","laltick@wesleyprep.org","LINDA ALTICK",
"HILLIER SCHOOL","3821 UNIVERSITY BLVD","DALLAS","TX","75205","214-525-6600","214-525-6601","larry.evans@hppc.org","LARRY EVANS",
"HOUSTON LEARNING ACADEMY-KATY CAMPUS","180 Applewhite","Katy","TX","77450","(281) 693-4151","(281) 693-1255","lawrence.ermis@nobellearning.com","Lawrence Ermis",
"HOUSTON LEARNING ACADEMY-NORTH CAMPUS","13029 Champions Dr Ste B-1","Houston","TX","77069","(281) 537-6433","(281) 537-2361","lesley.boyer@nobellearning.com","Lesley Boyer",
"Primrose School of Eldorado","3999 Eldorado Parkway","McKinney","TX","75070","972-529-2091","972-540-6456","leslie@kinraddavisgroup.com","Leslie Milliser",
"Our Redeemer Lutheran School Dallas","7611 Park Lane","Dallas","TX","75225","214-368-1371","214-368-1473","lfrischmann@orlcs.com","Lois Frischmann",
"Our Savior Lutheran School Houston","5000 W TIDWELL RD","HOUSTON","TX","77091-4633","(713) 290-8277","(713) 290-0850","lgerard@oslschool.org","Lance Gerard",
"CONCORDIA ACADEMY HIGH SCHOOL AUSTIN","3407 Red  River ST","Austin","TX","78705","512-248-2547",,"liebenowm@gamil.com","Mark Liebenow",
"LIL GOLDMAN EARLY LEARNING CENTER ","4050 S HULEN ST","FORT WORTH","TX","76109","(817) 737-9898","817 731-1094 ","lilgoldmanearlylearningcenter@msn.com ","PATRICA WHITE",
"OUR LADY OF PERP HELP","5814 WILLIAMS DRIVE","CORPUS CHRISTI","TX","78412-4499","(361) 991-3305","(361) 994-1806","lindaecantu@hotmail.com","HERLINDA CANTU",
"ST MARK'S SCHOOL","5005 LOVE RD","EL PASO","TX","79912","915-581-2032","915-581-8019","lindas621@aol.com","LINDA SMITH",
"TEACHERS 'N' KIDS","19976 Southwest Freeway","Sugar Land","TX","77479","281-238-9903","281-343-7882","linh@teachersnkids.com","LINH PEREZ",
"THE KHABELE SCHOOL","801 RIO GRANDE ST","AUSTIN","TEXAS","78701","512-480-8142","512-322-0987","lisa@khabele.org","Lisa Dubuque",
"Primrose School of Sugar Land","1315 Soldiers Field Dr","Sugar Land","TX","77479","281-277-8585","281-277-8590","lisacameron@primrosesugarland.com","Lisa Cameron",
"DALLAS CHRISTIAN ECLC","P O BOX 570249","DALLAS","TX","75357-0249","(972) 270-5495","(972) 270-7581","ljennings@dallaschristian.com","LAUREN JENNINGS",
"St. Andrew's Episcopal School Austin","1112 W. 31st ST","Austin","TX","78705","512-299-9800","512-299-9822","lnazro@sasaustin.org","Lucy Nazro",
"St. Andrew's Episcopal School Austin","1112 W. 31st ST","Austin","TX","78705","512-299-9800","512-299-9822","lnazro@sasaustin.org","Lucy Nazro",
"St. Andrew's Episcopal School Austin","1112 W. 31st ST","Austin","TX","78705","512-299-9800","512-299-9822","lnazro@sasaustin.org","Lucy Nazro",
"St. Andrew's Episcopal School Austin","1112 W. 31st ST","Austin","TX","78705","512-299-9800","512-299-9822","lnazro@sasaustin.org","Lucy Nazro",
"St. Andrew's Episcopal School Austin","1112 W. 31st ST","Austin","TX","78705","512-299-9800","512-299-9822","lnazro@sasaustin.org","Lucy Nazro",
"St. Andrew's Episcopal School Austin","1112 W. 31st ST","Austin","TX","78705","512-299-9800","512-299-9822","lnazro@sasaustin.org","Lucy Nazro",
"Memorial Lutheran Houston","5800 WESTHEIMER RD","HOUSTON","TX","77057-5617","(713) 782-4022","(713) 782-1749","lnoyd@mlchouston.org","Rev. Bart Day",
"Primrose School of Cinco Ranch","1540 Peek Rd","Katy","TX","77450","281-693-7711","281-693-5600","louannm@primrosecincoranch.com","Lou Ann McLaughlin",
"IMMACULATE CONCEPTION CATHOLIC SCH","400 N E 17TH ST","GRAND PRAIRIE","TX","75050-6098","(972) 264-8777","(972) 264-7742","lsantos@icgrandprairie.org","LINDA SANTOS",
"THE GIRLS' SCHOOL OF AUSTIN","2007 MCCALL","AUSTIN","TX","78703","512 478-7827 ","512 478-5456 ","lschmitt@thegirlsschool.org","LISA SCHMITT",
"Redeemer Lutheran School Austin","1500 West Anderson Lane","Austin","TX","78757","512-451-6478","512-610-8809","lsledge@redeemer.net","Glen Kieschnick",
"INCARNATE WORD ACADEMY H S","2910 S ALAMEDA","CORPUS CHRISTI","TX","78404-2797","(361) 883-0857 ext:112","(361) 883-2185","lugaresi@iwacc.org","GERALD LUGARESI",
"INCARNATE WORD ACADEMY H S","2910 S ALAMEDA","CORPUS CHRISTI","TX","78404-2797","(361) 883-0857 ext:112","(361) 883-2185","lugaresi@iwacc.org","GERALD LUGARESI",
"POPE JOHN XXIII HIGH SCHOOL","1800 W GRAND PARKWAY","KATY","TX","77449","281-693-1000","281-693-1001","lveazey@pj23.org","MS. LYNN VEAZEY",
"POPE JOHN XXIII HIGH SCHOOL","1800 W GRAND PARKWAY","KATY","TX","77449","281-693-1000","281-693-1001","lveazey@pj23.org","MS. LYNN VEAZEY",
"BRENTWOOD CHRISTIAN ELEMENTARY","11908 N LAMAR BLVD","AUSTIN","TX","78753","(512) 835-5983","(512) 835-2184","lweed@brentwoodchristian.org","DR MARY ELIZABETH WEED",
"BRENTWOOD CHRISTIAN ELEMENTARY","11908 N LAMAR BLVD","AUSTIN","TX","78753","(512) 835-5983","(512) 835-2184","lweed@brentwoodchristian.org","DR MARY ELIZABETH WEED",
"STARPOINT SCHOOL","T C U BOX 32918","FT WORTH","TX","76129-2918","817 257-7141 ","817 257-7168 ","m.tolbert@tcu.edu","MARILYN TOLBERT",
"HILL COUNTRY MONTESSORI SCHOOL","606 S. SCHOOL ST.","BOERNE","TX","78006","830-826-3819","830-816-2206","madellaine@hillcountrymontessori.com ","MADELLAINE COSTELLO",
"DENTON CALVARY ACADEMY","1910 E UNIVERSITY DR","DENTON","TX","76209","940 320-1944","940 591-9311","main@dentoncalvary.org","DAVID BROWN",
"IMAN ACADEMY SOUTHWEST","6240 HIGHWAY 6 SOUTH","HOUSTON","TX","77083","281 498-1345 ","281 498-5145 ","maria.ibrahim@imanacademy.org ","AIJAZ AHMED",
"BETHEL CHRISTIAN SCHOOL El Paso","6301  ALABAMA","EL PASO","TEXAS","79904","915-565-2222","915-565-2223","marshacardenas@yahoo.com","MARSHA HODGE-CARDENAS",
"Concordia Lutheran School San Antonio","16801 HUEBNER RD","SAN ANTONIO","TX","78258-4456","(210) 479-1477","(210) 479-9416","mattm@concordia-satx.com","Matt Meier",
"EAST SIDE UNIVERSITY COMMUNITY LEARNING CENTER","3614 HOLMAN ST","HOUSTON","TX","77004","832 423-5199 ","832 747-6101 ","mb3140@swbell.net","MANSON JOHNSON",
"All Saints Episcopal School Lubbock","3222 103rd Street","Lubbock","TX","79423","806-745-7701","806-748-0454","mbennett@allsaintsschool.org","Dr. Mike Bennett",
"OUR MOTHER OF MERCY CATHOLIC SCH","2010 BENSON ST","HOUSTON","TX","77020-2409","(713) 673-1862","(713) 673-1041","mbreaux@omomschool.org","oo",
"COVENANT CHRISTIAN ACADEMY","901 CHEEK SPARGER","COLLEYVILLE","TX","76034","817-281-4333","817-281-4674","mbrunk@ccanet.org","DIANE STEPHENSON",
"COVENANT CHRISTIAN ACADEMY","901 CHEEK SPARGER","COLLEYVILLE","TX","76034","817-281-4333","817-281-4674","mbrunk@ccanet.org","DIANE STEPHENSON",
"SCHOOL FOR YOUNG CHILDREN","810 SUL ROSS RD","HOUSTON","TX","77006","713-520-8310","713-520-0199","mcbrinnsyc@sbcglobal.net","SHEILA MCBRINN",
"PRIMROSE SCHOOL OF FOUR POINTS","6606 Sitio del Rio Blvd","Austin","TX","78730","512-795-9101","512-795-9612","mcobb@primrosefourpoints.com","Mistie Cobb",
"FELLOWSHIP ACADEMY","7000 US Highway 287 S ","FORT WORTH","TX","76001","817 563-5913 ","817 563-5427 ","mcollier@fellowship-academy.org ","MONICA COLLIER",
"THE MONTESSORI ACADEMY","3428 W. ARKANSAS LANE","ARLINGTON","TX","76016","817 563-5913 ","817 563-5427 ","mcollier@fellowship-academy.org ","MONICA COLLIER",
"ST CECILIA CATHOLIC SCH","118 LOWELL","SAN ANTONIO","TX","78210-2896","(210) 534-2711","(210) 533-8284","mcrow@archdiosa.org","MARY I CROW",
"FAITH ACADEMY OF MARBLE FALLS","3151 E FM 1431","MARBLE FALLS","TX","78654","830-798-1333","830-798-1332","mearwood@famf.org","MARK EARWOOD",
"ST MARIA GORETTI CATHOLIC SCH","1200 S DAVIS DR","ARLINGTON","TX","76013-2399","(817) 275-5081","(817) 277-4193","medoskocil@smgschool.org","MARY ELLEN DOSKOCIL",
"ST PAUL LUTHERAN SCHOOL THORNDALE","101 North 3rd Street","Thorndale","TX","76577","512-898-2711","512-898-5298","melchercindy@hotmail.com","Cindy Melcher",
"MEMORIAL HALL SCH","3721 DACOMA","HOUSTON","TX","77092-8905","(713) 688-5566","(713) 956-9751","memhallsch@aol.com","REVEREND GEORGE C AURICH",
"ST FRANCIS DE SALES SCH","8100 ROOS RD","HOUSTON","TX","77036-6398","(713) 774-4447","(713) 271-6744","mendezS@st-francis-de-sales.org","SANDRA MENDEZ",
"FORT WORTH CHRISTIAN SCHOOL","7517 BOGART DR","FT WORTH","TX","76180","817 281-6504 ","817 281-7063 ","mfelps@fwc.org ","Craig Smith",
"BLESSED SACRAMENT PARISH SCHOOL","600 OBLATE DR","SAN ANTONIO","TX","78216-7399","(210) 824-3381","(210) 826-6146","mfierro@archdiosa.org","MICHAEL FIERRO",
"ST JOSEPH ELEMENTARY SCH","310 ORTH STREET","YOAKUM","TX","77995-3624","(361) 741-5362","(361) 293-3004","mfisher@stjcatholicschool.org","MICHAEL J. FISHER",
"VICTORY CHRISTIAN SCHOOL","P O BOX 1078","CANTON","TX","75103-0308","(903) 567-2072","(903) 567-6446","mfurr@vcstx.com","Tammy Griffin",
"INCARNATE WORD ACADAMY","609 CRAWFORD ST","HOUSTON","TX","77002-3668","(713) 227-3637","(713) 227-1014","mgetschow@incarnateword.org","MS. MARY GETSCHOW",
"INCARNATE WORD ACADAMY","609 CRAWFORD ST","HOUSTON","TX","77002-3668","(713) 227-3637","(713) 227-1014","mgetschow@incarnateword.org","MS. MARY GETSCHOW",
"ST GREGORY THE GREAT CATHOLIC SCH","700 DEWHURST","SAN ANTONIO","TX","78213-3416","(210) 342-0281","(210) 308-7177","mgomez@archdiosa.org","MARTHA E GOMEZ",
"LUTHERAN SOUTH ACADEMY HOUSTON","12555 RYEWATER","HOUSTON","TX","77089-6625","(713) 378-9367","(713) 378-9718","micahparker@lea-hou.org ","Micah Parker",
"LUTHERAN SOUTH ACADEMY HOUSTON","12555 RYEWATER","HOUSTON","TX","77089-6625","(713) 378-9367","(713) 378-9718","micahparker@lea-hou.org ","Micah Parker",
"ST CATHERINE OF SIENA SCH","3840 WOODROW DR","PORT ARTHUR","TX","77642-2398","(409) 962-3011","(409) 962-5019","michaelcollins@gt.rr.com","MICHAEL COLLINS",
"THE HONOR ROLL SCHOOL","4111 SWEETWATER BLVD","SUGAR LAND","TX","77479","(281) 265-7888","(281) 265-7880","michaels@thehonorrollschool.org","D. MICHAEL STATHAM",
"Primrose School of Bent Trail","18601 Preston Rd","Dallas","TX","75252","972-380-1275","972-250-1784","michelle@konradddavisgroup.com","Michelle Flores",
"PINE DRIVE CHRISTIAN SCHOOL","705 FM 517 ROAD EAST","DICKINSON","TX","77539-8638","281-534-4881","281-534-4318","mike.higgins@pinedrive.org","MIKE HIGGINS",
"GREAT LAKES ACADEMY","6000 CUSTER RD BLDG 7","PLANO","TX","75023","972-517-7498","972-517-0133","mjborsten@aol.com","Mrs. Marjolein J. Borsten Smith",
"ANNUNCIATION ORTHODOX SCHOOL","3600 YOAKUM","HOUSTON","TX","77006-4240","(713) 470-5600","(713) 470-5605","MKELLY@AOSHOUSTON.ORG","MARK KELLY",
"ST JAMES THE APOSTLE SCH","907 W THEO AVE","SAN ANTONIO","TX","78225-1767","(210) 924-1201","(210) 924-0201","mlink@archdiosa.org","SISTER MARY LINK",
"THE JOHN COOPER SCHOOL","ONE JOHN COOPER DROVE","THE WOODLANDS","TX","77381-4499","(281) 367-0900","(281) 292-9201","MMAHER@JOHNCOOPER.ORG","MICHAEL MAHER",
"TRUE CROSS SCH","400 FM 517E","DICKINSON","TX","77539-4316","(281) 337-5212","(281) 337-5779","mmartinez@truecrosschurch.org","MARC MARTINEZ",
"ST MARY OF THE PURIFICATION MONTESSORI","3006 ROSEDALE AVE","HOUSTON","TX","77004-6199","(713) 522-9276","(713) 522-1879","mmccoy@stmaryshouston.org","MAZIE MCCOY",
"ST ANNE CATHOLIC SCH","1111 S. CHERRY STREET","TOMBALL","TX","77375-6627","(281) 351-0093","(281) 357-1905","mmorgan@stanneschool-tomball.org","MARGARET MORGAN",
"IANT Quranic Academy","840 Abrams Road","Richardson","TX","75081","972-231-5698","972-231-6707","moes@iant.com","MATTHEW MOES",
"CHRISTIAN ACADEMY OF SAN ANTONIO","325 CASTROVILLE ROAD","SAN ANTONIO","TX","78207","210-436-2277","210-436-2210","molinay@christianacademysa.org","YOLANDA MOLINA",
"BYNUM SCHOOL","8404 WCR 60","MIDLAND","TX","79704-5788","(915) 520-0075","(915) 520-0075","molly@bynum-school.org","MOLLY MCLEAN",
"PRIMROSE SCHOOL AT SONOMA RANCH","14875 KYLE SEALE PKWY","SAN ANTONIO","TX","78255","210-372-1488 ",,"monica.snow@primrosesonomaranch.com","MONICA SNOW",
"ALL SAINTS CATHOLIC SCHOOL","7777 OSAGE PLAZA PKWY","DALLAS","TX","75252","(214)217-3300","(214)217-3339","mpishko@allsaintsk8.org","MARIE A. PISHKO",
"THE HIGHLANDS SCH","1451 E NORTHGATE DR","IRVING","TX","75062-1410","(972) 554-1980","(972) 721-1691","mreiff@thehighlandsschool.org","MICHELLE REIFF",
"THE HIGHLANDS SCH","1451 E NORTHGATE DR","IRVING","TX","75062-1410","(972) 554-1980","(972) 721-1691","mreiff@thehighlandsschool.org","MICHELLE REIFF",
"BETH YESHURUN DAY SCHOOL","4525 BEECHNUT BLVD","HOUSTON","TX","77096-1801","(713) 666-1884","(713) 666-2924","mrosenthal@BETHYESHURUN.ORG","Mindy Rosenthal",
"WHITE ROCK NORTH SCHOOL","9727 WHITE ROCK TRL","DALLAS","TX","75238-1897","(214) 348-7410","(214) 348-3109","Mrs_Adams@WhiteRockNorthSchool.com","AMY A ADAMS",
"MARY HELP OF CHRISITANS SCHOOL","10 E DEL MAR BLVD","LAREDO","TX","78045","(956) 722-3966","(956) 722-1413","msmiller@mhsoul.org","SR M SUZANNE MILLER",
"BANNOCKBURN EL","7100 BRODIE LN","AUSTIN","TX","78745-5012","(512) 465.8338","(512) 371.1433","msnead@hpbs.org ","MARVINE SNEAD",
"BANNOCKBURN EL","7100 BRODIE LN","AUSTIN","TX","78745-5012","(512) 465.8338","(512) 371.1433","msnead@hpbs.org ","MARVINE SNEAD",
"BANNOCKBURN EL","7100 BRODIE LN","AUSTIN","TX","78745-5012","(512) 465.8338","(512) 371.1433","msnead@hpbs.org ","MARVINE SNEAD",
"BANNOCKBURN EL","7100 BRODIE LN","AUSTIN","TX","78745-5012","(512) 465.8338","(512) 371.1433","msnead@hpbs.org ","MARVINE SNEAD",
"ST LOUIS CATHOLIC ELEM SCH","610 MADRID","CASTROVILLE","TX","78009-4524","(830) 931-3544","(830) 931-9016","mvandijk@archdiosa.org","ELIZABETH PEREZ",
"THE MONARCH SCHOOL","1231 WIRT RD","HOUSTON","TX","77055","(713) 479-0800","(713) 464-7499","mwebb@monarchschool.org","MARTY F WEBB",
"NORTH DALLAS ADVENTIST ACADEMY","302 Centennial Blvd","RICHARDSON","TX","75081","972-234-6322","972-234-6325","mwolfe@txsda.org","Melonie Wolfe",
"Primrose School of Southlake","155 S. Kimball Ave","Southlake","TX","76092","817-421-8087","817-416-1870","nancy@primrosesouthlake.com","Nancy Cangelosi",
"Primrose School of Copperfield","15550 Ridge Park Dr","Houston","TX","77095","281-858-5600","281-858-5700","nancyh@primrosecopperfield.com","Nancy Hereford Director/Lou Ann McLaughlin Owner",
"NEW BEGINNINGS CHRISTIAN SCHOOL","10256 FLYNN RD","WARREN","TX","77664","409-834-2815","409-834-2010","nbcs7@academicplanet.com","BARBARA MCPHERSON",
"THE PARISH SCHOOL","11059 TIMBERLINE","HOUSTON","TX","77043-3829","(713) 467-4696","(713) 467-8341","nbewley@parishschool.org","MARGARET NOECKER",
"ST ANNE CATHOLIC SCH","375 NORTH 11TH STREET","BEAUMONT","TX","77702-1834","(409) 832-5939","(409) 832-4655","ncollins@stannecatholic.org","NANCY ANN COLLINS",
"INCARNATE WORD HIGH SCH","727 E HILDEBRAND","SAN ANTONIO","TX","78212-2598","(210) 829-3100","(210) 829-3120","nelsen@uiwtx.edu","B. J. NELSEN",
"INCARNATE WORD HIGH SCH","727 E HILDEBRAND","SAN ANTONIO","TX","78212-2598","(210) 829-3100","(210) 829-3120","nelsen@uiwtx.edu","B. J. NELSEN",
"ST PHILLIP NERI CATHOLIC SCH","10950 MARTIN L KING BLVD","HOUSTON","TX","77048-1815","(713) 733-2343","(713) 733-4759","nerischool@aol.com","MELINA G HARRIS",
"STRAKE JESUIT COLLEGE PREPARATORY","8900 BELLAIRE BLVD","HOUSTON","TX","77036-4699","(713) 774-7651","(713) 774-6427","nevle_r@strakejesuit.org","RICHARD C NEVLE",
"STRAKE JESUIT COLLEGE PREPARATORY","8900 BELLAIRE BLVD","HOUSTON","TX","77036-4699","(713) 774-7651","(713) 774-6427","nevle_r@strakejesuit.org","RICHARD C NEVLE",
"RIVER OAKS BAPTIST SCHOOL","2300 WILLOWICK RD","HOUSTON","TX","77027-3933","(713) 623-6938","(713) 621-8216","NHIGHTOW@ROBS.ORG","NANCY HIGHTOWER",
"RIVER OAKS BAPTIST SCHOOL","2300 WILLOWICK RD","HOUSTON","TX","77027-3933","(713) 623-6938","(713) 621-8216","NHIGHTOW@ROBS.ORG","NANCY HIGHTOWER",
"RIVER OAKS BAPTIST SCHOOL","2300 WILLOWICK RD","HOUSTON","TX","77027-3933","(713) 623-6938","(713) 621-8216","NHIGHTOW@ROBS.ORG","NANCY HIGHTOWER",
"RIVER OAKS BAPTIST SCHOOL","2300 WILLOWICK RD","HOUSTON","TX","77027-3933","(713) 623-6938","(713) 621-8216","NHIGHTOW@ROBS.ORG","NANCY HIGHTOWER",
"ST MARY'S CATHOLIC SCH","713 S TRAVIS ST","SHERMAN","TX","75090-7915","(903) 893-2127","(903) 813-5489","nkirkpatrick@stmarys-sch.org","NANCY KIRKPATRICK",
"GULFHAVEN CHRISTIAN SCHOOL","10716 Sabo Road","Houston","TX","77089","(713)944-1619",,"nmoller@txsda.org","Nidia Moller",
"HOLY ROSARY CATHOLIC SCH","1408 JAMES ST","ROSENBURG","TX","77471-3199","(281) 342-5813","(281) 344-1107","nmoore@holyrosary-school.org","NANCY MOORE",
"ST THOMAS MORE CATHOLIC SCH","5927 WIGTON","HOUSTON","TX","77096-4797","(713) 729-3434","(713) 721-5644","nmouser@stmorenews.com","NADINE MOUSER",
"FIRST CLASS CHILD DEVELOPMENT CENTER","4419 N PINEBROOK WAY","HOUSTON","TX","77062","(281) 486-0027","(281) 486-0140","NOT AVAILABLE","SUSAN STOWE",
"LAKE COUNTRY CHRISTIAN SCHOOL","8777 BOAT CLUB ROAD","FORT WORTH","TX","76179","817-236-8703","817-236-1103","npurtell@lccs.org","NANCY PURTELL",
"LAKE COUNTRY CHRISTIAN SCHOOL","8777 BOAT CLUB ROAD","FORT WORTH","TX","76179","817-236-8703","817-236-1103","npurtell@lccs.org","NANCY PURTELL",
"LAKE COUNTRY CHRISTIAN SCHOOL","8777 BOAT CLUB ROAD","FORT WORTH","TX","76179","817-236-8703","817-236-1103","npurtell@lccs.org","NANCY PURTELL",
"MARY IMMACULATE SCH","14032 DENNIS LN","FARMERS BRANCH","TX","75234-3535","(972) 243-7105","(972) 406-1254","nrussell@mischool.org","NANCY RUSSELL",
"EPISCOPAL HIGH SCHOOL BELLAIRE","P O BOX 271299","HOUSTON","TX","77277-1299","(713) 512-3400","(713) 512-3603","nsmith@EHSHOUSTON.ORG","C. Ned Smith",
"THE REGIS SCHOOL","7330 WESTVIEW DR","HOUSTON","TX","77055-5122","(713) 682-8383","(713) 682-8388","ntaylor@theregisschool.org","DR. NANCY O. TAYLOR",
"GREENVILLE CHRISTIAN SCHOOL","8420 JACK FINNEY BLVD","GREENVILLE","TX","75402-3005","903-454-1111","903-455-8470","office@greenvillechristian.org","JULIE ROBINSON",
"LEVELLAND CHRISTIAN SCHOOL","1905 E. CACTUS","LEVELLAND","TX","79336","806.894-6019","806.894-0522","office@levellandchristianschool.org","Jill Roberts",
"OUR LADY OF VICTORY SCH","1311 E. MESQUITE","VICTORIA","TX","77901-3427","(361) 575-5391","(361) 575-3473","office@ourladyvictory.org","SR. M. LEONITA BARRON",
"Primrose School of N. E. Green Oaks","1900 N. E. Green Oaks Blvd","Arlington","TX","76006","817-543-2626","817-543-0100","office@primrosenegreenoaks.com ","Lynne Groff",
"ST MONICA CATHOLIC SCH","515 N ST","CONVERSE","TX","78109-0429","(210) 658-6701","(210) 658-6945","office@saintmonica.net","JAMES V MOLLICONE",
"TEXAS CHRISTIAN SCHOOL","17810 KIETH HARROW","HOUSTON","TX","77084","(281) 550-6060","(281) 550-2400","office@TexasChristianSchool.org","HERC PALMQUIST",
"WESTMINSTER CHRISTIAN ACADEMY","670 E MEDICAL CENTER BLVD","WEBSTER","TX","77598-4327","281-280-9829","281-990-9739","office@wca-lions.org","TIMOTHY SANSBURY",
"ST AUGUSTINE ELEMENTARY","1300 GALVESTON ST","LAREDO","TX","78040-8799","(956) 724-1176","(956) 724-9891","ogentry@st-augustine.org","OLGA GENTRY",
"OUR LADY OF ASSUMP SCH","4805 BYRON ST","EL PASO","TX","79930-5003","(915) 565-3411","(915) 564-5724","olacs@elp.rr.com","KAREN M. BIDDLE",
"OUR LADY OF GRACE HIGH SCHOOL","13517 ALTA VISTA DR","ROANOKE","TX","76262","817-933-6516","817-491-4399","olghsdonohue@gmail.com","DENISE DONOHUE",
"OUR LADY OF GUADALUPE SCH","1108 SOUTH HOUSTON STREET","HOUSTON","TX","79102-4007","(806) 372-2629","(806) 372-2225","olgschool@suddenlinkmail.com","SR. MINERVA SALVADOR",
"OUR LADY OF THE HILLS REGIONAL CATHOLIC HIGH SCHOOL","575 PETERSON FARM ROAD","KERRVILLE","TX","78028","(830) 895-0501","(830) 895-3470","olh@ktc.com","BARRY NEUBURGER",
"FIRST BAPTIST ACADEMY HOUSTON","7450 Memorial Woods Drive","Houston","TX","77024","713.290.2500","713.290.2509","olivia.elmore@hfba.org","Dr. Olivia Elmore",
"FIRST BAPTIST ACADEMY HOUSTON","7450 Memorial Woods Drive","Houston","TX","77024","713.290.2500","713.290.2509","olivia.elmore@hfba.org","Dr. Olivia Elmore",
"OUR LADY OF REFUGE SCHOOL","577 WASHINGTON ST","EAGLE PASS","TX","78852-4299","(830) 773-3531","(830) 773-7310","olorjuniorhighschool@msn.com","SR CHRISTINA M CONROY",
"OUR MOTHER OF MERCY SCH","3360 SARAH ST","BEAUMONT","TX","77705-3098","(409) 842-5534","(409) 842-4001","omomschool@sbcglobal.net","DOLORES FULTON",
"ST ANTHONY CATHEDRAL SCH","850 FORSYTHE ST","BEAUMONT","TX","77701-2890","(409) 832-3486","(409) 838-9051","OO","PHYLLIS WALTERS",
"ST ANTHONY SCHOOL","203 DUNNE ST","ROBSTOWN","TX","78380-3599","(361) 387-3814","(361) 387-3814","oo","SR. MARY PAZ ARIBON",
"ST CECILIA CATHOLIC SCH","635 MARY CLIFF ROAD","DALLAS","TX","75208-3424","(214) 948-8628","(214) 948-4956","OO","OO",
"PHARR ORATORY OF ST PHILIP NERI SCHOOL SYSTEM","1407 W MOORE RD","PHARR","TX","78577","(956) 781-3056","(956) 702-3047","oratorian2@aol.com","FR MARIO A AVILES",
"OUR SAVIOR LUTHERAN SCHOOL AUSTIN","1513 YAGER LN","AUSTIN","TX","78753-7117","(512) 836-9600","(512) 836-4660","osl_online@sbcglobal.net","Donn Trautner",
"SOUTHWEST CHRISTIAN EL","6801 DAN DANCIGER ROAD","FORT WORTH","TX","76133-6298","(817) 294-0350","(817) 294-9603","parmstrong@southwestchristian.org","PENNY ARMSTRONG",
"SOUTHWEST CHRISTIAN H S","7001 BENBROOK LAKE DR","FORT WORTH","TX","76132","(817) 294-9596","(817) 294-9603","parmstrong@southwestchristian.org ","PENNY ARMSTRONG",
"Primrose School of Prestmont","4115 Ohio Dr","Frisco","TX","75035","972-712-7746","972-712-7747","patricia.twomey@pendiant.com ","Patricia Twomey",
"EAST TEXAS CHRISTIAN SCHOOL","5621 FM 2087 SOUTH","LONGVIEW","TX","75603","903-757-7891","903-619-0349","PBROWN@ETCS.CC","PHIL BROWN",
"SETON CATHOLIC JR HIGH SCH","801 ROSE LN","HOUSTON","TX","77037-4696","(281) 447-2132","(281) 447-1825","pclark6654@houston.rr.com","PATRICK W CLARK",
"CENTRAL CATHOLIC HIGH SCH","1403 N ST MARY'S ST","SAN ANTONIO","TX","78215-1785","(210) 225-6794 ext:201","(210) 227-9353","pcunningham@archdiosa.org","PAT CUNNINGHAM",
"CENTRAL CATHOLIC HIGH SCH","1403 N ST MARY'S ST","SAN ANTONIO","TX","78215-1785","(210) 225-6794 ext:201","(210) 227-9353","pcunningham@archdiosa.org","PAT CUNNINGHAM",
"LUBBOCK CHRISTIAN ELEMENTARY","2604 DOVER AVE","LUBBOCK","TX","79407-3329","(806) 796-8700","(806) 791-3569","pdahlstrom@lubbockchristian.org","MARK BREAUX",
"LUBBOCK CHRISTIAN SECONDARY","2604 DOVER AVE","LUBBOCK","TX","79407-3329","(806) 796-8700","(806) 791-3569","pdahlstrom@lubbockchristian.org","JOHN DANSBY",
"ST MONICA CATHOLIC SCH","4140 WALNUT HILL LANE","DALLAS","TX","75229-6162","214-351-5688","214-352-2608","pdulac@stmonicaschool.org","PATRICIA C. DULAC",
"MONTESSORI ACADEMY","3428 W ARKANSAS","ARLINGTON","TX","76016","817-274-1548","817-274-6951","pdunbar@tmaonline","PAM DUNBAR",
"Primrose School of Hall-Johnson","2300 Hall-Johnson Rd","Grapevine","TX","76051","817-416-0404","817-416-8507","phjschool@verizon.net","Tamra Costa Director/Robert and Pam Alonzo Owners",
"SAN JUAN DIEGO CATHOLIC HIGH SCHOOL","800 HERNDON LANE","AUSTIN","TX","78704","(512) 804-1935","(512) 804-1937","pjupe@juandiegoprep.org","PAMELA JUPE",
"CHRIST THE KING ELEMENTARY SCH","1625 Arlington Drove","Corpus Christi","TX","78415-4497","361-883-5391","361-888-9207","plegrange@yahoo.com","PERRY LAGRANGE",
"ST THOMAS AQUINAS SCH","3741 ABRAMS RD","DALLAS","TX","75214-3011","(214) 826-0566","(214) 826-0251","PMAGEE@STASCHOOL.ORG","PATRICK MAGEE",
"CROSS OF CHRIST LUTHERAN SCHOOL","512 N COCKRELL HILL RD","DE SOTO","TX","75115-3602","(972) 223-9586","(972) 223-0660","pmieger@crossofchrist.org","Paul Mieger",
"LEGACY CHRISTIAN ACADEMY (Beaumont)","8200 HIGHWAY 105","FRISCO","TX","75034","409 924-0500 ","409 924-0953","poarceneaux@yahoo.com ","PAUL ARCENEAUX",
"POETRY COMMUNITY CHRISTIAN SCHOOLS","18688 FM 986","POETRY","TX","75160","972-563-7227","972-563-0025","poetrychristian@sbcglobal.net","ANNE HORAN",
"ST PIUS X HIGH SCH INC","811 W DONOVAN","HOUSTON","TX","77091-5699","(713) 692-3581 ext:108","(713) 692-5725","pollardd@stpiusx.org","SISTER DONNA M POLLARD",
"ST PIUS X HIGH SCH INC","811 W DONOVAN","HOUSTON","TX","77091-5699","(713) 692-3581 ext:108","(713) 692-5725","pollardd@stpiusx.org","SISTER DONNA M POLLARD",
"HOUSTON LEARNING ACADEMY-HUMBLE/KINGWOOD CAMPUS","5334 East FM 1960","Humble","TX","77346","(281) 852-2022","(281) 852-2120","Polly.Mealey@nlcinc.com","Polly Mealey",
"THE WINSTON SCHOOL of Dallas","5707 ROYAL LN","DALLAS","TX","75229-5536","(214) 691-6950","(214) 691-1509","polly_peterson@WINSTON-SCHOOL.ORG","Dr. Polly Peterson",
"OAK HILL ACADEMY","9407 MIDWAY","DALLAS","TX","75220","21-353-8804","214-353-8839","pquarterman@oakhillacademy.org","PAMELA QUARTERMAN",
"Memorial Luhteran Preschool Katy","5810 THIRD ST","KATY","TX","77493","(281) 391-0172","(281) 391-7579","preschool@mlckaty.com","Linda Sthamer",
"Primrose School of First Colony","4605 Austin Parkway","Sugar Land","TX","77479","281-565-2707","281-265-3952","primfc@houston.rr.com","Tina Koenig",
"Primrose School of Greatwood","6550 Greatwood Parkway","Sugar Land","TX","77479","281-343-8889","281-343-9122","primgw@houston.rr.com","Ashlie Hargy Director/Linda and Bill Brown Owners",
"Primrose School of Lakehill","5349 Lakehill Blvd","Frisco","TX","75034","972-668-4300","972-668-4302","primrose_lakehill@advantexmail.com","Renee Osborne",
"Primrose School of South Shore","3025 South Shore Blvd","League City","TX","77573","281-334-5490","281-334-0046","primrose_southshore@msn.com ","Crystal Gandara",
"Primrose School of The Woodlands at College Park","6403 College Park Dr","The Woodlands","TX","77384","936-321-5900","936 321-5901 ","primrosecollegepark@txucom.net ","Arlena McLaughlin",
"Primrose School of Coppell","275 E. Parkway Blvd","Coppell","TX","75019","972-304-8888","972-304-8889","primrosecoppell@konraddavisgroup.com","Sandra Boscamp",
"PRIMROSE SCHOOL OF HIDDEN LAKES","1100 DAVID BLVD","SOUTHLAKE","TX","76092","817-337-4666 ","NA","primrosehlks@hotmail.com ","Nancy Cangelosi ",
"Primrose School of West Allen","106 Tatum Dr","Allen","TX","75013","972-359-8805","972-359-8853","primrosewestallen@sbcglobal.net","Alan and Shannan Arbabi",
"Primrose School of NE Flower Mound","3939 Morriss Road","Flower Mound","TX","75028","972-691-3815",,"primscott@verizon.net","Scott Maness",
"ST EDWARD CATHOLIC SCH","2601 SPRING STUEBNER RD","SPRING","TX","77389-4800","(281) 353-4570","(281) 353-8255","prin@stedwardschool.org","GEORGE SAWKA",
"STS CYRIL AND METHODIUS SCH","5002 KOSTORYZ RD","CORPUS CHRISTI","TX","78415-1747","(361) 853-9392","(361) 853-0282","PrincHatch@aol.com","NANNETTE QUINTANILLA HATCH",
"THE ATONEMENT ACADEMY","15415 RED ROBIN RD","SAN ANTONIO","TX","78255","(210) 695-2240","(210) 695-9679","principal@atonementonline.com","RICHARD ARNDT",
"FIRST BAPTIST CHRISTIAN ACADEMY-SEGUIN","1314 E CEDAR","SEGUIN","TX","78155","(830) 379-4208","830.379.4223","principal@FBCASeguin.com","Lynn Garrett",
"FIRST BAPTIST SCHOOL CORPUS CHRISTI","3115 OCEAN DR","CORPUS CHRISTI","TX","78404-1614","(361) 884-8931","(361) 888-5905","Principal@fbscorpus.org","Chris Verburgt",
"SACRED HEART SCH","907 RUNNEBURG ROAD","CROSBY","TX","77532-5897","(281) 328-6561","(281) 462-0072","principal@houston.rr.com","CATHERINE STEPHEN",
"OUR LADY OF PERP HELP SCH","16075 N EVANS RD","SELMA","TX","78154-3824","(210) 651-6811","(210) 651-5516","principal@olphselma.org","TERRENCE TAUBERT",
"Renaissance Academy","14401 Owen-Tech Blvd","Austin","TX","78728","512-252-2277","512-252-2275","principal@racademy.org","Mohammed Malley",
"ST RITA CATHOLIC SCH","712 WEILER BOULEVARD","FORT WORTH","TX","76112-6398","817-451-9383","817-446-4465","principal@saintritaschool.net","CHARLENE HYMEL",
"ST JOSEPH ACADEMY","101 ST JOSEPH DR","BROWNSVILLE","TX","78520-7308","(956) 542-3581","(956) 542-4748","principal@sja.us","LUCY WILLIAMS",
"ST JOSEPH ACADEMY","101 ST JOSEPH DR","BROWNSVILLE","TX","78520-7308","(956) 542-3581","(956) 542-4748","principal@sja.us","LUCY WILLIAMS",
"ST AUGUSTINE HIGH  SCHOOL","1300 GALVESTON ST","LAREDO","TX","78040-8799","(956) 724-8131","(956) 725-8770","principal@st-augustine.org","KATHLEEN SARMIENTO",
"ST MARY'S SCH","1019 S SEVENTH ST","TEMPLE","TX","76504-5699","(254) 778-8141","(254) 778-1396","principal@stmarys-temple.org","DR ARDELL A HAMILTON",
"ST ROSE OF LIMA CATHOLIC SCH","3600 BRINKMAN","HOUSTON","TX","77018-6329","(713) 691-0104","(713) 692-8073","principal@strose-school.net","MARIA L RODRIGUEZ",
"ST CHARLES BORROMEO CATHOLIC SCH","501 TIDWELL RD","HOUSTON","TX","77022-2219","(713) 692-4898","(713) 692-1376","principalah@stcborromeo.org","JOSHUA RAAB",
"ST PETER'S MEMORIAL SCHOOL","1519 HOUSTON ST","LAREDO","TX","78040-0520","(956) 723-6302","(956) 725-2671","principalayala@sbcglobal.net","OLGA AYALA",
"OUR MOTHER OF MERCY SCH","1003 EAST TERRELL AVENUE","FORT WORTH","TX","76104-3799","(817) 336-2880","(817) 338-4227","principalomm@charter.net","DR. CAROLYN YUSUF",
"RESURRECTION CATHOLIC SCH","916 MAJESTIC ST","HOUSTON","TX","77020-6838","(713) 674-5545","(713) 678-4036","principalrcs@yahoo.com","DANNY BROGEE",
"ST GEORGE CATHOLIC SCH","824 HUDGINS ST","FT WORTH","TX","76111-4799","(817) 222-1221","(817) 838-0424","principalsg@charter.net","DR OLGA FERRIS",
"ST HELEN CATHOLIC SCHOOL","2213 OLD ALVIN RD","PEARLAND","TX","77581","(281) 485-2845","(281) 485-7607","principalshcs@aol.com","ELAINA SATSKY",
"SACRED HEART SCHOOL","P O BOX 588","MUENSTER","TX","76252-0588","(940) 759-2511","(940) 759-4422","principalshs.ntin.net","CHAD RILEY",
"SACRED HEART SCHOOL","P O BOX 588","MUENSTER","TX","76252-0588","(940) 759-2511","(940) 759-4422","principalshs.ntin.net","CHAD RILEY",
"OUR LADY OF LOURDES SCH","10114 HWY 6","HITCHCOCK","TX","77563-4515","(409) 925-3224","(409) 925-5094","princpaloll@internetmailbox.net","LISA BURNAM",
"TRINITY CHRISTIAN SCHOOLS","6701 UNIVERSITY AVENUE","LUBBOCK","TX","79413-6303","806-791-6583","806-745-8641","pruett@tcslubbock.org","DAVID PRUETT",
"Primrose School of Castle Hills","1824 King Arthur Blvd","Carrollton","TX","75010","972-899-2273","972-899-2275","psch@advantexmail.net","Jennifer Braun",
"PRIMROSE SCHOOL AT CROSSROADS PARK","9701 Wortham Rd","Houston","TX","77065","281-469-3500","281-469-3950","pscrossroads@msn.com ","Nebal Nemry",
"RAWSON-SAUNDERS SCHOOL","2600 EXPOSITION BLVD","AUSTIN","TX","78703","(512) 476-8382","(512) 476-1132","psekel@rawson-saunders.org ","PAT SEKEL",
"PRIMROSE SCHOOL OF ROUND ROCK AT FOREST CREEK","3313 FOREST CREEK DR","ROUND ROCK","TX","78664","512-828-5777","512-858-5718","psforestcreek@austin.rr.com ","Judy Martinez Director/Jay and Robin Fisher Owners",
"NEW CREATION ADVENTIST SCHOOL","800 West State Highway 6","Waco","TX","76712","254 772 8775",,"pstarr@txsda.org","Patsy Starr",
"ST PATRICK SCHOOL","3350 S ALAMEDA ST","CORPUS CHRISTI","TX","78411-1889","(361) 852-1211","(361) 852-4855","pstegall@stpatrickschoolcc.org","DR. PATRICIA STEGALL",
"Primrose School of West Carrollton","4028 Nazarene Dr.","Carrollton","TX","75010","972-939-4475","972-939-4477","pswckids@gmail.com","Deborah Shepherd",
"CISTERCIAN PREPARATORY SCHOOL","ONE CISTERCIAN RD","IRVING","TX","75039","(469) 499-5400","(469) 499-5440","PVERHALEN@CISTERCIAN.ORG","REVEREND PETER VERHALEN",
"LIVINGWAY CHRISTIAN SCHOOL","350 W. RUBIN M. TORRES","BROWNSVILLE","TX","78520","956-548-2223","956-548-1970","questions@livingwayrgv.com","Dr. Anne Moore",
"THE JUDSON MONTESSORI SCHOOL","17722 ROGERS RANCH PKWY","SAN ANTONIO","TX","78258","(210) 492-3553","(210) 492-3484","r.huber@jms-sat.org","Ralph Huber",
"TEXAS TORAH INSTITUTE","17738 Davenport Rd","Dallas","TX","75252","972-250-4888","972-250-4889","rabbipacht@texastorah.org ","Rabbi Shlomo Pacht",
"HARLINGEN ADVENTIST ELEMENTARY","20811 Montezuma Street","Harlingen","TX","78550","956 428 2926",,"ralejo@txsda.org","Rebecca Alejo",
"JOHN PAUL II HIGH SCHOOL Corpus Christi","3036 SARATOGA BLVD.","CORPUS CHRISTI","TX","78415","361-855-5744","361-855-1343","ralmendarez@jpiihighschool.org","RICARDO ALMENDAREZ",
"Primrose School of Parkwood Hill","7451 Parkwood Hill Blvd","Ft. Worth","TX","76137","817-281-5322","817-281-9159","ralonzo15@aol.com","Robert Alonzo",
"FAITH CHRISTIAN SCHOOL","730 EAST WORTH STREET","GRAPEVINE","TX","76051","817-442-9144","817-442-9904","ramona.miller@fcschool.org","JEFF POTTS",
"FAITH CHRISTIAN SCHOOL","730 EAST WORTH STREET","GRAPEVINE","TX","76051","817-442-9144","817-442-9904","ramona.miller@fcschool.org","JEFF POTTS",
"BRAZOS CHRISTIAN SCHOOL","3000 W VILLA MARIA DR","BRYAN","TX","77803-9781","(979) 823-1000","(979) 823-1774","rarmstrong@bcseagles.org","Robert Armstrong",
"ROBERT M BEREN ACADEMY","11333 CLIFFWOOD DR","HOUSTON","TX","77035","(713) 723-7170","(713) 723-8343","ras@berenacademy.org ","RABBI ARI SEGAL",
"PRIMROSE SCHOOL OF SHADY HOLLOW","12341 Brodie Lane","Austin","TX","78748","512-282-2341","512-282-2343","rbeavers@primroseshadyhollow.com ","Rebecca Beavers",
"MONSIGNOR KELLY CATHOLIC H S","5950 KELLY DR","BEAUMONT","TX","77707","(409) 866-2351","(409) 866-0917","rbemis@kelly.beaumont.tx.us","ROGER BEMIS",
"ESPRIT INTERNATIONAL SCHOOL","4890 W. Panther Creek","The Woodlands","TX","77381","281-298-9200","281 298-2622 ","rbrumbelow@espritmontessori.com","Rosemary Brumbelow",
"ROSEHILL CHRISTIAN SCHOOL","19830 FM 2920","TOMBALL","TX","77377","(281) 351-8114","(281) 516-3418","rcorss@rcseagles.org","DEAN UNSICKER",
"ROSEHILL CHRISTIAN SCHOOL","19830 FM 2920","TOMBALL","TX","77377","(281) 351-8114","(281) 516-3418","rcorss@rcseagles.org","DEAN UNSICKER",
"HOLY TRINITY CATHOLIC HIGH SCHOOL","418 N 11TH ST","TEMPLE","TX","76501","(254) 771-0787","(254) 771-2285","rcouvillon@holytrinitychs.org","ROBIN L. COUVILLON",
"BISHOP GARRIGA MIDDLE SCH","3114 SARATOGA BLVD","CORPUS CHRISTI","TX","78415-5807","(361) 851-0853","(361) 853-5145","rdavila@bgms.org","ROSARIO DAVILA",
"GARLAND CHRISTIAN ACADEMY","1516 LAVON DR","GARLAND","TX","75040-5118","972-487-0043","972-276-4079","rdavis@garlandchristian.com","RUSSELL DAVIS",
"St. Andrew's Episcopal School","1515 South Georgia","Amarillo","TX","79102-2313","806-376-9501","806-376-8421","rdf@standrewsschool.org","Ron Ferguson",
"St. Andrew's Episcopal School","1515 South Georgia","Amarillo","TX","79102-2313","806-376-9501","806-376-8421","rdf@standrewsschool.org","Ron Ferguson",
"ROUND ROCK CHRISTIAN ACADEMY","301 N LAKE CREEK DR","ROUND ROCK","TX","78681-4940","512-255-4491","512-255-6043","rebeccablauser@rrca-tx.org","REBECCA BLAUSER",
"EDNA CHRISTIAN ACADEMY","8067 APOLLO DR","EDNA","TX","77957","361-782-2052 ","NA","rev@ednachristianacademy.org ","Darrell E. Clark ",
"THE BROOK HILL SCHOOL","P O BOX 668","BULLARD","TX","75757","(903) 894-5000","(903) 894-6332","rfletcher@brookhill.org ","ROD FLETCHER",
"TRINITY LUTHERAN SCHOOL SAN ANGELO","3516 YMCA Drive","San Angelo","TX","76904","325-947-1275","325-947-1377","rfritsche@sbcglobal.net","Ron Fritsche",
"LITTLE FLOWER CATHOLIC SCH","905 KENTUCKY AVE","SAN ANTONIO","TX","78201-6098","(210) 732-9207","(210) 732-3214","rgraves@archdiosa.org","RITA GRAVES",
"ROCKING HORSE ACADEMY","6022 MCNAUGHTON","KYLE","TX","78640","512-405-3700","512-405-3701","rjeichen_rha@yahoo.com","REBECCA EICHEN",
"THE SHLENKER SCHOOL","5600 N BRAESWOOD BLVD","HOUSTON","TX","77096-2901","(713) 270-6127","(713) 270-6114","RKOMISS@SHLENKER.ORG","RICKI KOMISS",
"CORNERSTONE SCHOOL","1502 N JEFFERSON","SAN ANGELO","TX","76903","915-655-3439","325-658-8998","roe@ccs-sanangelo.com","CATHY ANDERSON",
"VANGAUARD PREPARATORY SCHOOL","4240 SIGMA ROAD","DALLAS","TX","75244","(972) 404-1616","(972) 404-1641","rosalind@vanguardprepschool.com","ROSALIND FUNDERBURGH",
"TRINITY CHRISTIAN SCHOOL CEDAR HILL","1231 E. PLEASANT RUN ROAD","CEDAR HILL","TX","75104-4101","972-291-2505","972-291-4739","rparker@trinitychristianschool.com","KATHLEEN WATTS",
"TRINITY CHRISTIAN SCHOOL CEDAR HILL","1231 E. PLEASANT RUN ROAD","CEDAR HILL","TX","75104-4101","972-291-2505","972-291-4739","rparker@trinitychristianschool.com","KATHLEEN WATTS",
"LAKEHILL PREPARATORY SCHOOL","2720 HILLSIDE DR","DALLAS","TX","75214-3429","(214) 826-2931","(214) 826-4623","RPERRY@LAKEHILLPREP.ORG","ROGER PERRY",
"LAKEHILL PREPARATORY SCHOOL","2720 HILLSIDE DR","DALLAS","TX","75214-3429","(214) 826-2931","(214) 826-4623","RPERRY@LAKEHILLPREP.ORG","ROGER PERRY",
"ST JOHN BOSCO SCH","5630 W COMMERCE ST","SAN ANTONIO","TX","78237-1397","(210) 432-8011","(210) 432-5168","rruiz@archdiosa.org","SISTER ROSANN RUIZ",
"Regents School of Austin","3230 Travis Country Circle","Austin","Texas","78735","512-899-8095","512-899-8623","RSA@regents-austin.com","Rod Gilbert Head of School",
"CHRIST THE KING ELEMENTARY SCH","4100 COLGATE","DALLAS","TX","75225-6601","(214) 365-1234","(214) 365-1236","rseltzer@cks.org","ROSEMARY SELTZER",
"St. Paul's Episcopal Day School Waco","517 Columbus","Waco","TX","76701","254-753-0246","409-283-5375","rwebb@stpaulsschoolwaco.com","Rich Webb",
"St. Paul's Episcopal Day School Waco","517 Columbus","Waco","TX","76701","254-753-0246","409-283-5375","rwebb@stpaulsschoolwaco.com","Rich Webb",
"Primrose School of Mid-Cities","500 Mid-Cities Blvd","Hurst","TX","76054","817-485-8996","817-485-6036","s_barfknecht@sbcglobal.net","Terry Taylor",
"ST VINCENT DE PAUL EL SCH","2300 N HOBART","PAMPA","TX","79065-2705","(806) 665-5665","(806) 665-2840","saintvd@sbcglobal.net","SHAUNA MUSSELL",
"STS PETER & PAUL CATHOLIC SCH","198 W BRIDGE ST","NEW BRAUNFELS","TX","78130-5014","(830) 625-4531 ext:3","(830) 606-6916","sanderson@archdiosa.org","SUZETTE ANDERSON",
"ST ANTHONY CATHOLIC SCH","635 BONHAM STREET","COLUMBUS","TX","78934-2603","(979) 732-5505","(979) 732-9758","saschool@catholic.org","JOHN R. O'LEARY",
"ST MARK CATHOLIC SCH","1201 ALMA DR","PLANO","TX","75075-7114","(972) 578-0610","(972) 423-3299","sbacot@stmarkplano.com","SUZANNE BACOT",
"THE JOY SCHOOL","One Chelsea Blvd.","Houston","TX","77006","713-523-0660","713-523-5660","sbumgarner@thejoyschool.org","Shara Bumgarner",
"ST CHRISTOPHER CATHOLIC SCH","8134 PARK PL BLVD","HOUSTON","TX","77017-3033","(713) 649-0009","(713) 649-1104","sccs1939@aol.com","JO ANN PRATER",
"CORAM DEO ACADEMY","4900 WICHITA TRAIL","DENTON","TX","75022","800-465-0562","972-692-5140","schaefer.rl@gmail.com ","RODNEY MARSHALL",
"Crown of Life Lutheran School Colleyville","6605 Pleasant Run Road","Colleyville","TX","76034","817-251-1881","817-421-9263","school@crownoflife.org","Tim Walz",
"FAITH LUTHERAN SCHOOL PLANO","1701 E PARK BLVD","PLANO","TX","75074-5123","(972) 423-7448","(972) 423-9618","school@faith.plano.tx.us","TIM MERRITT",
"FAITH LUTHERAN SCHOOL SUGARLAND","800 Brooks Street","PLANO","TX","75074-5123","281-242-4453","281-242-8749","school@faith.plano.tx.us","Gordon Stoneburner",
"DISCOVERY SCHOOL-SMITHFIELD UNITED METHODIST CHURCH","6701 SMITHFIELD RD","NORTH RICHLAND HILLS","TX","76180","817 281-2669 ","817 281-1858 ","school@smithfieldumc.org","JANET TAYLOR",
"ST JOSEPH CATHOLIC SCHOOL","600 SOUTH JUPITER RD.","RICHARDSON","TX","75081","(972) 234-4679","(972) 692-4594","school@stjosephcc.net","DAVID ROSS",
"Faith Lutheran School Huntsville","111 Sumac Rd","Huntsville","TX","77340","936-291-1706","936-295-8266","school@txu.net","Kristie Pacher",
"Good Shepherd Episcopal Day School","1207 W. Winding Way","Friendswood","Texas","77546","281-992-1357","281-992-1105","schooldirector@gshep.net","Linda Ansell",
"SUGARGROVE CHRISTIAN SCHOOL","11600 W AIRPORT","STAFFORD","TX","77477","(281) 575-6598","(281) 893-8531","schoolinfo@sgcs.org","KIM HEARN",
"ST ANDREW CATHOLIC SCH","3304 DRYDEN RD","FT WORTH","TX","76109-3799","(817) 924-8917","(817) 927-8507","schooloffice@standewsch.org","CLARICE PENINGER",
"ST ANTHONY OF PADUA SCHOOL","7901 BAY BRANCH DR","THE WOODLANDS","TX","77382-1307","(281) 296-0300","(281) 296-7238","schooloffice@staopcs.org","RENEE NUNEZ",
"Primrose School of Hickory Creek","1011 Ronald Reagan Ave","Hickory Creek","TX","75065","940-270-0444","940-269-2111","scott@primrosehickorycreek.com","Scott Maness",
"SHINER CATHOLIC SCHOOL","PO BOX 725","SHINER","TX","77984-0725","(361) 594-2313","(361) 594-8599","scs@gvec.net","ROBERT WHITWORTH",
"SHORELINE CHRISTIAN SCHOOL","15201 BURNET ROAD","AUSTIN","TEXAS","78728","512-310-7358","512-255-5955","SCS@SHORELINE.NET","RICK TANKERSLEY",
"Austin Waldorf School","8700 South View Road","Austin","TX","78737","512-288-5942","512-301-8997","sdarcytx@yahoo.com","Stephen Darcy",
"THE SELWYN SCHOOL","3333 University Drive W","Denton","TX","76207","940-382-6771","940-383-0704","SDOERGE@SELWYNSCHOOL.CON","Raymond ""Sandy"" Doerge",
"THE EMERY/WEINER SCHOOL","9825 STELLA LINK","HOUSTON","TX","77025","(832) 204-5900","(832) 204-5910","sdow@emeryweiner.org","STUART DOW",
"THE EMERY/WEINER SCHOOL","9825 STELLA LINK","HOUSTON","TX","77025","(832) 204-5900","(832) 204-5910","sdow@emeryweiner.org","STUART DOW",
"THE EMERY/WEINER SCHOOL","9825 STELLA LINK","HOUSTON","TX","77025","(832) 204-5900","(832) 204-5910","sdow@emeryweiner.org","STUART DOW",
"THE EMERY/WEINER SCHOOL","9825 STELLA LINK","HOUSTON","TX","77025","(832) 204-5900","(832) 204-5910","sdow@emeryweiner.org","STUART DOW",
"OUR LADY OF FATIMA ELEMENTARY","1600 NINTH STREET N","TEXAS CITY","TX","77590-9414","(409) 945-3326","(409) 945-3389","se_flanagan@yahoo.com","SUSAN FLANAGAN",
"ST THOMAS MORE SCH","4427 MOANA DR","SAN ANTONIO","TX","78218-3699","(210) 655-2882","(210) 655-9603","selem@satx.rr.com","WILLIAM SMITH",
"Holy Trinity Episcopal School","11810 Lockwood","Houston","TX","77044","281-459-4323","281-459-4302","sellisor@holytrinityeschool.org","Shirley Ellisor",
"EAST TEXAS CHRISTIAN ACADEMY ELEMENTARY","1797 SHILOH ROAD","TYLER","TX","75703","(903) 561-8642","(903) 561-9620","sfossey@etca.org","SCOTT FOSSEY",
"EAST TEXAS CHRISTIAN ACADEMY MIDDLE SCHOOL","P O BOX 8201","TYLER","TX","75711","(903) 561-8642","(903) 561-9620","sfossey@etca.org","KAY BELLAR",
"EAST TEXAS CHRISTIAN ACADEMY HIGH SCHOOL","1797 SHILOH ROAD","TYLER","TX","75711","(903) 561-8642","(903) 561-9620","sfossey@etca.org","KAY BELLAR",
"HOLY SPIRIT CATHOLIC SCH","770 W RAMSEY RD","SAN ANTONIO","TX","78216-3717","(210) 349-1169","(210) 349-1247","sgalvan@hsccsa.org","SANDY GALVAN",
"ST BENEDICT CATHOLIC SCH","4547 LORD RD","SAN ANTONIO","TX","78220-3599","(210) 648-1611","(210) 648-1722","sgonzales@archdiosa.org","SUSAN G. GONZALES",
"CATHEDRAL HIGH SCH","1309 N STANTON ST","EL PASO","TX","79902-4121","(915) 532-3238","(915) 533-8248 ","sgovea80@cathedral-elpaso.org","SAM GOVEA",
"LOBIAS MURRAY CHRISTIAN ACAD","330 E ANN ARBOR AVE","DALLAS","TX","75216-6717","(214) 372-6466","(214) 376-6763","sharonlsmith2003@yahoo.com","SHARON L SMITH",
"ST ALCUIN MONTESSORI SCHOOL","6144 CHURCHILL WAY","DALLAS","TX","75230","(972) 239-1745","(972) 934-8727","SHAUN@SAINTALCUIN.ORG","SHAUN UNDERHILL",
"Abiding Word Lutheran School","17123 Red Oak Drive","Houston","TX","77090","281-895-7048","281-895-7048","shawn.herkstroeter@abidingword-wels.org","Mr. Shawn Herkstroeter",
"INCARNATE WORD ACADEMY ELEMENATRY LEVEL","450 CHAMBERLAIN ST","CORPUS CHRISTI","TX","78404-2499","(361) 883-0857 ext:115","(361) 881-9519","sherlihy@iwacc.org","SISTER CAMELIA HERLIHY",
"MT SACRED HEART SCH","619 MOUNT SACRED HEART RD","SAN ANTONIO","TX","78216-6695","(210) 342-6711","(210) 342-4032","sherrera@archdiosa.org","SYLVIA D HERRERA",
"SCHOOL OF THE WOODS","1321 WIRT RD","HOUSTON","TX","77055","(713) 686-8811","(713) 686-1936","sherron@schoolofthewoods.org ","SHERRY HERRON",
"NOLAN CATHOLIC H S","4501 BRIDGE ST","FT WORTH","TX","76103-1198","(817) 457-2920 ext:1516","(817) 496-9775","shiner@nolancatholichs.org","STEPHEN HINER",
"NOLAN CATHOLIC H S","4501 BRIDGE ST","FT WORTH","TX","76103-1198","(817) 457-2920 ext:1516","(817) 496-9775","shiner@nolancatholichs.org","STEPHEN HINER",
"SHEPHERD OF THE HILLS LUTHERAN SCHOOL SAN ANTONIO","6914 WURZBACH RD","SAN ANTONIO","TX","78240-3832","(210) 614-3741","(210) 692-7554","shlcschool@aol.com","SUE GARY",
"SACRED HEART SCH","111 NORTH CHURCH STREET","ROCKPORT","TX","78382-2711","(361) 729-2672","(361) 729-9382","shsprin@shsrockport.org","KATHERINE K. BARNES",
"CENTRAL CATHOLIC ELEMENTARY","1218 COMANCHE ST","CORPUS CHRISTI","TX","78401-2619","(361) 883-3873","(361) 883-5879","sisteranne@centralcatholic.us","SISTER ANNE BRIGID SCHLEGEL",
"SAN JACINTO CHRISTIAN ACADEMY","301 ILFREY AVE","BAYTOWN","TX","77520","(281) 424-1600","(281) 424-1600","sjca@houston.rr.com","Stephen Weatherly",
"GRACE COMMUNITY SCHOOL","3215 OLD JACKSON ROAD","TYLER","TX","75701-7505","903-593-1977","903-593-2897","sjohnson@gracetyler.org","SUE JOHNSON",
"ST JOSEPH PAROCHIAL SCHOOL","P O BOX 157","ALICE","TX","78332-0157","(361) 664-4642","(361) 664-4642","sjsaints@awesomenet.net","MARY SANDOVAL",
"ST JAMES CATHOLIC SCH","507 S CAMP ST","SEGUIN","TX","78155-6454","(830) 379-2878","(830) 379-2878","sjsi@swbell.net","JANICE M JESSEN",
"DARUL ARQAM NORTH","11815 ADEL ROAD","HOUSTON","TX","77067","281 583-1984 ","281 440-8024 ","skadhami@hotmail.com ","MRS. BUSHRA SABOOHI ADHAMI",
"St. Francis Episcopal Day School","335 PINEY POINT RD","Houston","TX","77024-6599","(713) 458-6100","(713) 782-4720","SLAIR@SFEDSHOUSTON.ORG","Dr. Susan Lair",
"St. Francis Episcopal Day School","335 PINEY POINT RD","Houston","TX","77024-6599","(713) 458-6100","(713) 782-4720","SLAIR@SFEDSHOUSTON.ORG","Dr. Susan Lair",
"St. Francis Episcopal Day School","335 PINEY POINT RD","Houston","TX","77024-6599","(713) 458-6100","(713) 782-4720","SLAIR@SFEDSHOUSTON.ORG","Dr. Susan Lair",
"St. Francis Episcopal Day School","335 PINEY POINT RD","Houston","TX","77024-6599","(713) 458-6100","(713) 782-4720","SLAIR@SFEDSHOUSTON.ORG","Dr. Susan Lair",
"SALEM LUTHERAN SCHOOL TOMBALL","22607 LUTHERAN CHURCH RD","TOMBALL","TX","77375-3716","(281) 351-8122","(281) 351-8190","slconline@salem4u.com","MARY BETH GAERTNER",
"University of Houston Child Care Center","3859 Wheeler 109 Child Care Center ","Houston","TX","77204","713-----5480","713-----5489","slhowar2@central.uh.edu ","Sherry Howard",
"HOUSTON CHRISTIAN H S","2700 W SAM HOUSTON PKWY N","HOUSTON","TX","77043","(713) 580-6000","(713) 580-6001","slivingston@houstonchristianhs.org","DR. SUZETTE ESTES",
"ST LUKE CATHOLIC SCHOOL","2850 PRICE RD","BROWNSVILLE","TX","78521-2767","(956) 544-7982","(956) 544-4874","slschool@sbcglobal.net","ANA E. GOMEZ",
"INCARNATE WORD ACADEMY ","244 RESACA BLVD","BROWNSVILLE","TX","78520-4436","(956) 546-4486","(956) 504-3960","smarilyn537@aol.com","SR MARILYN SPRINGS",
"SCOFIELD CHRISTIAN SCHOOL","7730 ABRAMS RD","DALLAS","TX","75231-3902","214-349-6843","214-342-2061","smartin@scofieldchristian.org","STEPHANIE JOHNSON-MARTIN",
"ST MARY CATHOLIC SCH","1612 E WALKER","LEAGUE CITY","TX","77573-4137","(281) 332-5148","(281) 332-8328","smcschool@academicplanet.com","RUTH ANN WINSOR",
"SAN MARTIN DE PORRES CATHOLIC SCHOOL","905 N TEXAS BLVD","WESLACO","TX","78596","(956) 973-8642","(956) 973-0522","smdpcs@gte.net","SISTER HELEN ROTTIER",
"ST ELIZABETH SCHOOL","615 E FIFTH ST","ALICE","TX","78332-4953","(361) 664-6271","(361) 668-4250","smgarcia@myctsonline.com","SELINA M GARCIA",
"ST HELEN SCHOOL","2700 E UNIVERSITY AVE","GEORGETOWN","TX","78626","512-868-0744","512-869-3244","smjopo@sainthelens.org","SR MARY JEAN OLSOVSKY",
"PANTEGO CHRISTIAN ACADEMY","2201 W PARK ROW","ARLINGTON","TX","76013","817-460-3315","817-277-6749","snewby@pantego.com","STEVEN NEWBY",
"SAN MARCOS ADVENTIST JUNIOR ACADEMY","1523 RANCH RD 12","SAN MARCOS","TX","78666-2901","(512) 392-9475","(512) 396-5211","snichols@txsda.org","SUSAN NICHOLS",
"J. ERIK JONSSON COMMUNITY SCHOOL","106 E. TENTH ST","DALLAS","TX","75203","214 915-1890","214 915-1863","snobles@jonssonschool.org","SANDY NOBLES",
"Primrose School of Pearland","2350 County Road 94","Pearland","TX","77584","713-436-4120","713-436-5501","spapadopou@aol.com","Shannon Savole",
"St. Philip's Episcopal School","343 N. Getty","Uvalde","Texas","78801","830-278-1350","830-278-2093","speschool@sbcglobal.net","Elisa Santos",
"PRESTON HOLLOW PRESBYTERIAN SCHOOL","9800 Preston Road ","Dallas","TX","75230","214-368-3886","214-368-2255","sphaneuf@phps.org ","Sheila Phaneuf",
"ST PHILIP THE APOSTLE CATHOLIC SCH","8151 MILITARY PKWY","DALLAS","TX","75227-4302","(214) 381-4973","(214) 381-0466","sphasdal@cathdal.org","FRED MEYERS",
"HYDE PARK BAPTIST EL","3901 SPEEDWAY","AUSTIN","TX","78751-4625","(512) 465-8338","(512) 371-1433","sphelps@hpbs.org","SANDRA PHELPS",
"HYDE PARK BAPTIST EL","3901 SPEEDWAY","AUSTIN","TX","78751-4625","(512) 465-8338","(512) 371-1433","sphelps@hpbs.org","SANDRA PHELPS",
"HYDE PARK BAPTIST EL","3901 SPEEDWAY","AUSTIN","TX","78751-4625","(512) 465-8338","(512) 371-1433","sphelps@hpbs.org","SANDRA PHELPS",
"HYDE PARK BAPTIST EL","3901 SPEEDWAY","AUSTIN","TX","78751-4625","(512) 465-8338","(512) 371-1433","sphelps@hpbs.org","SANDRA PHELPS",
"APPLEGATE SDA SCHOOL","P O BOX 729","ROUND ROCK","TX","78680-0729","(512) 388-5016",,"sramsarran@swrgc.org","INGRID STANLEY",
"BETHEL SDA SCH","P O BOX 660","TEXARKANA","TX","75501-0660","(903) 832-6036",,"sramsarran@swrgc.org","JAMIE MASSIE",
"EXCEL ADVENTIST ACADEMY","7950 W FUQUA","MISSOURI CITY","TX","77459-9249","(281) 835-0770",,"sramsarran@swrgc.org","ADDRIENE WARFIELD",
"HOLY GHOST CATHOLIC SCH","6920 CHIMNEY ROCK","HOUSTON","TX","77081-5696","(713) 668-5327","(713) 667-4410","srjudy@holyghostschool.com","SR JUDY SCHEFFLER",
"ST MICHAEL SCHOOL","103 E N ST","WEIMAR","TX","78962-1315","(979) 725-8461","(979) 725-8344","srkathleengoike@yahoo.com","SISTER KATHLEEN GOIKE",
"FATHER YERMO SCH","220 WASHINGTON ST","EL PASO","TX","79905-3898","(915) 532-6875","(915) 532-2827","srmariafys@hotmail.com ","SISTER MARIA JESUS MUNGUIA",
"FATHER YERMO SCH","220 WASHINGTON ST","EL PASO","TX","79905-3898","(915) 532-6875","(915) 532-2827","srmariafys@hotmail.com ","SISTER MARIA JESUS MUNGUIA",
"ST PAUL CATHOLIC SCH","307 JOHN ADAMS DR","SAN ANTONIO","TX","78228-3171","(210) 732-2741","(210) 732-7702","ssanchez@archdiosa.org","SANDRA SANCHEZ",
"ST MICHAEL'S CATHOLIC ACADEMY","3000 BARTON CREEK BLVD","AUSTIN","TX","78735-1409","(512) 328-2323","(512) 328-2327","sscamardo@smca.org","SHAROM SCAMARDO",
"STS CYRIL & METHODIUS CATHOLIC SCH","P O BOX 248","GRANGER","TX","76530-0248","(512) 859-2927","(512) 859-2649","sscmcs@academicplanet.com","DR NORLENE KUNKEL",
"ST PETER THE APOSTLE CATHOLIC SCH","6220 LASALETTE DR","HOUSTON","TX","77021-1399","(713) 747-9484","(713) 747-7055","ssmahouston@aol.com","SR. MARIA GORETTI BABATUNDE",
"ST JOSEPH CATHOLIC SCH","1811 CAROLINA","BAYTOWN","TX","77520-6099","(281) 422-9749","(281) 422-7001","st_joseph_sch@yahoo.com","ANN MULLINS",
"ST RAPHAEL CATHOLIC SCH","2310 WOODSIDE DR","EL PASO","TX","79925-6342","(915) 598-2241","(915) 598-3002","st_raphael_principal@hotmail.com","ELIZABETH M WIEHE",
"SCHOOL FOR ENVIRONMENTAL ED","7738 CAMP KAPPE RD","PLANTERSVILLE","TX","77363","(936) 894-2141","(936) 894-2198 ext:51","stalsee@aol.com","SISTER THOMAS ANN LA COUR",
"ST ANN'S EL SCH","2000 W TEXAS AVE","MIDLAND","TX","79701-6418","(432) 684-4563","(432) 687-2468","stannsprincipal@usaonline.net","JOAN WILMES",
"LUTHERAN HIGH SCHOOL San Antonio","18104 Babcock Rd","SAN ANTONIO","TX","78255","210-694-4962","210-694-9150","stephen.eggold@lhssa.org","Stephen Eggold",
"Concordia Christian Academy McKinney","2708 West Virginia Parkway","McKinney","TX","75071","972-562-9944","972-548-7425","steve.winkelman@concordiachristian.org","Steve Winkelman",
"GRACE LUTHERAN SCHOOL ARLINGTON","308 W PARK ROW","ARLINGTON","TX","76010-4360","(817) 274-1654","(817) 277-9353","stevestigler@msn.com","Steve Stigler",
"ST PATRICK CATHOLIC EL","2116 LOWRY ST","LUFKIN","TX","75901-1316","(936) 634-6719","(936) 639-2776","sthompson@stpatricklifkin.com","SHERYL THOMPSON",
"STILL CREEK CHRISTIAN SCH","6055 HEARNE LN","BRYAN","TX","77808-8261","(409) 589-3206","(409) 589-2152","stillcreek@iolbv.com","MARGARET O'QUINN",
"ST JEROME CATHOLIC SCH","8825 KEMPWOOD DR","HOUSTON","TX","77080-4199","(713) 468-7946","(713) 464-0325","stjeromeschool@ev1.net","SHARON A MAKULSKI",
"ST JOSEPH SCH","20TH & WEST DIVISION","SLATON","TX","79364-3699","(806) 828-6761","(806) 828-5396","stjoseph@sjs-slaton.com","JAMES STARKEY",
"ST JOSEPH ELEMENTARY SCH","4118 S BONHAM ST","AMARILLO","TX","79110-1113","(806) 359-1604","(806) 359-1605","stjosephelem@catholicexchange.com","REV. JOHN OHLIG",
"ST JOSEPH SCH","1300 LAMAR","EL PASO","TX","79903-2836","(915) 566-1661","(915) 566-1664","stjosephs@aol.com","BROTHER EDWIN GALLAGHER",
"ST JOSEPH CATHOLIC SCH","506 EAST MARVIN AVENUE","WAXAHACHIE","TX","75165-0190","(972) 937-0956","(972) 937-1742","stjswaxrtr@sbcglobal.net","MARY KAY VOLKER",
"ST LOUIS CATHOLIC SCH","2208 N 23RD ST","WACO","TX","76708-3399","(254) 754-2041","(254) 754-2091","stlouis@stlouiswaco.org","LOUIS GONZALES",
"ST MARY SCH","2600 BOB HALL RD","ORANGE","TX","77630-2418","(409) 883-8913","(409) 883-0827","stmarys@pnx.com","IDA BROUSSARD",
"St. Matthew's Episcopal School","8134 Mesa Drive","Austin","Texas","78759","512-345-3040","512-345-5866","stmattsangels99@sbcglobal.net","Pam Littlefield",
"ST MARY'S CATHOLIC SCHOOL","1300 LOS EBANOS BLVD","BROWNSVILLE","TX","78520-8699","(956) 546-1805","(956) 546-0787","STMPRINC@aol.com","JUAN M BARREDA",
"ST PATRICK'S CATHEDRAL SCH","1111 N STANTON ST","EL PASO","TX","79902-4117","(915) 532-4142","(915) 532-8297","stpat1111@netzero.net","LILIANA ESPARZA",
"ST PATRICK SCH","9635 FERNDALE RD","DALLAS","TX","75238-2798","(214) 348-8070","(214) 503-7230","stpats@stpatrickschooldallas.org","SISTER BERNARDA BLUDAU",
"ST PAUL LUTHERAN SCHOOL MCALLEN","300 W Pecan","McAllen","TX","78501","956-682-2345","956-682-7148","stpaul@sbcglobal.net","Dr. Kathy Lang",
"ST PAUL LUTHERAN SCHOOL BISHOP","801 E Main","Bishop","TX","78343","361-584-2033","361-584-2691","stpaul@sbcglobal.net","Susan Moerbe",
"ST PAUL LUTHERAN SCHOOL AUSTIN","3407 Red River Street","Austin","TX","78705","512-472-3313","512-469-0785","stpaul@sbcglobal.net","Mary Eifert",
"ST PAUL LUTHERAN SCHOOL FT WORTH","1800 West Freeway","Ft. Worth","TX","76102","817-332-2281","817-332-2640","stpaul@sbcglobal.net","Larry Hoffschneider",
"ST PAUL LUTHERAN SCHOOL HARLINGEN","602 MORGAN BLVD","HARLINGEN","TX","78550-5142","(956) 423-3926","(956) 423-0926","stpaulhn@swbell.net","Julie Walther",
"THE MOORE-WEIS CHILDREN'S CENTER OF AUSTIN","1303 LORRAIN ST","AUSTIN","TX","78703","512 472-6080 ","512 472-5787 ","suzzanne.moore@moore-weis.org ","SUZZANNE MOORE",
"ST VINCENT DE PAUL SCH","6802 BUFFALO SPEEDWAY","HOUSTON","TX","77025-1499","(713) 666-2345","(713) 663-3562","svdpprincipal@yahoo.com","DR. THOMAS O'NEILL",
"THE EPISCOPAL SCHOOL OF DALLAS","4100 MERRELL RD","DALLAS","TX","75229-6217","(214) 358-4368","(214) 357-1232","SWANNS@ESDALLAS.ORG","REV. STEPHEN SWANN",
"TRAFTON ACADEMY","4711 McDermed St.","HOUSTON","TX","77035","713-723-3732","713-723-1844","sylviabryan@trafton.org","Sylvia Bryan",
"ISLAMIC SCHOOL OF IRVING","2555 ESTERS RD","IRVING","TX","75062","972 812-2220 ","972 812-2221 ","szc0001@hotmail.com ","SHAHNAZ CHOWDHURY",
"LAUREL ACADEMY EL","2202 HALF LEAGUE RD","PORT LAVACA","TX","77979","361-552-5757","361-552-1951","taaps@tisd.net","FRANCES E MOSES",
"ST MICHAEL CATHOLIC SCH","1833 SAGE RD","HOUSTON","TX","77056-3599","(713) 621-6847","(713) 877-8812","tadamo@stmichaelcs.org","STEPHEN P PARSONS",
"All Saints Episcopal School Fort Worth","9700 Saints Circle","Fort Worth","TX","76108","817-560-5700","817-560-5717","tadbird@aseschool.org","Thaddeus B. Bird",
"All Saints Episcopal School Fort Worth","9700 Saints Circle","Fort Worth","TX","76108","817-560-5700","817-560-5717","tadbird@aseschool.org","Thaddeus B. Bird",
"All Saints Episcopal School Fort Worth","9700 Saints Circle","Fort Worth","TX","76108","817-560-5700","817-560-5717","tadbird@aseschool.org","Thaddeus B. Bird",
"All Saints Episcopal School Fort Worth","9700 Saints Circle","Fort Worth","TX","76108","817-560-5700","817-560-5717","tadbird@aseschool.org","Thaddeus B. Bird",
"All Saints Episcopal School Fort Worth","9700 Saints Circle","Fort Worth","TX","76108","817-560-5700","817-560-5717","tadbird@aseschool.org","Thaddeus B. Bird",
"All Saints Episcopal School Fort Worth","9700 Saints Circle","Fort Worth","TX","76108","817-560-5700","817-560-5717","tadbird@aseschool.org","Thaddeus B. Bird",
"ST IGNATIUS MARTYR SCH","120 W OLTORF","AUSTIN","TX","78704-5294","(512) 442-8547","(512) 442-8685","tblahnik@st-ignatius.org","TODD A. BLAHNIK",
"TEMPLE CHRISTIAN ACADEMY","1010 BELLAIRE BOULEVARD","LEWISVILLE","TX","75067-5650","972-436-3480","972-219-5639","tca@templechristian.com","JERRY BARGE",
"TRINITY CHRISTIAN ACADEMY SAN ANTONIO","5401 NORTH LOOP 1604 EAST","SAN ANTONIO","TX","78247-4691","210-653-2800","210-653-0303","tca@trinitychristianacademy-sa.com","SUSAN OLDFIELD",
"JOHN PAUL II HIGH SCHOOL Plano","900 COIT RD","PLANO","TX","75075","972-867-0005","972-867-7555","TCESPOORE@JOHNPAULIIHS.ORG","MR. THOMAS POORE",
"JOHN PAUL II HIGH SCHOOL Plano","900 COIT RD","PLANO","TX","75075","972-867-0005","972-867-7555","TCESPOORE@JOHNPAULIIHS.ORG","MR. THOMAS POORE",
"ST PAUL SERBIN LUTHERAN SCHOOL GIDDINGS","1578 CR 211","Giddings","TX","78942","(956) 423-3926","(956) 423-0926","teacherbirnbaum@hotmail.com","David Birnbaum",
"Trinity Episcopal Day School","3901 S. Panther Creek Drive","The Woodlands","TX","77380","281-367-5148","281-296-2201","teds@trinitywoodlands.org","Carol Godell",
"Primrose School of North Nason Creek","21480 Park Row Blvd","Katy","TX","77449","281-492-7400","281-492-7417","terriec@primrosemasoncreek.com ","Terri Costantini Director/Lou Ann McLaughlin Owner",
"HUNTINGTON-SURREY H S","4804 Grover Avenue","AUSTIN","TX","78756","512-478-4743","512-457-0235","texanfrench@hotmail.com","DR LIGHT B GERMAN",
"Texas Preparatory Academy","715 West Adoue Street","Alvin","TX","77511","281-756-9231","281-756-9246","texasprep@earthlink.net","Dr. Julie Howard",
"ST PHILIP S SCHOOL AND COMMUNITY CENTER","1600 PENNSYLVANIA AVE","DALLAS","TX","75215-3299","(214) 421-5221","(214) 428-5371","TFLOWERS@STPHILIPS.COM","STPHILIPS1600.ORG",
"ST PHILIP S SCHOOL AND COMMUNITY CENTER","1600 PENNSYLVANIA AVE","DALLAS","TX","75215-3299","(214) 421-5221","(214) 428-5371","TFLOWERS@STPHILIPS.COM","STPHILIPS1600.ORG",
"NOTRE DAME OF DALLAS SP SCH/VOC CTR","2018 ALLEN STREET","DALLAS","TX","75204-4705","(214) 720-3911","(214) 720-3913","tfrancis@notredameschool.org","THERESA FRANCIS",
"DALLAS CHRISTIAN High SCHOOL","P O BOX 570249","DALLAS","TX","75357-0295","(972) 270-5495","(972) 270-7581","tharlow@dallaschristian.com","Dr. John Bragg",
"DALLAS CHRISTIAN High SCHOOL","P O BOX 570249","DALLAS","TX","75357-0295","(972) 270-5495","(972) 270-7581","tharlow@dallaschristian.com","Dr. John Bragg",
"DALLAS CHRISTIAN High SCHOOL","P O BOX 570249","DALLAS","TX","75357-0295","(972) 270-5495","(972) 270-7581","tharlow@dallaschristian.com","Dr. John Bragg",
"DALLAS CHRISTIAN High SCHOOL","P O BOX 570249","DALLAS","TX","75357-0295","(972) 270-5495","(972) 270-7581","tharlow@dallaschristian.com","Dr. John Bragg",
"OUR LADY OF THE GULF CATHOLIC SCHOOL","P.O. Box 87","PORT LAVACA","TX","77979","(361) 552-2774","(361) 552-4300","theresa.dent@olgulfschool.org","THERESA DENT",
"SANTA CLARA OF ASSISI CATHOLIC ACADEMY","321 CALUMET AVENUE","DALLAS","TX","75211-3515","(214) 333-9423","(214) 333-2556","thigginbotham@santaclaraacademy.org","TODD HIGGINBOTHAM",
"ST PHILIP THE APOSTLE EL","302 W CHURCH ST","EL CAMPO","TX","77437-3398","(979) 543-2901","(979) 578-8835","tishmc@stphilipschool.org","TISH MCALISTER",
"TRINITY LUTHERAN SCHOOL AMARILLO","5005 I 40 West","Amarillo","TX","79106","806-352-5620","806-353-7785","tlcprincipal@nts-online.org","Rick Ryan",
"HOLY NAME SCHOOL","1912 MARION ST","HOUSTON","TX","77009-8497","(713) 227-9529","(713) 227-0224","tlewis@sbcglobal.net","TINA LEWIS",
"BEATRICE MAYES INSTITUTE","5724 CALHOUN RD","HOUSTON","TX","77021-2802","(713) 747-5629","(713) 747-5683","tmayes@bmicharter.org","BEATRICE MAYS",
"OUR LADY OF VICTORY SCH","3320 HEMPHILL ST","FT WORTH","TX","76110-4098","(817) 924-5123","(817) 923-9621","tmiller@olvfw.com","TRUDY MILLER",
"SANDERS ESTES UNIT","1100 HWY 107","VENUS","TX","76084","972-366-3334","972-366-3255","tminter@thegeogroupinc.com","T. D. MINTER",
"TREEHOUSE DAY PROGRAM","10515 GULFDALE","SAN ANTONIO","TX","78216","210 822-1881 ","210 822-1881 ","treehouseday@sbcglobal.net","MARCI TAYLOR",
"TRINITY CHRISTIAN ACADEMY WILLOW PARK","4954 EAST I-20 SERVICE ROAD SOUTH","WILLOW PARK","TX","76087","817-441-7901","817-441-7912 ","trinity@tcaeagles.org ","DR MARSHA BARBER",
"TRINITY CHRISTIAN ACADEMY WILLOW PARK","4954 EAST I-20 SERVICE ROAD SOUTH","WILLOW PARK","TX","76087","817-441-7901","817-441-7912 ","trinity@tcaeagles.org ","DR MARSHA BARBER",
"CROWN OF LIFE LUTHERAN SCHOOL","6605 PLEASANT RUN RD","COLLEYVILLE","TX","76034-6609","(817) 251-1881","(817) 421-9263","twalz@crownoflife.org","Tim Walz",
"Providence Classical School","6006 Spring Cypress Rd","Spring","TX","77379","281-320-0500","281-379-2039","twathen@pcsclassical.org","Troy Wathen",
"IMMACULATE CONCEPTION SCH","305 N BRITTON AVE","RIO GRANDE CITY","TX","78582-3846","(956) 487-2558","(956) 487-6478","urbinaicstcc@hotmail.com","RUBIRITA T URBINA",
"JESUS CHAPEL SCHOOL","10200 Album Avenue","EL PASO","TX","79925","(915) 593-1153","915-593-1113","vbcuban@aol.com","ALBA WILCOX",
"VALLEY CHRIST HERITAGE EL","932 N ALAMO RD","ALAMO","TX","78516-9801","(956) 787-9743","(956) 787-1977","vchsangel@aol.com","MARY RYDL",
"VALLEY CHRIST HERITAGE H S","932 N ALAMO RD","ALAMO","TX","78516-9801","(956) 787-9743","(956) 787-1977","vchsangel@aol.com","MARY RYDL",
"FAITH ACADEMY Victoria","PO Box 4824","Victoria","TX","77904","361-573-2484","361-572-4602","vgomez@ffcvictoria.com","Chris Royael",
"ST AGNES ACADEMY","9000 BELLAIRE BLVD","HOUSTON","TX","77036-4683","(713) 219-5400","(713) 219-5499","vjmeyer@st-agnes.org","SISTER JANE MEYER",
"ST AGNES ACADEMY","9000 BELLAIRE BLVD","HOUSTON","TX","77036-4683","(713) 219-5400","(713) 219-5499","vjmeyer@st-agnes.org","SISTER JANE MEYER",
"ST MARGARET MARY'S SCH","1202 FAIR AVE","SAN ANTONIO","TX","78223-1498","(210) 534-6137","(210) 534-2225","vmargaret.maryschool@archdiosa.org","RAMON F. GUERRA",
"OUR LADY OF THE VALLEY","8600 WINCHESTER AVE","EL PASO","TX","79907-5322","(915) 859-6448","(915) 859-3908","vofthev1@elp.rr.com","SISTER CAROLINE VASQUEZ",
"BRAZOSPORT CHRISTIAN SCHOOL","200-B WILLOW DRIVE","LAKE JACKSON","TX","77566-4749","409-297-0563","409-297-8455","Vonda Prazak ","DAVID DIAMOND",
"GATEWAY H S","1601 IVY LN","ARLINGTON","TX","76011-6171","(817) 226-6222","(817) 226-6225","walberhr@aol.com","HARRIET R WALBER",
"ST JOHN THE EVANGELIST SCH","128 S AUDUBON","SAN ANTONIO","TX","78212-1520","(210) 735-3526","(210) 735-3526","wcarter@archdiosa.org","WARREN CARTER",
"RIVER CITY CHRISTIAN SCHOOL","5810 BLANCO RD","SAN ANTONIO","TX","78216","(210) 384-0297","(210) 384-0446","webmaster@rivercitychristianschool.com","SUSAN R GALINDO",
"SACRED HEART PARISH SCH","401 W LEONA ST","UVALDE","TX","78801-4607","(830) 278-2661","(830) 278-2833","wmoss@archdiosa.org","WAYNE MOSS",
"THE WOODLANDS ACADEMY PREPARATORY SCHOOL","27440 KUYDENDAHL RD","SPRING","TX","77389","(281) 516-0600","(281) 516-1155","wschulze@woodlandspreparatory.org","WENDY SCHULZE",
"GRACE COMMUNITY SCHOOL","3001 UNIVERSITY BOULEVARD","TYLER","TX","75701","903-566-5678","903-566-1156","wshaeffer@gracetyler.org","WANDA SHAEFFER",
"St. John's Episcopal School","848 Harter Rd","Dallas","TX","75218-2751","214-328-9131","214-320-0205","wsorensen@stjohnsschool.org","Walter M. Sorenson",
"ZION LUTHERAN SCHOOL DALLAS","6121 E LOVERS LN","DALLAS","TX","75214-2088","(214) 363-1630","(214) 361-2049","zionlcms@ziondallas.org","Jeff Thorman",
